[
	{
		"buFaNr": "1010",
		"name": "Saarlouis",
		"hausanschrift": {
			"strasse": "Gaswerkweg",
			"hausNr": "25",
			"plz": "66740",
			"ort": "Saarlouis"
		},
		"tel": "06831 4490",
		"fax": "06831 449397",
		"mail": "poststelle@fasls.saarland.de",
		"url": "www.finanzamt-saarlouis.de"
	},
	{
		"buFaNr": "1020",
		"name": "Merzig",
		"hausanschrift": {
			"strasse": "Am Gaswerk",
			"plz": "66663",
			"ort": "Merzig"
		},
		"tel": "06861 7030",
		"fax": "06861 703133",
		"mail": "poststelle@famzg.saarland.de",
		"url": "www.finanzamt-merzig.de"
	},
	{
		"buFaNr": "1030",
		"name": "Neunkirchen",
		"hausanschrift": {
			"strasse": "Uhlandstr.",
			"hausNr": "1",
			"plz": "66538",
			"ort": "Neunkirchen"
		},
		"tel": "06821 1090",
		"fax": "06821 109275",
		"mail": "poststelle@fank.saarland.de",
		"url": "www.finanzamt-neunkirchen.de"
	},
	{
		"buFaNr": "1040",
		"name": "Saarbrücken I",
		"hausanschrift": {
			"strasse": "Mecklenburgring",
			"hausNr": "23",
			"plz": "66121",
			"ort": "Saarbrücken - Eschberg"
		},
		"tel": "0681 30000",
		"fax": "0681 3000329",
		"mail": "poststelle@fasb.saarland.de",
		"url": "http://www.finanzamt-saarbruecken-1.de"
	},
	{
		"buFaNr": "1055",
		"name": "Saarbrücken II",
		"hausanschrift": {
			"strasse": "Mecklenburgring",
			"hausNr": "23",
			"plz": "66121",
			"ort": "Saarbrücken - Eschberg"
		},
		"tel": "0681 30000",
		"fax": "0681 3000762",
		"mail": "poststelle@fasbm.saarland.de",
		"url": "http://www.finanzamt-saarbruecken-2.de"
	},
	{
		"buFaNr": "1060",
		"name": "St. Wendel",
		"hausanschrift": {
			"strasse": "Marienstr.",
			"hausNr": "27",
			"plz": "66606",
			"ort": "St. Wendel"
		},
		"tel": "06851 8040",
		"fax": "06851 804189",
		"mail": "poststelle@fawnd.saarland.de",
		"url": "www.finanzamt-sankt-wendel.de"
	},
	{
		"buFaNr": "1075",
		"name": "Homburg",
		"hausanschrift": {
			"strasse": "Schillerstr.",
			"hausNr": "15",
			"plz": "66424",
			"ort": "Homburg"
		},
		"tel": "06841 6970",
		"fax": "06841 697199",
		"mail": "poststelle@fahom.saarland.de",
		"url": "www.finanzamt-homburg.de"
	},
	{
		"buFaNr": "1085",
		"name": "Homburg - Außenst. St. Ingbert",
		"hausanschrift": {
			"strasse": "Rentamtstr.",
			"hausNr": "39",
			"plz": "66386",
			"ort": "St. Ingbert"
		},
		"tel": "06894 98401",
		"fax": "06894 984159",
		"mail": "poststelle@fahom.saarland.de",
		"url": "www.finanzamt-homburg.de"
	},
	{
		"buFaNr": "1113",
		"name": "Charlottenburg",
		"hausanschrift": {
			"strasse": "Bismarckstraße",
			"hausNr": "48",
			"plz": "10627",
			"ort": "Berlin"
		},
		"tel": "030 9024-13 0",
		"mail": "poststelle@fa13.berlin.de",
		"url": "http://www.berlin.de/sen/finanzen"
	},
	{
		"buFaNr": "1114",
		"name": "Friedrichshain-Kreuzberg",
		"hausanschrift": {
			"strasse": "Mehringdamm",
			"hausNr": "22",
			"plz": "10961",
			"ort": "Berlin"
		},
		"tel": "030 9024-14 0",
		"mail": "poststelle@fa14.berlin.de",
		"url": "http://www.berlin.de/sen/finanzen"
	},
	{
		"buFaNr": "1116",
		"name": "Neukölln",
		"hausanschrift": {
			"strasse": "Thiemannstraße",
			"hausNr": "1",
			"plz": "12059",
			"ort": "Berlin"
		},
		"tel": "030 9024-16 0",
		"mail": "poststelle@fa16.berlin.de",
		"url": "http://www.berlin.de/sen/finanzen"
	},
	{
		"buFaNr": "1117",
		"name": "Reinickendorf",
		"hausanschrift": {
			"strasse": "Eichborndamm",
			"hausNr": "208",
			"plz": "13403",
			"ort": "Berlin"
		},
		"tel": "030 9024-17 0",
		"mail": "poststelle@fa17.berlin.de",
		"url": "http://www.berlin.de/sen/finanzen"
	},
	{
		"buFaNr": "1118",
		"name": "Schöneberg",
		"hausanschrift": {
			"strasse": "Potsdamer Straße",
			"hausNr": "140",
			"plz": "10783",
			"ort": "Berlin"
		},
		"tel": "030 9024-18 0",
		"mail": "poststelle@fa18.berlin.de",
		"url": "http://www.berlin.de/sen/finanzen"
	},
	{
		"buFaNr": "1119",
		"name": "Spandau",
		"hausanschrift": {
			"strasse": "Nonnendammallee",
			"hausNr": "21",
			"plz": "13599",
			"ort": "Berlin"
		},
		"tel": "030 9024-19 0",
		"mail": "poststelle@fa19.berlin.de",
		"url": "http://www.berlin.de/sen/finanzen"
	},
	{
		"buFaNr": "1120",
		"name": "Steglitz",
		"hausanschrift": {
			"strasse": "Schloßstraße",
			"hausNr": "58",
			"hausNrZusatz": "/59",
			"plz": "12165",
			"ort": "Berlin"
		},
		"tel": "030 9024-20 0",
		"mail": "poststelle@fa20.berlin.de",
		"url": "http://www.berlin.de/sen/finanzen"
	},
	{
		"buFaNr": "1121",
		"name": "Tempelhof",
		"hausanschrift": {
			"strasse": "Tempelhofer Damm",
			"hausNr": "234",
			"hausNrZusatz": "/236",
			"plz": "12099",
			"ort": "Berlin"
		},
		"tel": "030 9024-21 0",
		"mail": "poststelle@fa21.berlin.de",
		"url": "http://www.berlin.de/sen/finanzen"
	},
	{
		"buFaNr": "1123",
		"name": "Wedding",
		"hausanschrift": {
			"strasse": "Osloer Straße",
			"hausNr": "37",
			"plz": "13359",
			"ort": "Berlin"
		},
		"tel": "030 9024-23 0",
		"mail": "poststelle@fa23.berlin.de",
		"url": "http://www.berlin.de/sen/finanzen"
	},
	{
		"buFaNr": "1124",
		"name": "Wilmersdorf",
		"hausanschrift": {
			"strasse": "Albrecht-Achilles-Straße",
			"hausNr": "61",
			"hausNrZusatz": "-64",
			"plz": "10709",
			"ort": "Berlin"
		},
		"tel": "030 9024-24 0",
		"mail": "poststelle@fa24.berlin.de",
		"url": "http://www.berlin.de/sen/finanzen"
	},
	{
		"buFaNr": "1125",
		"name": "Zehlendorf",
		"hausanschrift": {
			"strasse": "Martin-Buber-Straße",
			"hausNr": "20",
			"hausNrZusatz": "/21",
			"plz": "14163",
			"ort": "Berlin"
		},
		"tel": "030 9024-25 0",
		"mail": "poststelle@fa25.berlin.de",
		"url": "http://www.berlin.de/sen/finanzen"
	},
	{
		"buFaNr": "1127",
		"name": "für Körperschaften I",
		"hausanschrift": {
			"strasse": "Bredtschneiderstraße",
			"hausNr": "5",
			"plz": "14057",
			"ort": "Berlin"
		},
		"tel": "030 9024-27 0",
		"mail": "poststelle@fa27.berlin.de",
		"url": "http://www.berlin.de/sen/finanzen"
	},
	{
		"buFaNr": "1129",
		"name": "für Körperschaften III",
		"hausanschrift": {
			"strasse": "Volkmarstraße",
			"hausNr": "13",
			"plz": "12099",
			"ort": "Berlin"
		},
		"tel": "030 9024-31 0",
		"mail": "poststelle@fa29.berlin.de",
		"url": "http://www.berlin.de/sen/finanzen"
	},
	{
		"buFaNr": "1130",
		"name": "für Körperschaften IV",
		"hausanschrift": {
			"strasse": "Magdalenenstraße",
			"hausNr": "25",
			"plz": "10365",
			"ort": "Berlin"
		},
		"tel": "030 9024-30 0",
		"mail": "poststelle@fa30.berlin.de",
		"url": "http://www.berlin.de/sen/finanzen"
	},
	{
		"buFaNr": "1131",
		"name": "Prenzlauer Berg",
		"hausanschrift": {
			"strasse": "Storkower Straße",
			"hausNr": "134",
			"plz": "10407",
			"ort": "Berlin"
		},
		"tel": "030 9024-28 0",
		"mail": "poststelle@fa31.berlin.de",
		"url": "http://www.berlin.de/sen/finanzen"
	},
	{
		"buFaNr": "1132",
		"name": "Lichtenberg",
		"hausanschrift": {
			"strasse": "Josef-Orlopp-Straße",
			"hausNr": "62",
			"plz": "10365",
			"ort": "Berlin"
		},
		"tel": "030 9024-34 0",
		"mail": "poststelle@fa32.berlin.de",
		"url": "http://www.berlin.de/sen/finanzen"
	},
	{
		"buFaNr": "1133",
		"name": "Marzahn-Hellersdorf",
		"hausanschrift": {
			"strasse": "Allee der Kosmonauten",
			"hausNr": "29",
			"plz": "12681",
			"ort": "Berlin"
		},
		"tel": "030 9024-26 0",
		"mail": "poststelle@fa33.berlin.de",
		"url": "http://www.berlin.de/sen/finanzen"
	},
	{
		"buFaNr": "1134",
		"name": "Mitte/Tiergarten",
		"hausanschrift": {
			"strasse": "Neue Jakobstraße",
			"hausNr": "6",
			"hausNrZusatz": "-7",
			"plz": "10179",
			"ort": "Berlin"
		},
		"tel": "030 9024-22 0",
		"mail": "poststelle@fa34.berlin.de",
		"url": "http://www.berlin.de/sen/finanzen"
	},
	{
		"buFaNr": "1135",
		"name": "Pankow/Weißensee",
		"hausanschrift": {
			"strasse": "Storkower Straße",
			"hausNr": "134",
			"plz": "10407",
			"ort": "Berlin"
		},
		"tel": "030 9024-33 0",
		"mail": "poststelle@fa35.berlin.de",
		"url": "http://www.berlin.de/sen/finanzen"
	},
	{
		"buFaNr": "1136",
		"name": "Treptow-Köpenick",
		"hausanschrift": {
			"strasse": "Seelenbinderstraße",
			"hausNr": "99",
			"plz": "12555",
			"ort": "Berlin"
		},
		"tel": "030 9024-12 0",
		"mail": "poststelle@fa36.berlin.de",
		"url": "http://www.berlin.de/sen/finanzen"
	},
	{
		"buFaNr": "1137",
		"name": "für Körperschaften II",
		"hausanschrift": {
			"strasse": "Magdalenenstraße",
			"hausNr": "25",
			"plz": "10365",
			"ort": "Berlin"
		},
		"tel": "030 9024-29 0",
		"mail": "poststelle@fa37.berlin.de",
		"url": "http://www.berlin.de/sen/finanzen"
	},
	{
		"buFaNr": "1138",
		"name": "für Fahndung und Strafsachen Berlin",
		"hausanschrift": {
			"strasse": "Ullsteinstraße",
			"hausNr": "66",
			"plz": "12109",
			"ort": "Berlin"
		},
		"tel": "030 9024-32500",
		"mail": "poststelle@fa38.berlin.de",
		"url": "http://www.berlin.de/sen/finanzen"
	},
	{
		"buFaNr": "1191",
		"name": "Technisches Finanzamt Berlin",
		"hausanschrift": {
			"strasse": "Klosterstraße",
			"hausNr": "59",
			"plz": "10179",
			"ort": "Berlin"
		},
		"tel": "030 9024-35 0",
		"fax": "030 9024-35 900",
		"mail": "poststelle@tfa.verwalt-berlin.de",
		"url": "http://www.berlin.de/sen/finanzen"
	},
	{
		"buFaNr": "2111",
		"name": "Bad Segeberg",
		"hausanschrift": {
			"strasse": "Theodor-Storm-Str.",
			"hausNr": "4",
			"hausNrZusatz": "-10",
			"plz": "23795",
			"ort": "Bad Segeberg"
		},
		"tel": "04551 54-0",
		"fax": "04551 54-303",
		"mail": "poststelle@fa-bad-segeberg.landsh.de"
	},
	{
		"buFaNr": "2113",
		"name": "Elmshorn",
		"hausanschrift": {
			"strasse": "Friedensallee",
			"hausNr": "7",
			"hausNrZusatz": "-9",
			"plz": "25335",
			"ort": "Elmshorn"
		},
		"tel": "04121 481-0",
		"fax": "04121 481-460",
		"mail": "poststelle@fa-elmshorn.landsh.de"
	},
	{
		"buFaNr": "2115",
		"name": "Flensburg",
		"hausanschrift": {
			"strasse": "Duburger Str.",
			"hausNr": "58",
			"hausNrZusatz": "-64",
			"plz": "24939",
			"ort": "Flensburg"
		},
		"tel": "0461 813-0",
		"fax": "0461 813-254",
		"mail": "poststelle@fa-flensburg.landsh.de"
	},
	{
		"buFaNr": "2116",
		"name": "Dithmarschen",
		"hausanschrift": {
			"strasse": "Berliner Str.",
			"hausNr": "19",
			"plz": "25746",
			"ort": "Heide"
		},
		"tel": "0481 42155-0",
		"fax": "0481 42155-690",
		"mail": "poststelle@fa-dithmarschen.landsh.de"
	},
	{
		"buFaNr": "2117",
		"name": "Nordfriesland",
		"hausanschrift": {
			"strasse": "Herzog-Adolf-Straße",
			"hausNr": "18",
			"hausNrZusatz": "a",
			"plz": "25813",
			"ort": "Husum"
		},
		"tel": "04841 8949-0",
		"fax": "04841 8949-1265",
		"mail": "poststelle@fa-nordfriesland.landsh.de"
	},
	{
		"buFaNr": "2118",
		"name": "Itzehoe",
		"hausanschrift": {
			"strasse": "Fehrsstr.",
			"hausNr": "5",
			"plz": "25524",
			"ort": "Itzehoe"
		},
		"tel": "04821 66-0",
		"fax": "04821 66-1499",
		"mail": "poststelle@fa-itzehoe.landsh.de"
	},
	{
		"buFaNr": "2120",
		"name": "Kiel",
		"hausanschrift": {
			"strasse": "Feldstr.",
			"hausNr": "23",
			"plz": "24105",
			"ort": "Kiel"
		},
		"tel": "0431 602-0",
		"fax": "0431 602-1009",
		"mail": "poststelle@fa-kiel.landsh.de"
	},
	{
		"buFaNr": "2122",
		"name": "Lübeck",
		"hausanschrift": {
			"strasse": "Possehlstr.",
			"hausNr": "4",
			"plz": "23560",
			"ort": "Lübeck"
		},
		"tel": "0451 132-0",
		"fax": "0451 132-501",
		"mail": "poststelle@fa-luebeck.landsh.de"
	},
	{
		"buFaNr": "2124",
		"name": "Neumünster",
		"hausanschrift": {
			"strasse": "Bahnhofstr.",
			"hausNr": "9",
			"plz": "24534",
			"ort": "Neumünster"
		},
		"tel": "04321 496-0",
		"fax": "04321 496-189",
		"mail": "poststelle@fa-neumuenster.landsh.de"
	},
	{
		"buFaNr": "2125",
		"name": "Ostholstein",
		"hausanschrift": {
			"strasse": "Lankenstr.",
			"hausNr": "1",
			"plz": "23758",
			"ort": "Oldenburg"
		},
		"tel": "04361 497-0",
		"fax": "04361 497-111",
		"mail": "poststelle@fa-ostholstein.landsh.de"
	},
	{
		"buFaNr": "2126",
		"name": "Plön",
		"hausanschrift": {
			"strasse": "Fünf-Seen-Allee",
			"hausNr": "1",
			"plz": "24306",
			"ort": "Plön"
		},
		"tel": "04522 506-0",
		"fax": "04522 506-2149",
		"mail": "poststelle@fa-ploen.landsh.de"
	},
	{
		"buFaNr": "2127",
		"name": "Ratzeburg",
		"hausanschrift": {
			"strasse": "Bahnhofsallee",
			"hausNr": "20",
			"plz": "23909",
			"ort": "Ratzeburg"
		},
		"tel": "04541 882-0",
		"fax": "04541 882-200",
		"mail": "poststelle@fa-ratzeburg.landsh.de"
	},
	{
		"buFaNr": "2128",
		"name": "Rendsburg",
		"hausanschrift": {
			"strasse": "Kieler Str.",
			"hausNr": "19",
			"plz": "24768",
			"ort": "Rendsburg"
		},
		"tel": "04331 598-0",
		"fax": "04331 598-2770",
		"mail": "poststelle@fa-rendsburg.landsh.de"
	},
	{
		"buFaNr": "2129",
		"name": "Eckernförde-Schleswig",
		"hausanschrift": {
			"strasse": "Suadicanistraße",
			"hausNr": "26-28",
			"plz": "24837",
			"ort": "Schleswig"
		},
		"tel": "04621 805-0",
		"fax": "04621 805-290",
		"mail": "poststelle@fa-eck-sl.landsh.de"
	},
	{
		"buFaNr": "2130",
		"name": "Stormarn",
		"hausanschrift": {
			"strasse": "Berliner Ring",
			"hausNr": "25",
			"plz": "23843",
			"ort": "Bad Oldesloe"
		},
		"tel": "04531 507-0",
		"fax": "04531 507-399",
		"mail": "poststelle@fa-stormarn.landsh.de"
	},
	{
		"buFaNr": "2131",
		"name": "Pinneberg",
		"hausanschrift": {
			"strasse": "Friedrich-Ebert-Str.",
			"hausNr": "29",
			"plz": "25421",
			"ort": "Pinneberg"
		},
		"tel": "04101 5472-0",
		"fax": "04101 5472-680",
		"mail": "poststelle@fa-pinneberg.landsh.de"
	},
	{
		"buFaNr": "2137",
		"name": "Zentrale Prüfungsdienste",
		"hausanschrift": {
			"strasse": "Hopfenstr.",
			"hausNr": "2",
			"hausNrZusatz": "a",
			"plz": "24114",
			"ort": "Kiel"
		},
		"tel": "0431 55062-0",
		"fax": "0431 - 55062-1309",
		"mail": "poststelle@fa-zpd.landsh.de"
	},
	{
		"buFaNr": "2201",
		"name": "Hamburg für Steuererhebung in Hamburg",
		"hausanschrift": {
			"strasse": "Steinstraße",
			"hausNr": "10",
			"plz": "20095",
			"ort": "Hamburg"
		},
		"tel": "040 115",
		"fax": "040 4279 22400",
		"mail": "FAfuerSteuererhebung@finanzamt.hamburg.de",
		"url": "https://www.hamburg.de/fb/steuka-start/"
	},
	{
		"buFaNr": "2210",
		"name": "Hamburg für Verkehrst. und Grundbesitz",
		"hausanschrift": {
			"strasse": "Gorch-Fock-Wall",
			"hausNr": "11",
			"plz": "20355",
			"ort": "Hamburg"
		},
		"tel": "040 115",
		"fax": "040 4279-22650",
		"mail": "FAVuG@finanzamt.hamburg.de",
		"url": "https://www.hamburg.de/fb/vug-start/"
	},
	{
		"buFaNr": "2216",
		"name": "Hamburg für Verkehrst. und Grundbesitz",
		"hausanschrift": {
			"strasse": "Gorch-Fock-Wall",
			"hausNr": "11",
			"plz": "20355",
			"ort": "Hamburg"
		},
		"tel": "040 115",
		"fax": "040 4279-22650",
		"mail": "FAVuG@finanzamt.hamburg.de",
		"url": "https://www.hamburg.de/fb/vug-start/"
	},
	{
		"buFaNr": "2217",
		"name": "Hamburg-Nord",
		"hausanschrift": {
			"strasse": "Borsteler Chaussee",
			"hausNr": "45",
			"plz": "22453",
			"ort": "Hamburg"
		},
		"tel": "040 115",
		"fax": "040 4279-58001",
		"mail": "FAHamburgNord@finanzamt.hamburg.de",
		"url": "https://www.hamburg.de/fb/nord-start/"
	},
	{
		"buFaNr": "2220",
		"name": "Hamburg für Verkehrst. und Grundbesitz",
		"hausanschrift": {
			"strasse": "Gorch-Fock-Wall",
			"hausNr": "11",
			"plz": "20355",
			"ort": "Hamburg"
		},
		"tel": "040 115",
		"fax": "040 4279-22650",
		"mail": "FAVuG@finanzamt.hamburg.de",
		"url": "https://www.hamburg.de/fb/vug-start/"
	},
	{
		"buFaNr": "2227",
		"name": "Hamburg für Großunternehmen in Hamburg",
		"hausanschrift": {
			"strasse": "Nordkanalstraße",
			"hausNr": "22",
			"plz": "20097",
			"ort": "Hamburg"
		},
		"tel": "040 115",
		"fax": "040/4 279-22094",
		"mail": "FAfuerGrossunternehmen@finanzamt.hamburg.de",
		"url": "https://www.hamburg.de/fb/grossunternehmen-start/"
	},
	{
		"buFaNr": "2228",
		"name": "Hamburg für Prüfungsd. und Strafsachen",
		"hausanschrift": {
			"strasse": "Hugh-Greene-Weg",
			"hausNr": "6",
			"plz": "22529",
			"ort": "Hamburg"
		},
		"tel": "040/428 11-5000",
		"fax": "040 4279-57438",
		"mail": "PoststelleFAPrueStra@finanzamt.hamburg.de",
		"url": "https://www.hamburg.de/fb/pruestra-start/"
	},
	{
		"buFaNr": "2230",
		"name": "Hamburg für Verkehrst. und Grundbesitz",
		"hausanschrift": {
			"strasse": "Gorch-Fock-Wall",
			"hausNr": "11",
			"plz": "20355",
			"ort": "Hamburg"
		},
		"tel": "040 115",
		"fax": "040 4279-22650",
		"mail": "FAVuG@finanzamt.hamburg.de",
		"url": "https://www.hamburg.de/fb/vug-start/"
	},
	{
		"buFaNr": "2235",
		"name": "Hamburg für Verkehrst. und Grundbesitz",
		"hausanschrift": {
			"strasse": "Gorch-Fock-Wall",
			"hausNr": "11",
			"plz": "20355",
			"ort": "Hamburg"
		},
		"tel": "040 115",
		"fax": "040 4279-22650",
		"mail": "FAVuG@finanzamt.hamburg.de",
		"url": "https://www.hamburg.de/fb/vug-start/"
	},
	{
		"buFaNr": "2241",
		"name": "Hamburg-Altona",
		"hausanschrift": {
			"strasse": "Holstenplatz",
			"hausNr": "18",
			"plz": "22765",
			"ort": "Hamburg"
		},
		"tel": "040 115",
		"fax": "040 4279-55197",
		"mail": "FAHamburgAltona@finanzamt.hamburg.de",
		"url": "https://www.hamburg.de/fb/altonastart/"
	},
	{
		"buFaNr": "2242",
		"name": "Hamburg-Am Tierpark",
		"hausanschrift": {
			"strasse": "Hugh-Greene-Weg",
			"hausNr": "6",
			"plz": "22529",
			"ort": "Hamburg"
		},
		"tel": "040 115",
		"fax": "040 4279-56106",
		"mail": "FAHamburgAmTierpark@finanzamt.hamburg.de",
		"url": "https://www.hamburg.de/fb/amtierpark-start/"
	},
	{
		"buFaNr": "2243",
		"name": "Hamburg-Barmbek-Uhlenhorst",
		"hausanschrift": {
			"strasse": "Hamburger Straße",
			"hausNr": "23",
			"plz": "22083",
			"ort": "Hamburg"
		},
		"tel": "040 115",
		"fax": "040 4279-55302",
		"mail": "FAHamburgBarmbekUhlenhorst@finanzamt.hamburg.de",
		"url": "https://www.hamburg.de/fb/bustart/"
	},
	{
		"buFaNr": "2244",
		"name": "Hamburg-Ost",
		"hausanschrift": {
			"strasse": "Nordkanalstraße",
			"hausNr": "22",
			"plz": "20097",
			"ort": "Hamburg"
		},
		"tel": "040 115",
		"fax": "040/4 279-55600",
		"mail": "FAHamburgOst@finanzamt.hamburg.de",
		"url": "http://www.hamburg.de/fb/ost-start/"
	},
	{
		"buFaNr": "2245",
		"name": "Hamburg-Eimsbüttel",
		"hausanschrift": {
			"strasse": "Hugh-Greene-Weg",
			"hausNr": "6",
			"plz": "22529",
			"ort": "Hamburg"
		},
		"tel": "040 115",
		"fax": "040 4279-55801",
		"mail": "FAHamburgEimsbuettel@finanzamt.hamburg.de",
		"url": "https://www.hamburg.de/fb/eimsbuettel-start/"
	},
	{
		"buFaNr": "2246",
		"name": "Hamburg-Hansa",
		"hausanschrift": {
			"strasse": "Steinstraße",
			"hausNr": "10",
			"plz": "20095",
			"ort": "Hamburg"
		},
		"tel": "040 115",
		"fax": "040 4279-56470",
		"mail": "FAHamburgHansa@finanzamt.hamburg.de",
		"url": "https://www.hamburg.de/fb/hansa-start/"
	},
	{
		"buFaNr": "2247",
		"name": "Hamburg-Harburg",
		"hausanschrift": {
			"strasse": "Harburger Ring",
			"hausNr": "40",
			"plz": "21073",
			"ort": "Hamburg"
		},
		"tel": "040 115",
		"fax": "040 4279-57047",
		"mail": "FAHamburgHarburg@finanzamt.hamburg.de",
		"url": "https://www.hamburg.de/fb/harburg-start/"
	},
	{
		"buFaNr": "2248",
		"name": "Hamburg-Mitte",
		"hausanschrift": {
			"strasse": "Steinstraße",
			"hausNr": "10",
			"plz": "20095",
			"ort": "Hamburg"
		},
		"tel": "040 115",
		"fax": "040 4279-57100",
		"mail": "FAHamburgMitte@finanzamt.hamburg.de",
		"url": "https://www.hamburg.de/fb/mitte-start/"
	},
	{
		"buFaNr": "2249",
		"name": "Hamburg-Nord",
		"hausanschrift": {
			"strasse": "Borsteler Chaussee",
			"hausNr": "45",
			"plz": "22453",
			"ort": "Hamburg"
		},
		"tel": "040 115",
		"fax": "040 4279-58001",
		"mail": "FAHamburgNord@finanzamt.hamburg.de",
		"url": "https://www.hamburg.de/fb/nord-start/"
	},
	{
		"buFaNr": "2250",
		"name": "Hamburg-Oberalster",
		"hausanschrift": {
			"strasse": "Nordkanalstrasse",
			"hausNr": "22",
			"plz": "20097",
			"ort": "Hamburg"
		},
		"tel": "040 115",
		"fax": "040/4 279-58131",
		"mail": "FAHamburgOberalster@finanzamt.hamburg.de",
		"url": "https://www.hamburg.de/fb/oberalster-start/"
	},
	{
		"buFaNr": "2251",
		"name": "Hamburg-Ost",
		"hausanschrift": {
			"strasse": "Nordkanalstraße",
			"hausNr": "22",
			"plz": "20097",
			"ort": "Hamburg"
		},
		"tel": "040 115",
		"fax": "040/4 279-55600",
		"mail": "FAHamburgOst@finanzamt.hamburg.de",
		"url": "http://www.hamburg.de/fb/ost-start/"
	},
	{
		"buFaNr": "2313",
		"name": "Braunschweig-Helmstedt",
		"hausanschrift": {
			"strasse": "Altewiekring",
			"hausNr": "20",
			"plz": "38102",
			"ort": "Braunschweig"
		},
		"tel": "0531 705-0",
		"fax": "0531 705-309",
		"mail": "Poststelle@fa-bs-he.niedersachsen.de",
		"url": "www.lstn.niedersachsen.de"
	},
	{
		"buFaNr": "2314",
		"name": "Braunschweig-Wilhelmstr.",
		"hausanschrift": {
			"strasse": "Wilhelmstr.",
			"hausNr": "4",
			"plz": "38100",
			"ort": "Braunschweig"
		},
		"tel": "0531 489-0",
		"fax": "0531 489-224",
		"mail": "Poststelle@fa-bs-w.niedersachsen.de",
		"url": "www.lstn.niedersachsen.de"
	},
	{
		"buFaNr": "2315",
		"name": "Buchholz in der Nordheide",
		"hausanschrift": {
			"strasse": "Bgm.-A.-Meyer-Str.",
			"hausNr": "5",
			"plz": "21244",
			"ort": "Buchholz"
		},
		"tel": "04181 203-0",
		"fax": "04181 203-444",
		"mail": "Poststelle@fa-buc.niedersachsen.de",
		"url": "www.lstn.niedersachsen.de"
	},
	{
		"buFaNr": "2316",
		"name": "Burgdorf",
		"hausanschrift": {
			"strasse": "V.d.Hannov. Tor",
			"hausNr": "30",
			"plz": "31303",
			"ort": "Burgdorf"
		},
		"tel": "05136 806-0",
		"fax": "05136 806-144",
		"mail": "Poststelle@fa-bu.niedersachsen.de",
		"url": "www.lstn.niedersachsen.de"
	},
	{
		"buFaNr": "2317",
		"name": "Celle",
		"hausanschrift": {
			"strasse": "Im Werder",
			"hausNr": "15",
			"plz": "29221",
			"ort": "Celle"
		},
		"tel": "05141 915-0",
		"fax": "05141 915-666",
		"mail": "Poststelle@fa-ce.niedersachsen.de",
		"url": "www.lstn.niedersachsen.de"
	},
	{
		"buFaNr": "2318",
		"name": "Cuxhaven",
		"hausanschrift": {
			"strasse": "Poststr.",
			"hausNr": "81",
			"plz": "27474",
			"ort": "Cuxhaven"
		},
		"tel": "04721 563-0",
		"fax": "04721 563-313",
		"mail": "Poststelle@fa-cux.niedersachsen.de",
		"url": "www.lstn.niedersachsen.de"
	},
	{
		"buFaNr": "2319",
		"name": "Gifhorn",
		"hausanschrift": {
			"strasse": "Braunschw. Str.",
			"hausNr": "6",
			"hausNrZusatz": "-8",
			"plz": "38518",
			"ort": "Gifhorn"
		},
		"tel": "05371 800-0",
		"fax": "05371 800-241",
		"mail": "Poststelle@fa-gf.niedersachsen.de",
		"url": "www.lstn.niedersachsen.de"
	},
	{
		"buFaNr": "2320",
		"name": "Göttingen",
		"hausanschrift": {
			"strasse": "Godehardstr.",
			"hausNr": "6",
			"plz": "37073",
			"ort": "Göttingen"
		},
		"tel": "0551 407-0",
		"fax": "0551 407-449",
		"mail": "Poststelle@fa-goe.niedersachsen.de",
		"url": "www.lstn.niedersachsen.de"
	},
	{
		"buFaNr": "2321",
		"name": "Goslar-Bad Gandersheim",
		"hausanschrift": {
			"strasse": "Wachtelpforte",
			"hausNr": "40",
			"plz": "38644",
			"ort": "Goslar"
		},
		"tel": "05321 559-0",
		"fax": "05321 559-200",
		"mail": "Poststelle@fa-gs-gan.niedersachsen.de",
		"url": "www.lstn.niedersachsen.de"
	},
	{
		"buFaNr": "2322",
		"name": "Hameln-Holzminden",
		"hausanschrift": {
			"strasse": "Süntelstraße",
			"hausNr": "2",
			"plz": "31785",
			"ort": "Hameln"
		},
		"tel": "05151 204-0",
		"fax": "05151 204-200",
		"mail": "Poststelle@fa-hm-hol.niedersachsen.de",
		"url": "www.lstn.niedersachsen.de"
	},
	{
		"buFaNr": "2323",
		"name": "Hannover-Land I",
		"hausanschrift": {
			"strasse": "Göttinger Chaus.",
			"hausNr": "83",
			"hausNrZusatz": "A",
			"plz": "30459",
			"ort": "Hannover"
		},
		"tel": "0511 419-1",
		"fax": "0511 419-2269",
		"mail": "Poststelle@fa-h-l1.niedersachsen.de",
		"url": "www.lstn.niedersachsen.de"
	},
	{
		"buFaNr": "2324",
		"name": "Hannover-Mitte",
		"hausanschrift": {
			"strasse": "Lavesallee",
			"hausNr": "10",
			"plz": "30169",
			"ort": "Hannover"
		},
		"tel": "0511 1675-0",
		"fax": "0511 1675-277",
		"mail": "Poststelle@fa-h-mi.niedersachsen.de",
		"url": "www.lstn.niedersachsen.de"
	},
	{
		"buFaNr": "2325",
		"name": "Hannover-Nord",
		"hausanschrift": {
			"strasse": "Vahrenwalder Str.",
			"hausNr": "206",
			"plz": "30165",
			"ort": "Hannover"
		},
		"tel": "0511 6790-0",
		"fax": "0511 6790-6090",
		"mail": "Poststelle@fa-h-no.niedersachsen.de",
		"url": "www.lstn.niedersachsen.de"
	},
	{
		"buFaNr": "2326",
		"name": "Hannover-Süd",
		"hausanschrift": {
			"strasse": "Göttinger Chaus.",
			"hausNr": "83",
			"hausNrZusatz": "B",
			"plz": "30459",
			"ort": "Hannover"
		},
		"tel": "0511 419-1",
		"fax": "0511 419-2575",
		"mail": "Poststelle@fa-h-su.niedersachsen.de",
		"url": "www.lstn.niedersachsen.de"
	},
	{
		"buFaNr": "2327",
		"name": "Hannover-Land II",
		"hausanschrift": {
			"strasse": "Vahrenwalder Str.",
			"hausNr": "208",
			"plz": "30165",
			"ort": "Hannover"
		},
		"tel": "0511 6790-0",
		"fax": "0511 6790-6633",
		"mail": "Poststelle@fa-h-l2.niedersachsen.de",
		"url": "www.lstn.niedersachsen.de"
	},
	{
		"buFaNr": "2328",
		"name": "Helmstedt",
		"hausanschrift": {
			"strasse": "Altewiekring",
			"hausNr": "20",
			"plz": "38102",
			"ort": "Braunschweig"
		},
		"tel": "0531 705-0",
		"fax": "0531 705-309",
		"mail": "Poststelle@fa-bs-he.niedersachsen.de",
		"url": "www.lstn.niedersachsen.de"
	},
	{
		"buFaNr": "2330",
		"name": "Hildesheim-Alfeld",
		"hausanschrift": {
			"strasse": "Kaiserstraße",
			"hausNr": "47",
			"plz": "31134",
			"ort": "Hildesheim"
		},
		"tel": "05121 302-0",
		"fax": "05121 302-480",
		"mail": "Poststelle@fa-hi-alf.niedersachsen.de",
		"url": "www.lstn.niedersachsen.de"
	},
	{
		"buFaNr": "2331",
		"name": "Holzminden",
		"hausanschrift": {
			"strasse": "Süntelstraße ",
			"hausNr": "2",
			"plz": "31785",
			"ort": "Hameln"
		},
		"tel": "05151 204-0",
		"fax": "05151 204-200",
		"mail": "Poststelle@fa-hm-hol.niedersachsen.de",
		"url": "www.lstn.niedersachsen.de"
	},
	{
		"buFaNr": "2333",
		"name": "Lüneburg",
		"hausanschrift": {
			"strasse": "Am Alt. Eisenwerk",
			"hausNr": "4",
			"hausNrZusatz": "a",
			"plz": "21339",
			"ort": "Lüneburg"
		},
		"tel": "04131 305-0",
		"fax": "04131 305-915",
		"mail": "Poststelle@fa-lg.niedersachsen.de",
		"url": "www.lstn.niedersachsen.de"
	},
	{
		"buFaNr": "2334",
		"name": "Nienburg/Weser",
		"hausanschrift": {
			"strasse": "Schloßplatz",
			"hausNr": "10",
			"plz": "31582",
			"ort": "Nienburg"
		},
		"tel": "05021 801-1",
		"fax": "05021 801-300",
		"mail": "Poststelle@fa-ni.niedersachsen.de",
		"url": "www.lstn.niedersachsen.de"
	},
	{
		"buFaNr": "2335",
		"name": "Northeim-Herzberg am Harz",
		"hausanschrift": {
			"strasse": "Graf-Otto-Str.",
			"hausNr": "31",
			"plz": "37154",
			"ort": "Northeim"
		},
		"tel": "05551 704-0",
		"fax": "05551 704-221",
		"mail": "Poststelle@fa-nom-hz.niedersachsen.de",
		"url": "www.lstn.niedersachsen.de"
	},
	{
		"buFaNr": "2336",
		"name": "Osterholz-Scharmbeck",
		"hausanschrift": {
			"strasse": "Pappstraße",
			"hausNr": "2",
			"plz": "27711",
			"ort": "Osterholz-Scharmbeck"
		},
		"tel": "04791 302-0",
		"fax": "04791 302-101",
		"mail": "Poststelle@fa-ohz.niedersachsen.de",
		"url": "www.lstn.niedersachsen.de"
	},
	{
		"buFaNr": "2338",
		"name": "Peine",
		"hausanschrift": {
			"strasse": "Duttenstedt.Str.",
			"hausNr": "106",
			"plz": "31224",
			"ort": "Peine"
		},
		"tel": "05171 407-0",
		"fax": "05171 407-199",
		"mail": "Poststelle@fa-pe.niedersachsen.de",
		"url": "www.lstn.niedersachsen.de"
	},
	{
		"buFaNr": "2340",
		"name": "Rotenburg (Wümme)",
		"hausanschrift": {
			"strasse": "Hoffeldstr.",
			"hausNr": "5",
			"plz": "27356",
			"ort": "Rotenburg"
		},
		"tel": "04261 74-0",
		"fax": "04261 74-108",
		"mail": "Poststelle@fa-row.niedersachsen.de",
		"url": "www.lstn.niedersachsen.de"
	},
	{
		"buFaNr": "2341",
		"name": "Soltau",
		"hausanschrift": {
			"strasse": "Rühberg",
			"hausNr": "16",
			"hausNrZusatz": "- 20",
			"plz": "29614",
			"ort": "Soltau"
		},
		"tel": "05191 807-0",
		"fax": "05191 807-100",
		"mail": "Poststelle@fa-sol.niedersachsen.de",
		"url": "www.lstn.niedersachsen.de"
	},
	{
		"buFaNr": "2343",
		"name": "Stade",
		"hausanschrift": {
			"strasse": "Harburger Str.",
			"hausNr": "113",
			"plz": "21680",
			"ort": "Stade"
		},
		"tel": "04141 536-0",
		"fax": "04141 536-499",
		"mail": "Poststelle@fa-std.niedersachsen.de",
		"url": "www.lstn.niedersachsen.de"
	},
	{
		"buFaNr": "2344",
		"name": "Stadthagen",
		"hausanschrift": {
			"strasse": "Schloß",
			"plz": "31655",
			"ort": "Stadthagen"
		},
		"tel": "05721 705-0",
		"fax": "05721 705-250",
		"mail": "Poststelle@fa-shg.niedersachsen.de",
		"url": "www.lstn.niedersachsen.de"
	},
	{
		"buFaNr": "2345",
		"name": "Sulingen",
		"hausanschrift": {
			"strasse": "Hindenburgstr.",
			"hausNr": "16",
			"plz": "27232",
			"ort": "Sulingen"
		},
		"tel": "04271 87-0",
		"fax": "04271 87-289",
		"mail": "Poststelle@fa-su.niedersachsen.de",
		"url": "www.lstn.niedersachsen.de"
	},
	{
		"buFaNr": "2346",
		"name": "Syke",
		"hausanschrift": {
			"strasse": "Bürgerm.-Mävers-Str.",
			"hausNr": "15",
			"plz": "28857",
			"ort": "Syke"
		},
		"tel": "04242 162-0",
		"fax": "04242 162-423",
		"mail": "Poststelle@fa-sy.niedersachsen.de",
		"url": "www.lstn.niedersachsen.de"
	},
	{
		"buFaNr": "2347",
		"name": "Uelzen-Lüchow",
		"hausanschrift": {
			"strasse": "Am Königsberg",
			"hausNr": "3",
			"plz": "29525",
			"ort": "Uelzen"
		},
		"tel": "0581 803-0",
		"fax": "0581 803-404",
		"mail": "Poststelle@fa-ue-luw.niedersachsen.de",
		"url": "www.lstn.niedersachsen.de"
	},
	{
		"buFaNr": "2348",
		"name": "Verden (Aller)",
		"hausanschrift": {
			"strasse": "Bremer Straße",
			"hausNr": "4",
			"plz": "27283",
			"ort": "Verden"
		},
		"tel": "04231 919-0",
		"fax": "04231 919-310",
		"mail": "Poststelle@fa-ver.niedersachsen.de",
		"url": "www.lstn.niedersachsen.de"
	},
	{
		"buFaNr": "2349",
		"name": "Wesermünde",
		"hausanschrift": {
			"strasse": "Borriesstr.",
			"hausNr": "50",
			"plz": "27570",
			"ort": "Bremerhaven"
		},
		"tel": "0471 183-0",
		"fax": "0471 183-119",
		"mail": "Poststelle@fa-wem.niedersachsen.de",
		"url": "www.lstn.niedersachsen.de"
	},
	{
		"buFaNr": "2350",
		"name": "Winsen (Luhe)",
		"hausanschrift": {
			"strasse": "Von-Somnitz-Ring",
			"hausNr": "6",
			"plz": "21423",
			"ort": "Winsen"
		},
		"tel": "04171 656-0",
		"fax": "04171 656-115 / -165",
		"mail": "Poststelle@fa-wl.niedersachsen.de",
		"url": "www.lstn.niedersachsen.de"
	},
	{
		"buFaNr": "2351",
		"name": "Wolfenbüttel",
		"hausanschrift": {
			"strasse": "Jägerstr.",
			"hausNr": "19",
			"plz": "38304",
			"ort": "Wolfenbüttel"
		},
		"tel": "05331 803-0",
		"fax": "05331 803-113 / -266",
		"mail": "Poststelle@fa-wf.niedersachsen.de",
		"url": "www.lstn.niedersachsen.de"
	},
	{
		"buFaNr": "2352",
		"name": "Zeven",
		"hausanschrift": {
			"strasse": "Kastanienweg",
			"hausNr": "1",
			"plz": "27404",
			"ort": "Zeven"
		},
		"tel": "04281 753-0",
		"fax": "04281 753-290",
		"mail": "Poststelle@fa-zev.niedersachsen.de",
		"url": "www.lstn.niedersachsen.de"
	},
	{
		"buFaNr": "2353",
		"name": "Papenburg",
		"hausanschrift": {
			"strasse": "Emdener Straße",
			"hausNr": "15",
			"plz": "26871",
			"ort": "Aschendorf"
		},
		"tel": "04962 503-0",
		"fax": "04962 503-2222",
		"mail": "Poststelle@fa-pap.niedersachsen.de",
		"url": "www.lstn.niedersachsen.de"
	},
	{
		"buFaNr": "2354",
		"name": "Aurich-Wittmund",
		"hausanschrift": {
			"strasse": "Hasseburger Str.",
			"hausNr": "3",
			"plz": "26603",
			"ort": "Aurich"
		},
		"tel": "04941 175-0",
		"fax": "04941 175-152",
		"mail": "Poststelle@fa-aur-wtm.niedersachsen.de",
		"url": "www.lstn.niedersachsen.de"
	},
	{
		"buFaNr": "2355",
		"name": "Bad Bentheim",
		"hausanschrift": {
			"strasse": "Heinrich-Böll-Str.",
			"hausNr": "2",
			"plz": "48455",
			"ort": "Bad Bentheim"
		},
		"tel": "05922 970-0",
		"fax": "05922 970-700",
		"mail": "Poststelle@fa-ben.niedersachsen.de",
		"url": "www.lstn.niedersachsen.de"
	},
	{
		"buFaNr": "2356",
		"name": "Cloppenburg",
		"hausanschrift": {
			"strasse": "Zur Basilika",
			"hausNr": "1",
			"plz": "49661",
			"ort": "Cloppenburg"
		},
		"tel": "04471 887-0",
		"fax": "04471 887-100",
		"mail": "Poststelle@fa-clp.niedersachsen.de",
		"url": "www.lstn.niedersachsen.de"
	},
	{
		"buFaNr": "2357",
		"name": "Delmenhorst",
		"hausanschrift": {
			"strasse": "Fr.-Ebert-Allee",
			"hausNr": "15",
			"plz": "27749",
			"ort": "Delmenhorst"
		},
		"tel": "04221 153-0",
		"fax": "04221 153-126",
		"mail": "Poststelle@fa-del.niedersachsen.de",
		"url": "www.lstn.niedersachsen.de"
	},
	{
		"buFaNr": "2358",
		"name": "Emden-Norden",
		"hausanschrift": {
			"strasse": "Ringstr.",
			"hausNr": "5",
			"plz": "26721",
			"ort": "Emden"
		},
		"tel": "04921 934-0",
		"fax": "04921 934-499",
		"mail": "Poststelle@fa-emd-nor.niedersachsen.de",
		"url": "www.lstn.niedersachsen.de"
	},
	{
		"buFaNr": "2360",
		"name": "Leer (Ostfriesland)",
		"hausanschrift": {
			"strasse": "Edzardstr.",
			"hausNr": "12",
			"hausNrZusatz": "/16",
			"plz": "26789",
			"ort": "Leer"
		},
		"tel": "0491 9870-0",
		"fax": "0491 9870-209",
		"mail": "Poststelle@fa-ler.niedersachsen.de",
		"url": "www.lstn.niedersachsen.de"
	},
	{
		"buFaNr": "2361",
		"name": "Lingen (Ems)",
		"hausanschrift": {
			"strasse": "Mühlentorstr. ",
			"hausNr": "16",
			"plz": "49808",
			"ort": "Lingen"
		},
		"tel": "0591 9149-0",
		"fax": "0591 9149-468",
		"mail": "Poststelle@fa-lin.niedersachsen.de",
		"url": "www.lstn.niedersachsen.de"
	},
	{
		"buFaNr": "2363",
		"name": "Nordenham",
		"hausanschrift": {
			"strasse": "Plaatweg",
			"hausNr": "1",
			"plz": "26954",
			"ort": "Nordenham"
		},
		"tel": "04731 870-0",
		"fax": "04731/870-100",
		"mail": "Poststelle@fa-nhm.niedersachsen.de",
		"url": "www.lstn.niedersachsen.de"
	},
	{
		"buFaNr": "2364",
		"name": "Oldenburg (Oldenburg)",
		"hausanschrift": {
			"strasse": "Stubbenweg",
			"hausNr": "42",
			"plz": "26125",
			"ort": "Oldenburg"
		},
		"tel": "0441 238-0",
		"fax": "0441 238-1000",
		"mail": "Poststelle@fa-ol.niedersachsen.de",
		"url": "www.lstn.niedersachsen.de"
	},
	{
		"buFaNr": "2365",
		"name": "Osnabrück-Land",
		"hausanschrift": {
			"strasse": "Winkelhausenstraße",
			"hausNr": "24",
			"hausNrZusatz": "-28",
			"plz": "49090",
			"ort": "Osnabrück"
		},
		"tel": "0541 5842-0",
		"fax": "0541 5842-450",
		"mail": "Poststelle@fa-os-l.niedersachsen.de",
		"url": "www.lstn.niedersachsen.de"
	},
	{
		"buFaNr": "2366",
		"name": "Osnabrück-Stadt",
		"hausanschrift": {
			"strasse": "Süsterstr.",
			"hausNr": "46",
			"hausNrZusatz": "/48",
			"plz": "49074",
			"ort": "Osnabrück"
		},
		"tel": "0541 354-0",
		"fax": "0541 354-312",
		"mail": "Poststelle@fa-os-s.niedersachsen.de",
		"url": "www.lstn.niedersachsen.de"
	},
	{
		"buFaNr": "2367",
		"name": "Quakenbrück",
		"hausanschrift": {
			"strasse": "Lange Straße",
			"hausNr": "37",
			"plz": "49610",
			"ort": "Quakenbrück"
		},
		"tel": "05431 184-0",
		"fax": "05431 184-101",
		"mail": "Poststelle@fa-qua.niedersachsen.de",
		"url": "www.lstn.niedersachsen.de"
	},
	{
		"buFaNr": "2368",
		"name": "Vechta",
		"hausanschrift": {
			"strasse": "Rombergstr.",
			"hausNr": "49",
			"plz": "49377",
			"ort": "Vechta"
		},
		"tel": "04441 18-0",
		"fax": "04441 18-100",
		"mail": "Poststelle@fa-vec.niedersachsen.de",
		"url": "www.lstn.niedersachsen.de"
	},
	{
		"buFaNr": "2369",
		"name": "Westerstede",
		"hausanschrift": {
			"strasse": "Ammerlandallee",
			"hausNr": "14",
			"plz": "26655",
			"ort": "Westerstede"
		},
		"tel": "04488 515-0",
		"fax": "04488 515-444",
		"mail": "Poststelle@fa-wst.niedersachsen.de",
		"url": "www.lstn.niedersachsen.de"
	},
	{
		"buFaNr": "2370",
		"name": "Wilhelmshaven",
		"hausanschrift": {
			"strasse": "Rathausplatz",
			"hausNr": "3",
			"plz": "26382",
			"ort": "Wilhelmshaven"
		},
		"tel": "04421 183-0",
		"fax": "04421 183-111",
		"mail": "Poststelle@fa-whv.niedersachsen.de",
		"url": "www.lstn.niedersachsen.de"
	},
	{
		"buFaNr": "2380",
		"name": "Braunschweig für Großbetriebsprüfung",
		"hausanschrift": {
			"strasse": "Theodor-Heuss-Str.",
			"hausNr": "4",
			"hausNrZusatz": "a",
			"plz": "38122",
			"ort": "Braunschweig"
		},
		"tel": "0531 8097-0",
		"fax": "0531 8097-333",
		"mail": "Poststelle@fa-gbp-bs.niedersachsen.de",
		"url": "www.lstn.niedersachsen.de"
	},
	{
		"buFaNr": "2381",
		"name": "Göttingen für Großbetriebsprüfung",
		"hausanschrift": {
			"strasse": "Godehardstr.",
			"hausNr": "6",
			"plz": "37073",
			"ort": "Göttingen"
		},
		"tel": "0551 407-0",
		"fax": "0551 407-448",
		"mail": "Poststelle@fa-gbp-goe.niedersachsen.de",
		"url": "www.lstn.niedersachsen.de"
	},
	{
		"buFaNr": "2382",
		"name": "Hannover für Großbetriebsprüfung",
		"hausanschrift": {
			"strasse": "Bischofsholer Damm",
			"hausNr": "19",
			"plz": "30173",
			"ort": "Hannover"
		},
		"tel": "0511 8563-0",
		"fax": "0511 8563-195",
		"mail": "Poststelle@fa-gbp-h.niedersachsen.de",
		"url": "www.lstn.niedersachsen.de"
	},
	{
		"buFaNr": "2384",
		"name": "Stade für Großbetriebsprüfung",
		"hausanschrift": {
			"strasse": "Albert-Schweitzer-Straße",
			"hausNr": "19",
			"plz": "21680",
			"ort": "Stade"
		},
		"tel": "04141 602-0",
		"fax": "04141 602-900",
		"mail": "Poststelle@fa-gbp-std.niedersachsen.de",
		"url": "www.lstn.niedersachsen.de"
	},
	{
		"buFaNr": "2385",
		"name": "Oldenburg für Großbetriebsprüfung",
		"hausanschrift": {
			"strasse": "Georgstr.",
			"hausNr": "36",
			"plz": "26121",
			"ort": "Oldenburg"
		},
		"tel": "0441 92512-0",
		"fax": "0441  92512-222",
		"mail": "Poststelle@fa-gbp-ol.niedersachsen.de",
		"url": "www.lstn.niedersachsen.de"
	},
	{
		"buFaNr": "2386",
		"name": "Osnabrück für Großbetriebsprüfung",
		"hausanschrift": {
			"strasse": "Johann-Domann-Str.",
			"hausNr": "6",
			"plz": "49080",
			"ort": "Osnabrück"
		},
		"tel": "0541 503-800",
		"fax": "0541 503-888",
		"mail": "Poststelle@fa-gbp-os.niedersachsen.de",
		"url": "www.lstn.niedersachsen.de"
	},
	{
		"buFaNr": "2390",
		"name": "für Fahndung und Strafsachen Braunschweig",
		"hausanschrift": {
			"strasse": "Rudolf-Steiner-Str.",
			"hausNr": "1",
			"plz": "38120",
			"ort": "Braunschweig"
		},
		"tel": "0531 2851-0",
		"fax": "0531 2851-150",
		"mail": "Poststelle@fa-fust-bs.niedersachsen.de",
		"url": "www.lstn.niedersachsen.de"
	},
	{
		"buFaNr": "2391",
		"name": "Hannover für Fahndung und Strafsachen",
		"hausanschrift": {
			"strasse": "Göttinger Chaus.",
			"hausNr": "83",
			"hausNrZusatz": "B",
			"plz": "30459",
			"ort": "Hannover"
		},
		"tel": "0511 419-1",
		"fax": "0511 419-2988",
		"mail": "Poststelle@fa-fust-h.niedersachsen.de",
		"url": "www.lstn.niedersachsen.de"
	},
	{
		"buFaNr": "2392",
		"name": "Lüneburg für Fahndung und Strafsachen",
		"hausanschrift": {
			"strasse": "Horst-Nickel-Str.",
			"hausNr": "6",
			"plz": "21337",
			"ort": "Lüneburg"
		},
		"tel": "04131 8308-600",
		"fax": "04131 8308-698",
		"mail": "Poststelle@fa-fust-lg.niedersachsen.de",
		"url": "www.lstn.niedersachsen.de"
	},
	{
		"buFaNr": "2393",
		"name": "Oldenburg für Fahndung und Strafsachen",
		"hausanschrift": {
			"strasse": "Alter Postweg",
			"hausNr": "13",
			"plz": "26133",
			"ort": "Oldenburg"
		},
		"tel": "0441 9401-0",
		"fax": "0441 9401-200",
		"mail": "Poststelle@fa-fust-ol.niedersachsen.de",
		"url": "www.lstn.niedersachsen.de"
	},
	{
		"buFaNr": "2457",
		"name": "Bremerhaven Bewertung Bremen",
		"hausanschrift": {
			"strasse": "Gerhard-Rohlfs-Str.",
			"hausNr": "32",
			"plz": "28757",
			"ort": "Bremen"
		},
		"tel": "0421 361-90909",
		"fax": "0421 361-94055",
		"mail": "office@FinanzamtBremerhaven.bremen.de"
	},
	{
		"buFaNr": "2460",
		"name": "Bremen",
		"hausanschrift": {
			"strasse": "Rudolf-Hilferding-Platz",
			"hausNr": "1",
			"plz": "28195",
			"ort": "Bremen"
		},
		"tel": "0421 361-90909",
		"fax": "0421 361-96205",
		"mail": "office@fa-hb.bremen.de"
	},
	{
		"buFaNr": "2471",
		"name": "Landeshauptkasse Bremen",
		"hausanschrift": {
			"strasse": "Schillerstr.",
			"hausNr": "22",
			"plz": "28195",
			"ort": "Bremen"
		},
		"tel": "0421 361-90909",
		"fax": "0421 361-94598",
		"mail": "office@lhk.bremen.de"
	},
	{
		"buFaNr": "2475",
		"name": "Bremerhaven",
		"hausanschrift": {
			"strasse": "Rickmersstr.",
			"hausNr": "90",
			"plz": "27568",
			"ort": "Bremerhaven"
		},
		"tel": "0471 596-99000",
		"fax": "0471 596-99105",
		"mail": "office@fa-bhv.bremen.de"
	},
	{
		"buFaNr": "2477",
		"name": "Bremerhaven Bewertung",
		"hausanschrift": {
			"strasse": "Rickmersstr.",
			"hausNr": "90",
			"plz": "27568",
			"ort": "Bremerhaven"
		},
		"tel": "0471 596-99000",
		"fax": "0471 596-99105",
		"mail": "office@FinanzamtBremerhaven.bremen.de"
	},
	{
		"buFaNr": "2478",
		"name": "Bremen für Außenprüfung",
		"hausanschrift": {
			"strasse": "Rudolf-Hilferding-Platz",
			"hausNr": "1",
			"plz": "28195",
			"ort": "Bremen"
		},
		"tel": "0421 361-90909",
		"fax": "0421 361-99499",
		"mail": "office@fa-ap.bremen.de"
	},
	{
		"buFaNr": "2601",
		"name": "Alsfeld-Lauterbach Verwaltungsstelle Alsfeld",
		"hausanschrift": {
			"strasse": "In der Rambach",
			"hausNr": "11",
			"plz": "36304",
			"ort": "Alsfeld"
		},
		"tel": "06631 790-0",
		"fax": "06631 790-555",
		"mail": "Poststelle@FA-AL.Hessen.de",
		"url": "www.Finanzamt-Alsfeld-Lauterbach.de"
	},
	{
		"buFaNr": "2602",
		"name": "Hersfeld-Rotenburg Verwaltungsstelle Bad Hersfeld",
		"hausanschrift": {
			"strasse": "Im Stift",
			"hausNr": "7",
			"plz": "36251",
			"ort": "Bad Hersfeld"
		},
		"tel": "06621 933-0",
		"fax": "06621 933-333",
		"mail": "Poststelle@FA-HR.Hessen.de",
		"url": "www.Finanzamt-Hersfeld-Rotenburg.de"
	},
	{
		"buFaNr": "2603",
		"name": "Bad Homburg vor der Höhe",
		"hausanschrift": {
			"strasse": "Kaiser-Friedrich-Promenade ",
			"hausNr": "8-10",
			"plz": "61348",
			"ort": "Bad Homburg v. d. Höhe"
		},
		"tel": "06172 107-0",
		"fax": "06172 107-317",
		"mail": "Poststelle@FA-BHG.Hessen.de",
		"url": "www.Finanzamt-Bad-Homburg.de"
	},
	{
		"buFaNr": "2604",
		"name": "Rheingau-Taunus Verwaltungsstelle Bad Schwalbach",
		"hausanschrift": {
			"strasse": "Emser Str.",
			"hausNr": "27",
			"hausNrZusatz": "a",
			"plz": "65307",
			"ort": "Bad Schwalbach"
		},
		"tel": "06124 705-0",
		"fax": "06124 705-399",
		"mail": "Poststelle@FA-RT.Hessen.de",
		"url": "www.Finanzamt-Rheingau-Taunus.de"
	},
	{
		"buFaNr": "2605",
		"name": "Bensheim",
		"hausanschrift": {
			"strasse": "Berliner Ring",
			"hausNr": "35",
			"plz": "64625",
			"ort": "Bensheim"
		},
		"tel": "06251 15-0",
		"fax": "06251 15-267",
		"mail": "Poststelle@FA-BEN.Hessen.de",
		"url": "www.Finanzamt-Bensheim.de"
	},
	{
		"buFaNr": "2606",
		"name": "Marburg-Biedenkopf Verwaltungsstelle Biedenkopf",
		"hausanschrift": {
			"strasse": "Im Feldchen",
			"hausNr": "2",
			"plz": "35216",
			"ort": "Biedenkopf"
		},
		"tel": "06421 698-0",
		"fax": "06421 698-109",
		"mail": "Poststelle@FA-MB.Hessen.de",
		"url": "www.Finanzamt-Marburg-Biedenkopf.de"
	},
	{
		"buFaNr": "2607",
		"name": "Darmstadt",
		"hausanschrift": {
			"strasse": "Soderstraße",
			"hausNr": "30",
			"plz": "64283",
			"ort": "Darmstadt"
		},
		"tel": "06151 102-0",
		"fax": "06151 102-1262",
		"mail": "Poststelle@FA-DAM.Hessen.de",
		"url": "www.Finanzamt-Darmstadt.de"
	},
	{
		"buFaNr": "2608",
		"name": "Dieburg",
		"hausanschrift": {
			"strasse": "Marienstraße",
			"hausNr": "19",
			"plz": "64807",
			"ort": "Dieburg"
		},
		"tel": "06071 2006-0",
		"fax": "06071 2006-100",
		"mail": "Poststelle@FA-DIB.Hessen.de",
		"url": "www.Finanzamt-Dieburg.de"
	},
	{
		"buFaNr": "2609",
		"name": "Dillenburg",
		"hausanschrift": {
			"strasse": "Wilhelmstraße",
			"hausNr": "9",
			"plz": "35683",
			"ort": "Dillenburg"
		},
		"tel": "02771 908-0",
		"fax": "02771 908-100",
		"mail": "Poststelle@FA-DIL.Hessen.de",
		"url": "www.Finanzamt-Dillenburg.de"
	},
	{
		"buFaNr": "2610",
		"name": "Eschwege-Witzenhausen Verwaltungsstelle Eschwege",
		"hausanschrift": {
			"strasse": "Schlesienstraße",
			"hausNr": "2",
			"plz": "37269",
			"ort": "Eschwege"
		},
		"tel": "05651 3320-0",
		"fax": "05651 3320-720",
		"mail": "Poststelle@FA-EW.Hessen.de",
		"url": "www.Finanzamt-Eschwege-Witzenhausen.de"
	},
	{
		"buFaNr": "2611",
		"name": "Korbach-Frankenberg Verwaltungsstelle Frankenberg",
		"hausanschrift": {
			"strasse": "Geismarer Straße",
			"hausNr": "16",
			"plz": "35066",
			"ort": "Frankenberg"
		},
		"tel": "05631 563-0",
		"fax": "05631 563-444",
		"mail": "Poststelle@FA-KF.Hessen.de",
		"url": "www.Finanzamt-Korbach-Frankenberg.de"
	},
	{
		"buFaNr": "2612",
		"name": "Frankfurt am Main",
		"hausanschrift": {
			"strasse": "Gutleutstraße",
			"hausNr": "118",
			"hausNrZusatz": "-124",
			"plz": "60327",
			"ort": "Frankfurt am Main"
		},
		"tel": "069 2545-0",
		"fax": "069 2545-1999",
		"url": "https://finanzamt.hessen.de/Frankfurt"
	},
	{
		"buFaNr": "2613",
		"name": "Frankfurt am Main",
		"hausanschrift": {
			"strasse": "Gutleutstraße",
			"hausNr": "118",
			"hausNrZusatz": "-124",
			"plz": "60327",
			"ort": "Frankfurt am Main"
		},
		"tel": "069 2545-0",
		"fax": "069 2545-1999",
		"url": "https://finanzamt.hessen.de/Frankfurt"
	},
	{
		"buFaNr": "2614",
		"name": "Frankfurt am Main",
		"hausanschrift": {
			"strasse": "Gutleutstraße ",
			"hausNr": "118",
			"hausNrZusatz": "-124",
			"plz": "60327",
			"ort": "Frankfurt am Main"
		},
		"tel": "069 2545-0",
		"fax": "069 2545-1999",
		"url": "https://finanzamt.hessen.de/Frankfurt"
	},
	{
		"buFaNr": "2615",
		"name": "Frankfurt am Main",
		"hausanschrift": {
			"strasse": "Gutleutstraße",
			"hausNr": "118",
			"hausNrZusatz": "-124",
			"plz": "60327",
			"ort": "Frankfurt am Main"
		},
		"tel": "069 2545-0",
		"fax": "069 2545-1999",
		"url": "https://finanzamt.hessen.de/Frankfurt"
	},
	{
		"buFaNr": "2616",
		"name": "Friedberg (Hessen)",
		"hausanschrift": {
			"strasse": "Leonhardstraße",
			"hausNr": "10",
			"hausNrZusatz": "- 12",
			"plz": "61169",
			"ort": "Friedberg"
		},
		"tel": "06031 49-0",
		"fax": "06031 49-6316",
		"mail": "Poststelle@FA-FBG.Hessen.de",
		"url": "www.Finanzamt-Friedberg.de"
	},
	{
		"buFaNr": "2617",
		"name": "Bensheim Außenstelle Fürth",
		"hausanschrift": {
			"strasse": "Erbacher Straße",
			"hausNr": "23",
			"plz": "64658",
			"ort": "Fürth"
		},
		"tel": "06253 206-0",
		"fax": "06251 15-267",
		"mail": "Poststelle@FA-BEN.Hessen.de",
		"url": "www.Finanzamt-Bensheim.de"
	},
	{
		"buFaNr": "2618",
		"name": "Fulda",
		"hausanschrift": {
			"strasse": "Gerbergasse",
			"hausNr": "19",
			"plz": "36037",
			"ort": "Fulda"
		},
		"tel": "0661 9610-0",
		"fax": "0661 9610-5901",
		"mail": "Poststelle@FA-FDA.Hessen.de",
		"url": "www.Finanzamt-Fulda.de"
	},
	{
		"buFaNr": "2619",
		"name": "Gelnhausen",
		"hausanschrift": {
			"strasse": "Frankfurter Straße",
			"hausNr": "14",
			"plz": "63571",
			"ort": "Gelnhausen"
		},
		"tel": "06051 86-0",
		"fax": "06051 86-299",
		"mail": "Poststelle@FA-GEL.Hessen.de",
		"url": "www.Finanzamt-Gelnhausen.de"
	},
	{
		"buFaNr": "2620",
		"name": "Gießen",
		"hausanschrift": {
			"strasse": "Schubertstraße",
			"hausNr": "60",
			"plz": "35392",
			"ort": "Gießen"
		},
		"tel": "0641 4800-100",
		"fax": "0641 4800-1590",
		"mail": "Poststelle@FA-GIS.Hessen.de",
		"url": "www.Finanzamt-Giessen.de"
	},
	{
		"buFaNr": "2621",
		"name": "Groß-Gerau",
		"hausanschrift": {
			"strasse": "Europaring",
			"hausNr": "11",
			"hausNrZusatz": "-13",
			"plz": "64521",
			"ort": "Groß-Gerau"
		},
		"tel": "06152 9924-01",
		"fax": "06152 9924-699",
		"mail": "Poststelle@FA-GGE.Hessen.de",
		"url": "www.Finanzamt-Gross-Gerau.de"
	},
	{
		"buFaNr": "2622",
		"name": "Hanau",
		"hausanschrift": {
			"strasse": "Am Freiheitsplatz",
			"hausNr": "2",
			"plz": "63450",
			"ort": "Hanau"
		},
		"tel": "06181 101-0",
		"fax": "06181 101-5001",
		"mail": "Poststelle@FA-HAN.Hessen.de",
		"url": "www.Finanzamt-Hanau.de"
	},
	{
		"buFaNr": "2623",
		"name": "Kassel",
		"hausanschrift": {
			"strasse": "Altstädter Kirchplatz",
			"hausNr": "10",
			"plz": "34369",
			"ort": "Hofgeismar"
		},
		"tel": "0561 7208-0",
		"fax": "0561 7208-1000",
		"mail": "poststelle@fa-ks.hessen.de",
		"url": "https://www.finanzamt-kassel.de"
	},
	{
		"buFaNr": "2624",
		"name": "Schwalm-Eder Verwaltungsstelle Fritzlar",
		"hausanschrift": {
			"strasse": "Georgengasse",
			"hausNr": "5",
			"plz": "34560",
			"ort": "Fritzlar"
		},
		"tel": "05622 805-0",
		"fax": "05622 805-111",
		"mail": "Poststelle@FA-SE.Hessen.de",
		"url": "www.Finanzamt-Schwalm-Eder.de"
	},
	{
		"buFaNr": "2625",
		"name": "Kassel",
		"hausanschrift": {
			"strasse": "Altmarkt",
			"hausNr": "1",
			"plz": "34125",
			"ort": "Kassel"
		},
		"tel": "0561 7208-0",
		"fax": "0561 7208-1000",
		"mail": "poststelle@fa-ks.hessen.de",
		"url": "https://www.finanzamt-kassel.de"
	},
	{
		"buFaNr": "2626",
		"name": "Kassel",
		"hausanschrift": {
			"strasse": "Altmarkt",
			"hausNr": "1",
			"plz": "34125",
			"ort": "Kassel"
		},
		"tel": "0561 7208-0",
		"fax": "0561 7208-1000",
		"mail": "poststelle@fa-ks.hessen.de",
		"url": "https://www.finanzamt-kassel.de"
	},
	{
		"buFaNr": "2627",
		"name": "Korbach-Frankenberg Verwaltungsstelle Korbach",
		"hausanschrift": {
			"strasse": "Medebacher Landstraße",
			"hausNr": "29",
			"plz": "34497",
			"ort": "Korbach"
		},
		"tel": "05631 563-0",
		"fax": "05631 563-444",
		"mail": "Poststelle@FA-KF.Hessen.de",
		"url": "www.Finanzamt-Korbach-Frankenberg.de"
	},
	{
		"buFaNr": "2628",
		"name": "Langen",
		"hausanschrift": {
			"strasse": "Zimmerstraße",
			"hausNr": "27",
			"plz": "63225",
			"ort": "Langen"
		},
		"tel": "06103 591-01",
		"fax": "06103 591-285",
		"mail": "Poststelle@FA-LAN.Hessen.de",
		"url": "www.Finanzamt-Langen.de"
	},
	{
		"buFaNr": "2629",
		"name": "Alsfeld-Lauterbach Verwaltungsstelle Lauterbach",
		"hausanschrift": {
			"strasse": "Am Alten Südbahnhof ",
			"hausNr": "1",
			"plz": "36341",
			"ort": "Lauterbach"
		},
		"tel": "06631 790-0",
		"fax": "06631 790-555",
		"mail": "Poststelle@FA-AL.Hessen.de",
		"url": "www.Finanzamt-Alsfeld-Lauterbach.de"
	},
	{
		"buFaNr": "2630",
		"name": "Limburg-Weilburg Verwaltungsstelle Limburg",
		"hausanschrift": {
			"strasse": "Walderdorffstraße",
			"hausNr": "11",
			"plz": "65549",
			"ort": "Limburg"
		},
		"tel": "06431 208-0",
		"fax": "06431 208-200",
		"mail": "Poststelle@FA-LW.Hessen.de",
		"url": "www.Finanzamt-Limburg-Weilburg.de"
	},
	{
		"buFaNr": "2631",
		"name": "Marburg-Biedenkopf Verwaltungsstelle Marburg",
		"hausanschrift": {
			"strasse": "Robert-Koch-Straße",
			"hausNr": "7",
			"plz": "35037",
			"ort": "Marburg"
		},
		"tel": "06421 698-0",
		"fax": "06421 698-109",
		"mail": "Poststelle@FA-MB.Hessen.de",
		"url": "www.Finanzamt-Marburg-Biedenkopf.de"
	},
	{
		"buFaNr": "2632",
		"name": "Schwalm-Eder Verwaltungsstelle Melsungen",
		"hausanschrift": {
			"strasse": "Kasseler Straße",
			"hausNr": "31",
			"hausNrZusatz": "Schloß",
			"plz": "34212",
			"ort": "Melsungen"
		},
		"tel": "05622 805-0",
		"fax": "05622 805-111",
		"mail": "Poststelle@FA-SE.Hessen.de",
		"url": "www.Finanzamt-Schwalm-Eder.de"
	},
	{
		"buFaNr": "2633",
		"name": "Michelstadt",
		"hausanschrift": {
			"strasse": "Erbacher Straße",
			"hausNr": "48",
			"plz": "64720",
			"ort": "Michelstadt"
		},
		"tel": "06061 78-0",
		"fax": "06061 78-100",
		"mail": "Poststelle@FA-MIC.Hessen.de",
		"url": "www.Finanzamt-Michelstadt.de"
	},
	{
		"buFaNr": "2634",
		"name": "Nidda",
		"hausanschrift": {
			"strasse": "Ludwigstraße",
			"hausNr": "39",
			"plz": "63667",
			"ort": "Nidda"
		},
		"tel": "06043 805-0",
		"fax": "06043 805-159",
		"mail": "Poststelle@FA-NID.Hessen.de",
		"url": "www.Finanzamt-Nidda.de"
	},
	{
		"buFaNr": "2635",
		"name": "Offenbach am Main",
		"hausanschrift": {
			"strasse": "Bieberer Straße",
			"hausNr": "59",
			"plz": "63065",
			"ort": "Offenbach"
		},
		"tel": "069 8091-1",
		"fax": "069 8091-2400",
		"url": "https://finanzamt.hessen.de/Offenbach"
	},
	{
		"buFaNr": "2636",
		"name": "Hersfeld-Rotenburg Verwaltungsstelle Rotenburg",
		"hausanschrift": {
			"strasse": "Dickenrücker Straße",
			"hausNr": "12",
			"plz": "36199",
			"ort": "Rotenburg"
		},
		"tel": "06621 933-0",
		"fax": "06621 933-333",
		"mail": "Poststelle@FA-HR.Hessen.de",
		"url": "www.Finanzamt-Hersfeld-Rotenburg.de"
	},
	{
		"buFaNr": "2637",
		"name": "Rheingau-Taunus Verwaltungsstelle Rüdesheim",
		"hausanschrift": {
			"strasse": "Hugo-Asbach-Straße",
			"hausNr": "3",
			"hausNrZusatz": "- 7",
			"plz": "65385",
			"ort": "Rüdesheim"
		},
		"tel": "06124 705-0",
		"fax": "06124 705-499",
		"mail": "Poststelle@FA-RT.Hessen.de",
		"url": "www.Finanzamt-Rheingau-Taunus.de"
	},
	{
		"buFaNr": "2638",
		"name": "Limburg-Weilburg Verwaltungsstelle Weilburg",
		"hausanschrift": {
			"strasse": "Kruppstraße",
			"hausNr": "1",
			"plz": "35781",
			"ort": "Weilburg"
		},
		"tel": "06431 208-0",
		"fax": "06431 208-110",
		"mail": "Poststelle@FA-LW.Hessen.de",
		"url": "www.Finanzamt-Limburg-Weilburg.de"
	},
	{
		"buFaNr": "2639",
		"name": "Wetzlar",
		"hausanschrift": {
			"strasse": "Frankfurter Straße",
			"hausNr": "59",
			"plz": "35578",
			"ort": "Wetzlar"
		},
		"tel": "06441 202-0",
		"fax": "06441 202-6810",
		"mail": "Poststelle@FA-WEZ.Hessen.de",
		"url": "www.Finanzamt-Wetzlar.de"
	},
	{
		"buFaNr": "2640",
		"name": "Wiesbaden",
		"hausanschrift": {
			"strasse": "Abraham-Lincoln-Park",
			"hausNr": "3",
			"plz": "65189",
			"ort": "Wiesbaden"
		},
		"tel": "0611 813-0",
		"fax": "0611 813-1000",
		"mail": "poststelle@fa-wi.hessen.de",
		"url": "https://www.finanzamt-wiesbaden.de"
	},
	{
		"buFaNr": "2641",
		"name": "Eschwege-Witzenhausen Verwaltungsstelle Witzenhausen",
		"hausanschrift": {
			"strasse": "Südbahnhofstraße",
			"hausNr": "37",
			"plz": "37213",
			"ort": "Witzenhausen"
		},
		"tel": "05651 3320-0",
		"fax": "05651 3320-115",
		"mail": "Poststelle@FA-EW.Hessen.de",
		"url": "www.Finanzamt-Eschwege-Witzenhausen.de"
	},
	{
		"buFaNr": "2642",
		"name": "Schwalm-Eder Verwaltungsstelle Schwalmstadt",
		"hausanschrift": {
			"strasse": "Landgraf-Philipp-Straße",
			"hausNr": "15",
			"plz": "34613",
			"ort": "Schwalmstadt"
		},
		"tel": "05622 805-0",
		"fax": "05622 805-111",
		"mail": "Poststelle@FA-SE.Hessen.de",
		"url": "www.Finanzamt-Schwalm-Eder.de"
	},
	{
		"buFaNr": "2643",
		"name": "Wiesbaden",
		"hausanschrift": {
			"strasse": "Abraham-Lincoln-Park",
			"hausNr": "3",
			"plz": "65189",
			"ort": "Wiesbaden"
		},
		"tel": "0611 813-0",
		"fax": "0611 813-1000",
		"mail": "poststelle@fa-wi.hessen.de",
		"url": "https://www.finanzamt-wiesbaden.de"
	},
	{
		"buFaNr": "2644",
		"name": "Offenbach am Main",
		"hausanschrift": {
			"strasse": "Bieberer Straße",
			"hausNr": "59",
			"plz": "63065",
			"ort": "Offenbach"
		},
		"tel": "069 8091-1",
		"fax": "069 8091-3400",
		"url": "https://finanzamt.hessen.de/Offenbach"
	},
	{
		"buFaNr": "2645",
		"name": "Frankfurt am Main",
		"hausanschrift": {
			"strasse": "Gutleutstraße ",
			"hausNr": "118",
			"hausNrZusatz": "-124",
			"plz": "60327",
			"ort": "Frankfurt am Main"
		},
		"tel": "069 2545-0",
		"fax": "069 2545-1999",
		"url": "https://finanzamt.hessen.de/Frankfurt"
	},
	{
		"buFaNr": "2646",
		"name": "Hofheim am Taunus",
		"hausanschrift": {
			"strasse": "Nordring",
			"hausNr": "4",
			"hausNrZusatz": "- 10",
			"plz": "65719",
			"ort": "Hofheim"
		},
		"tel": "06192 960-0",
		"fax": "06192 960-412",
		"mail": "Poststelle@FA-HOH.Hessen.de",
		"url": "www.Finanzamt-Hofheim-am-Taunus.de"
	},
	{
		"buFaNr": "2647",
		"name": "Frankfurt am Main",
		"hausanschrift": {
			"strasse": "Gutleutstraße",
			"hausNr": "118",
			"hausNrZusatz": "-124",
			"plz": "60327",
			"ort": "Frankfurt am Main"
		},
		"tel": "069 2545-0",
		"fax": "069 2545-1999",
		"url": "https://finanzamt.hessen.de/Frankfurt"
	},
	{
		"buFaNr": "2701",
		"name": "Bad Neuenahr-Ahrweiler",
		"hausanschrift": {
			"strasse": "Römerstr.",
			"hausNr": "5",
			"plz": "53474",
			"ort": "Bad Neuenahr-Ahrweiler"
		},
		"tel": "02641/3820",
		"fax": "02641/38212060",
		"mail": "Poststelle@fa-aw.fin-rlp.de"
	},
	{
		"buFaNr": "2702",
		"name": "Altenkirchen-Hachenburg",
		"hausanschrift": {
			"strasse": "Frankfurter Str.",
			"hausNr": "21",
			"plz": "57610",
			"ort": "Altenkirchen"
		},
		"tel": "02681/860",
		"fax": "02681/8610090",
		"mail": "Poststelle@fa-ak.fin-rlp.de",
		"url": "www.finanzamt-altenkirchen-hachenburg.de"
	},
	{
		"buFaNr": "2706",
		"name": "Bad Kreuznach",
		"hausanschrift": {
			"strasse": "Ringstr.",
			"hausNr": "10",
			"plz": "55543",
			"ort": "Bad Kreuznach"
		},
		"tel": "0671/7000",
		"fax": "0671/70011772",
		"mail": "Poststelle@fa-kh.fin-rlp.de",
		"url": "www.finanzamt-bad-kreuznach.de"
	},
	{
		"buFaNr": "2708",
		"name": "Bingen-Alzey",
		"hausanschrift": {
			"strasse": "Rochusallee",
			"hausNr": "10",
			"plz": "55411",
			"ort": "Bingen"
		},
		"tel": "06721/7060",
		"fax": "06721/70614080",
		"mail": "Poststelle@fa-bi.fin-rlp.de",
		"url": "www.finanzamt-bingen-alzey.de"
	},
	{
		"buFaNr": "2709",
		"name": "Idar-Oberstein",
		"hausanschrift": {
			"strasse": "Hauptstraße",
			"hausNr": "199",
			"plz": "55743",
			"ort": "Idar-Oberstein"
		},
		"tel": "06781/680",
		"fax": "06781/6818333",
		"mail": "Poststelle@fa-io.fin-rlp.de",
		"url": "www.finanzamt-idar-oberstein.de"
	},
	{
		"buFaNr": "2710",
		"name": "Bitburg-Prüm",
		"hausanschrift": {
			"strasse": "Kölner Straße",
			"hausNr": "20",
			"plz": "54634",
			"ort": "Bitburg"
		},
		"tel": "06561/6030",
		"fax": "06561/60315090",
		"mail": "Poststelle@fa-bt.fin-rlp.de",
		"url": "www.finanzamt-bitburg-pruem.de"
	},
	{
		"buFaNr": "2713",
		"name": "Landesfinanzkasse Daun",
		"hausanschrift": {
			"strasse": "Berliner Straße",
			"hausNr": "1",
			"plz": "54550",
			"ort": "Daun"
		},
		"tel": "06592/9579-71000",
		"fax": "06592/957916176",
		"mail": "poststelle@lfk.fin-rlp.de",
		"url": "www.landesfinanzkasse-daun.de"
	},
	{
		"buFaNr": "2719",
		"name": "Kaiserslautern",
		"hausanschrift": {
			"strasse": "Eisenbahnstr.",
			"hausNr": "56",
			"plz": "67655",
			"ort": "Kaiserslautern"
		},
		"tel": "0631/36760",
		"fax": "0631/367619500",
		"mail": "Poststelle@fa-kl.fin-rlp.de",
		"url": "www.finanzamt-kaiserslautern.de"
	},
	{
		"buFaNr": "2722",
		"name": "Koblenz",
		"hausanschrift": {
			"strasse": "Ferdinand-Sauerbruch-Str.",
			"hausNr": "19",
			"plz": "56073",
			"ort": "Koblenz"
		},
		"tel": "0261/49310",
		"fax": "0261/493120090",
		"mail": "Poststelle@fa-ko.fin-rlp.de",
		"url": "www.finanzamt-koblenz.de"
	},
	{
		"buFaNr": "2723",
		"name": "Kusel-Landstuhl",
		"hausanschrift": {
			"strasse": "Trierer Str.",
			"hausNr": "46",
			"plz": "66869",
			"ort": "Kusel"
		},
		"tel": "06381/99670",
		"fax": "06381/996721060",
		"mail": "Poststelle@fa-ku.fin-rlp.de",
		"url": "www.finanzamt-kusel-landstuhl.de"
	},
	{
		"buFaNr": "2724",
		"name": "Landau",
		"hausanschrift": {
			"strasse": "Weißquartierstr.",
			"hausNr": "13",
			"plz": "76829",
			"ort": "Landau"
		},
		"tel": "06341/9130",
		"fax": "06341/91322100",
		"mail": "Poststelle@fa-ld.fin-rlp.de"
	},
	{
		"buFaNr": "2726",
		"name": "Mainz",
		"hausanschrift": {
			"strasse": "Emy-Roeder-Str.",
			"hausNr": "3",
			"plz": "55129",
			"ort": "Mainz"
		},
		"tel": "06131 552-0",
		"fax": "06131 552-25272",
		"mail": "poststelle@fa-mz.fin-rlp.de",
		"url": "https://www.finanzamt-mainz.de"
	},
	{
		"buFaNr": "2727",
		"name": "Ludwigshafen",
		"hausanschrift": {
			"strasse": "Bayernstr.",
			"hausNr": "39",
			"plz": "67061",
			"ort": "Ludwigshafen"
		},
		"tel": "0621/56140",
		"fax": "0621/561423067",
		"mail": "Poststelle@fa-lu.fin-rlp.de",
		"url": "www.finanzamt-ludwigshafen.de"
	},
	{
		"buFaNr": "2729",
		"name": "Mayen",
		"hausanschrift": {
			"strasse": "Westbahnhofstr.",
			"hausNr": "11",
			"plz": "56727",
			"ort": "Mayen"
		},
		"tel": "02651/70260",
		"fax": "02651/702626090",
		"mail": "Poststelle@fa-my.fin-rlp.de",
		"url": "www.finanzamt-mayen.de"
	},
	{
		"buFaNr": "2730",
		"name": "Montabaur-Diez",
		"hausanschrift": {
			"strasse": "Koblenzer Str.",
			"hausNr": "15",
			"plz": "56410",
			"ort": "Montabaur"
		},
		"tel": "02602/1210",
		"fax": "02602/12127099",
		"mail": "Poststelle@fa-mt.fin-rlp.de",
		"url": "www.finanzamt-montabaur-diez.de"
	},
	{
		"buFaNr": "2731",
		"name": "Neustadt",
		"hausanschrift": {
			"strasse": "Konrad-Adenauer-Str.",
			"hausNr": "26",
			"plz": "67433",
			"ort": "Neustadt"
		},
		"tel": "06321/9300",
		"fax": "06321/93028600",
		"mail": "Poststelle@fa-nw.fin-rlp.de"
	},
	{
		"buFaNr": "2732",
		"name": "Neuwied",
		"hausanschrift": {
			"strasse": "Augustastr.",
			"hausNr": "70",
			"plz": "56564",
			"ort": "Neuwied"
		},
		"tel": "02631/9100",
		"fax": "02631/91029906",
		"mail": "Poststelle@fa-nr.fin-rlp.de"
	},
	{
		"buFaNr": "2734",
		"name": "Kusel-Landstuhl für Erb/Schenk.St. Saarland",
		"hausanschrift": {
			"strasse": "Trierer Str.",
			"hausNr": "46",
			"plz": "66869",
			"ort": "Kusel"
		},
		"tel": "06381/99670",
		"fax": "06381/996721060",
		"mail": "Poststelle@fa-ku.fin-rlp.de",
		"url": "www.finanzamt-kusel-landstuhl.de"
	},
	{
		"buFaNr": "2735",
		"name": "Pirmasens",
		"hausanschrift": {
			"strasse": "Kaiserstr.",
			"hausNr": "2",
			"plz": "66955",
			"ort": "Pirmasens"
		},
		"tel": "06331/7110",
		"fax": "06331/71130950",
		"mail": "Poststelle@fa-ps.fin-rlp.de",
		"url": "www.finanzamt-pirmasens.de"
	},
	{
		"buFaNr": "2740",
		"name": "Simmern-Zell",
		"hausanschrift": {
			"strasse": "Schlossstr.",
			"hausNr": "42",
			"plz": "56856",
			"ort": "Zell"
		},
		"tel": "06761/8550",
		"fax": "06761/85532053",
		"mail": "Poststelle@fa-si.fin-rlp.de"
	},
	{
		"buFaNr": "2741",
		"name": "Speyer-Germersheim",
		"hausanschrift": {
			"strasse": "Johannesstr.",
			"hausNr": "9",
			"hausNrZusatz": "-12",
			"plz": "67346",
			"ort": "Speyer"
		},
		"tel": "06232/60170",
		"fax": "06232/601733431",
		"mail": "Poststelle@fa-sp.fin-rlp.de",
		"url": "www.finanzamt-speyer-germersheim.de"
	},
	{
		"buFaNr": "2742",
		"name": "Trier",
		"hausanschrift": {
			"strasse": "Hubert-Neuerburg-Str.",
			"hausNr": "1",
			"plz": "54290",
			"ort": "Trier"
		},
		"tel": "0651/93600",
		"fax": "0651/936034900",
		"mail": "Poststelle@fa-tr.fin-rlp.de",
		"url": "www.finanzamt-trier.de"
	},
	{
		"buFaNr": "2743",
		"name": "Wittlich",
		"hausanschrift": {
			"strasse": "Unterer Sehlemet",
			"hausNr": "15",
			"plz": "54516",
			"ort": "Wittlich"
		},
		"tel": "06571/95360",
		"fax": "06571/953613400",
		"mail": "Poststelle@fa-wi.fin-rlp.de",
		"url": "www.finanzamt-wittlich.de"
	},
	{
		"buFaNr": "2744",
		"name": "Worms-Kirchheimbolanden",
		"hausanschrift": {
			"strasse": "Karlsplatz",
			"hausNr": "6",
			"plz": "67549",
			"ort": "Worms"
		},
		"tel": "06241/30460",
		"fax": "06241 3046-65700",
		"mail": "Poststelle@fa-wo.fin-rlp.de",
		"url": "www.finanzamt-worms-kirchheimbolanden.de"
	},
	{
		"buFaNr": "2801",
		"name": "Offenburg Außenstelle Achern",
		"hausanschrift": {
			"strasse": "Zeller Str.",
			"hausNr": "1-3",
			"plz": "77654",
			"ort": "Offenburg"
		},
		"tel": "0781 12026-0",
		"fax": "0781 12026-2999",
		"url": "https://Kontakt.fv-bwl.de"
	},
	{
		"buFaNr": "2804",
		"name": "Villingen-Schwenningen Außenstelle Donaueschingen",
		"hausanschrift": {
			"strasse": "Käferstr.",
			"hausNr": "25",
			"plz": "78166",
			"ort": "Donaueschingen"
		},
		"tel": "0771 808-0",
		"fax": "0771 808-359",
		"url": "https://Kontakt.fv-bwl.de"
	},
	{
		"buFaNr": "2805",
		"name": "Emmendingen",
		"hausanschrift": {
			"strasse": "Bahnhofstr.",
			"hausNr": "3",
			"plz": "79312",
			"ort": "Emmendingen"
		},
		"tel": "07641 450-0",
		"fax": "07641 450-350",
		"url": "https://Kontakt.fv-bwl.de"
	},
	{
		"buFaNr": "2806",
		"name": "Freiburg-Stadt",
		"hausanschrift": {
			"strasse": "Sautierstr.",
			"hausNr": "24",
			"plz": "79104",
			"ort": "Freiburg"
		},
		"tel": "0761 204-0",
		"fax": "0761 204-3295",
		"url": "https://Kontakt.fv-bwl.de"
	},
	{
		"buFaNr": "2807",
		"name": "Freiburg-Land",
		"hausanschrift": {
			"strasse": "Stefan-Meier-Str.",
			"hausNr": "133",
			"plz": "79104",
			"ort": "Freiburg"
		},
		"tel": "0761 204-0",
		"fax": "0761 204-3424",
		"url": "https://Kontakt.fv-bwl.de"
	},
	{
		"buFaNr": "2808",
		"name": "Offenburg Außenstelle Kehl",
		"hausanschrift": {
			"strasse": "Ludwig-Trick-Str.",
			"hausNr": "1",
			"plz": "77694",
			"ort": "Kehl"
		},
		"tel": "0781 12026-0",
		"fax": "0781 12026-3999",
		"url": "https://Kontakt.fv-bwl.de"
	},
	{
		"buFaNr": "2809",
		"name": "Konstanz",
		"hausanschrift": {
			"strasse": "Byk-Gulden-Str.",
			"hausNr": "2",
			"hausNrZusatz": "a",
			"plz": "78467",
			"ort": "Konstanz"
		},
		"tel": "07531 289-0",
		"fax": "07531 289-312",
		"url": "https://Kontakt.fv-bwl.de"
	},
	{
		"buFaNr": "2810",
		"name": "Lahr",
		"hausanschrift": {
			"strasse": "Gerichtstr.",
			"hausNr": "5",
			"plz": "77933",
			"ort": "Lahr"
		},
		"tel": "07821 283-0",
		"fax": "07821 283-100",
		"url": "https://Kontakt.fv-bwl.de"
	},
	{
		"buFaNr": "2811",
		"name": "Lörrach",
		"hausanschrift": {
			"strasse": "Luisenstr.",
			"hausNr": "10",
			"hausNrZusatz": "a",
			"plz": "79539",
			"ort": "Lörrach"
		},
		"tel": "07621 1678-0",
		"fax": "07621 1678-245",
		"url": "https://Kontakt.fv-bwl.de"
	},
	{
		"buFaNr": "2812",
		"name": "Müllheim",
		"hausanschrift": {
			"strasse": "Goethestr.",
			"hausNr": "11",
			"plz": "79379",
			"ort": "Müllheim"
		},
		"tel": "07631 189-0",
		"fax": "07631 189-190",
		"url": "https://Kontakt.fv-bwl.de"
	},
	{
		"buFaNr": "2813",
		"name": "Freiburg-Land Außenstelle Titisee-Neustadt",
		"hausanschrift": {
			"strasse": "Goethestr.",
			"hausNr": "5",
			"plz": "79822",
			"ort": "Titisee-Neustadt"
		},
		"tel": "07651 203-0",
		"fax": "07651 203-110",
		"url": "https://Kontakt.fv-bwl.de"
	},
	{
		"buFaNr": "2814",
		"name": "Offenburg",
		"hausanschrift": {
			"strasse": "Zeller Str.",
			"hausNr": "1",
			"hausNrZusatz": "- 3",
			"plz": "77654",
			"ort": "Offenburg"
		},
		"tel": "0781 12026-0",
		"fax": "0781 12026-1999",
		"url": "https://Kontakt.fv-bwl.de"
	},
	{
		"buFaNr": "2815",
		"name": "Rottweil Außenstelle Oberndorf",
		"hausanschrift": {
			"strasse": "Körnerstr.",
			"hausNr": "28",
			"plz": "78628",
			"ort": "Rottweil"
		},
		"tel": "07423 815-0",
		"fax": "07423 815-107",
		"url": "https://Kontakt.fv-bwl.de"
	},
	{
		"buFaNr": "2816",
		"name": "Waldshut-Tiengen Außenstelle Bad Säckingen",
		"hausanschrift": {
			"strasse": "Werderstr.",
			"hausNr": "5",
			"plz": "79713",
			"ort": "Bad Säckingen"
		},
		"tel": "07761 566-0",
		"fax": "07761 566-126",
		"url": "https://Kontakt.fv-bwl.de"
	},
	{
		"buFaNr": "2818",
		"name": "Singen",
		"hausanschrift": {
			"strasse": "Alpenstr.",
			"hausNr": "9",
			"plz": "78224",
			"ort": "Singen"
		},
		"tel": "07731 823-0",
		"fax": "07731 823-650",
		"url": "https://Kontakt.fv-bwl.de"
	},
	{
		"buFaNr": "2819",
		"name": "Rottweil",
		"hausanschrift": {
			"strasse": "Körnerstr.",
			"hausNr": "28",
			"plz": "78628",
			"ort": "Rottweil"
		},
		"tel": "0741 243-0",
		"fax": "0741 243-2194",
		"url": "https://Kontakt.fv-bwl.de"
	},
	{
		"buFaNr": "2820",
		"name": "Waldshut-Tiengen",
		"hausanschrift": {
			"strasse": "Bahnhofstr.",
			"hausNr": "11",
			"plz": "79761",
			"ort": "Waldshut-Tiengen"
		},
		"tel": "07741 603-0",
		"fax": "07741 603-213",
		"url": "https://Kontakt.fv-bwl.de"
	},
	{
		"buFaNr": "2821",
		"name": "Tuttlingen",
		"hausanschrift": {
			"strasse": "Zeughausstr.",
			"hausNr": "91",
			"plz": "78532",
			"ort": "Tuttlingen"
		},
		"tel": "07461 98-0",
		"fax": "07461 98-403",
		"url": "https://Kontakt.fv-bwl.de"
	},
	{
		"buFaNr": "2822",
		"name": "Villingen-Schwenningen",
		"hausanschrift": {
			"strasse": "Weiherstr.",
			"hausNr": "7",
			"plz": "78050",
			"ort": "Villingen-Schwenningen"
		},
		"tel": "07721 923-0",
		"fax": "07721 923-100",
		"url": "https://Kontakt.fv-bwl.de"
	},
	{
		"buFaNr": "2823",
		"name": "Offenburg Außenstelle Wolfach",
		"hausanschrift": {
			"strasse": "Hauptstr.",
			"hausNr": "55",
			"plz": "77709",
			"ort": "Wolfach"
		},
		"tel": "0781 12026-0",
		"fax": "0781 12026-4999",
		"url": "https://Kontakt.fv-bwl.de"
	},
	{
		"buFaNr": "2830",
		"name": "Bruchsal",
		"hausanschrift": {
			"strasse": "Schönbornstr.",
			"hausNr": "1",
			"hausNrZusatz": "-5",
			"plz": "76646",
			"ort": "Bruchsal"
		},
		"tel": "07251/740",
		"fax": "07251/742111",
		"url": "https://Kontakt.fv-bwl.de"
	},
	{
		"buFaNr": "2831",
		"name": "Ettlingen",
		"hausanschrift": {
			"strasse": "Pforzheimer Str.",
			"hausNr": "16",
			"plz": "76275",
			"ort": "Ettlingen"
		},
		"tel": "07243/5080",
		"fax": "07243/508295",
		"url": "https://Kontakt.fv-bwl.de"
	},
	{
		"buFaNr": "2832",
		"name": "Heidelberg",
		"hausanschrift": {
			"strasse": "Maaßstr.",
			"hausNr": "32",
			"plz": "69123",
			"ort": "Heidelberg"
		},
		"tel": "06221 7365-0",
		"fax": "06221 7365-190",
		"url": "https://Kontakt.fv-bwl.de"
	},
	{
		"buFaNr": "2833",
		"name": "Baden-Baden",
		"hausanschrift": {
			"strasse": "Stephanienstr.",
			"hausNr": "13",
			"hausNrZusatz": "+ 15",
			"plz": "76530",
			"ort": "Baden-Baden"
		},
		"tel": "07221/359-0",
		"fax": "07221/359100",
		"url": "https://Kontakt.fv-bwl.de"
	},
	{
		"buFaNr": "2834",
		"name": "Karlsruhe-Durlach",
		"hausanschrift": {
			"strasse": "Prinzessenstr.",
			"hausNr": "2",
			"plz": "76227",
			"ort": "Karlsruhe"
		},
		"tel": "0721/9940",
		"fax": "0721/9941235",
		"url": "https://Kontakt.fv-bwl.de"
	},
	{
		"buFaNr": "2835",
		"name": "Karlsruhe-Stadt",
		"hausanschrift": {
			"strasse": "Durlacher Allee ",
			"hausNr": "29",
			"plz": "76131",
			"ort": "Karlsruhe"
		},
		"tel": "0721 156-0",
		"fax": "0721 156-1000",
		"url": "https://Kontakt.fv-bwl.de"
	},
	{
		"buFaNr": "2836",
		"name": "Baden-Baden Außenstelle Bühl",
		"hausanschrift": {
			"strasse": "Straße der Weißen Rose",
			"hausNr": "8",
			"plz": "77815",
			"ort": "Bühl"
		},
		"tel": "07221 359-0",
		"fax": "07221 359-100",
		"url": "https://Kontakt.fv-bwl.de"
	},
	{
		"buFaNr": "2837",
		"name": "Mannheim-Neckarstadt",
		"hausanschrift": {
			"strasse": "Donaustraße ",
			"hausNr": "34",
			"plz": "68199",
			"ort": "Mannheim"
		},
		"tel": "0621 292-0",
		"fax": "0621 292-1010",
		"url": "https://Kontakt.fv-bwl.de"
	},
	{
		"buFaNr": "2838",
		"name": "Mannheim-Stadt",
		"hausanschrift": {
			"strasse": "Donaustraße ",
			"hausNr": "34",
			"plz": "68199",
			"ort": "Mannheim"
		},
		"tel": "0621 292-0",
		"fax": "0621 292-3640",
		"url": "https://Kontakt.fv-bwl.de"
	},
	{
		"buFaNr": "2839",
		"name": "Rastatt",
		"hausanschrift": {
			"strasse": "An der Ludwigfeste",
			"hausNr": "3",
			"plz": "76437",
			"ort": "Rastatt"
		},
		"tel": "07222/9780",
		"fax": "07222/978330",
		"url": "https://Kontakt.fv-bwl.de"
	},
	{
		"buFaNr": "2840",
		"name": "Mosbach",
		"hausanschrift": {
			"strasse": "Pfalzgraf-Otto-Str.",
			"hausNr": "5",
			"plz": "74821",
			"ort": "Mosbach"
		},
		"tel": "06261 807-0",
		"fax": "06261 807-200",
		"url": "https://Kontakt.fv-bwl.de"
	},
	{
		"buFaNr": "2841",
		"name": "Pforzheim",
		"hausanschrift": {
			"strasse": "Moltkestr.",
			"hausNr": "8",
			"plz": "75179",
			"ort": "Pforzheim"
		},
		"tel": "07231 183-0",
		"fax": "07231 183-1111",
		"url": "https://Kontakt.fv-bwl.de"
	},
	{
		"buFaNr": "2842",
		"name": "Freudenstadt",
		"hausanschrift": {
			"strasse": "Musbacher Str.",
			"hausNr": "33",
			"plz": "72250",
			"ort": "Freudenstadt"
		},
		"tel": "07441/560",
		"fax": "07441/561011",
		"url": "https://Kontakt.fv-bwl.de"
	},
	{
		"buFaNr": "2843",
		"name": "Schwetzingen",
		"hausanschrift": {
			"strasse": "Schloss",
			"plz": "68723",
			"ort": "Schwetzingen"
		},
		"tel": "06202 81-0",
		"fax": "06202 81-298",
		"url": "https://Kontakt.fv-bwl.de"
	},
	{
		"buFaNr": "2844",
		"name": "Sinsheim",
		"hausanschrift": {
			"strasse": "Bahnhofstr.",
			"hausNr": "27",
			"plz": "74889",
			"ort": "Sinsheim"
		},
		"tel": "07261 696-0",
		"fax": "07261 696-444",
		"url": "https://Kontakt.fv-bwl.de"
	},
	{
		"buFaNr": "2845",
		"name": "Calw",
		"hausanschrift": {
			"strasse": "Klosterhof",
			"hausNr": "1",
			"plz": "75365",
			"ort": "Calw"
		},
		"tel": "07051/5870",
		"fax": "07051/587111",
		"url": "https://Kontakt.fv-bwl.de"
	},
	{
		"buFaNr": "2846",
		"name": "Mosbach Außenstelle Walldürn",
		"hausanschrift": {
			"strasse": "Albert-Schneider-Str.",
			"hausNr": "1",
			"plz": "74731",
			"ort": "Walldürn"
		},
		"tel": "06282 705-0",
		"fax": "06282 705-500",
		"url": "https://Kontakt.fv-bwl.de"
	},
	{
		"buFaNr": "2847",
		"name": "Weinheim",
		"hausanschrift": {
			"strasse": "Weschnitzstr.",
			"hausNr": "2",
			"plz": "69469",
			"ort": "Weinheim"
		},
		"tel": "06201 605-0",
		"fax": "06201 605-220/299",
		"url": "https://Kontakt.fv-bwl.de"
	},
	{
		"buFaNr": "2848",
		"name": "Mühlacker",
		"hausanschrift": {
			"strasse": "Konrad-Adenauer-Platz",
			"hausNr": "6",
			"plz": "75417",
			"ort": "Mühlacker"
		},
		"tel": "07041/8930",
		"fax": "07041/893999",
		"url": "https://Kontakt.fv-bwl.de"
	},
	{
		"buFaNr": "2849",
		"name": "Pforzheim Außenstelle Neuenbürg",
		"hausanschrift": {
			"strasse": "Wildbader Str.",
			"hausNr": "107",
			"plz": "75305",
			"ort": "Neuenbürg"
		},
		"tel": "07231 183-0",
		"fax": "07231 183-1166",
		"url": "https://Kontakt.fv-bwl.de"
	},
	{
		"buFaNr": "2850",
		"name": "Aalen",
		"hausanschrift": {
			"strasse": "Bleichgartenstr.",
			"hausNr": "17",
			"plz": "73431",
			"ort": "Aalen"
		},
		"tel": "(07361) 9578-0",
		"fax": "(07361)9578-440",
		"url": "https://Kontakt.fv-bwl.de"
	},
	{
		"buFaNr": "2851",
		"name": "Backnang",
		"hausanschrift": {
			"strasse": "Spinnerei",
			"hausNr": "48",
			"plz": "71522",
			"ort": "Backnang"
		},
		"tel": "07191 12-0",
		"fax": "07191 12-221",
		"url": "https://Kontakt.fv-bwl.de"
	},
	{
		"buFaNr": "2852",
		"name": "Tauberbischofsheim Außenstelle Bad Mergentheim",
		"hausanschrift": {
			"strasse": "Schloss",
			"hausNr": "7",
			"plz": "97980",
			"ort": "Bad Mergentheim"
		},
		"tel": "09341 804-0",
		"fax": "09341 804-133",
		"url": "https://Kontakt.fv-bwl.de"
	},
	{
		"buFaNr": "2853",
		"name": "Balingen",
		"hausanschrift": {
			"strasse": "Jakob-Beutter-Str.",
			"hausNr": "4",
			"plz": "72336",
			"ort": "Balingen"
		},
		"tel": "07433/970",
		"fax": "07433/972099",
		"url": "https://Kontakt.fv-bwl.de"
	},
	{
		"buFaNr": "2854",
		"name": "Biberach",
		"hausanschrift": {
			"strasse": "Bahnhofstr.",
			"hausNr": "11",
			"plz": "88400",
			"ort": "Biberach"
		},
		"tel": "07351/590",
		"fax": "07351/591119",
		"url": "https://Kontakt.fv-bwl.de"
	},
	{
		"buFaNr": "2855",
		"name": "Bietigheim-Bissingen",
		"hausanschrift": {
			"strasse": "Kronenbergstr.",
			"hausNr": "13",
			"plz": "74321",
			"ort": "Bietigheim-Bissingen"
		},
		"tel": "07142/5900",
		"fax": "07142/590199",
		"url": "https://Kontakt.fv-bwl.de"
	},
	{
		"buFaNr": "2856",
		"name": "Böblingen",
		"hausanschrift": {
			"strasse": "Talstr.",
			"hausNr": "46",
			"plz": "71034",
			"ort": "Böblingen"
		},
		"tel": "07031 13-01",
		"fax": "07031 13-3200",
		"url": "https://Kontakt.fv-bwl.de"
	},
	{
		"buFaNr": "2857",
		"name": "Schwäbisch Hall Außenstelle Crailsheim",
		"hausanschrift": {
			"strasse": "Bahnhofstr.",
			"hausNr": "25",
			"plz": "74523",
			"ort": "Schwäbisch Hall"
		},
		"tel": "07951 401-0",
		"fax": "07951 401-1500",
		"url": "https://Kontakt.fv-bwl.de"
	},
	{
		"buFaNr": "2858",
		"name": "Ehingen",
		"hausanschrift": {
			"strasse": "Hehlestr.",
			"hausNr": "19",
			"plz": "89584",
			"ort": "Ehingen"
		},
		"tel": "07391/5080",
		"fax": "07391/508260",
		"url": "https://Kontakt.fv-bwl.de"
	},
	{
		"buFaNr": "2859",
		"name": "Esslingen",
		"hausanschrift": {
			"strasse": "Entengrabenstr.",
			"hausNr": "11",
			"plz": "73728",
			"ort": "Esslingen"
		},
		"tel": "0711/39721",
		"fax": "0711/3972400",
		"url": "https://Kontakt.fv-bwl.de"
	},
	{
		"buFaNr": "2861",
		"name": "Friedrichshafen",
		"hausanschrift": {
			"strasse": "Ehlersstr.",
			"hausNr": "13",
			"plz": "88046",
			"ort": "Friedrichshafen"
		},
		"tel": "07541/7060",
		"fax": "07541/706111",
		"url": "https://Kontakt.fv-bwl.de"
	},
	{
		"buFaNr": "2862",
		"name": "Göppingen Außenstelle Geislingen",
		"hausanschrift": {
			"strasse": "Gartenstr.",
			"hausNr": "42",
			"plz": "73033",
			"ort": "Göppingen"
		},
		"tel": "07161/9703-0",
		"fax": "07161/9703-2935",
		"url": "https://Kontakt.fv-bwl.de"
	},
	{
		"buFaNr": "2863",
		"name": "Göppingen",
		"hausanschrift": {
			"strasse": "Gartenstr.",
			"hausNr": "42",
			"plz": "73033",
			"ort": "Göppingen"
		},
		"tel": "07161/9703-0",
		"fax": "07161/9703-2935",
		"url": "https://Kontakt.fv-bwl.de"
	},
	{
		"buFaNr": "2864",
		"name": "Heidenheim",
		"hausanschrift": {
			"strasse": "Marienstr.",
			"hausNr": "15",
			"plz": "89518",
			"ort": "Heidenheim"
		},
		"tel": "07321/380",
		"fax": "07321/381528",
		"url": "https://Kontakt.fv-bwl.de"
	},
	{
		"buFaNr": "2865",
		"name": "Heilbronn",
		"hausanschrift": {
			"strasse": "Moltkestr.",
			"hausNr": "91",
			"plz": "74076",
			"ort": "Heilbronn"
		},
		"tel": "07131 7475-0",
		"fax": "07131 7475-3000",
		"url": "https://Kontakt.fv-bwl.de"
	},
	{
		"buFaNr": "2869",
		"name": "Nürtingen Außenstelle Kirchheim",
		"hausanschrift": {
			"strasse": "Sigmaringer Str.",
			"hausNr": "15",
			"plz": "72622",
			"ort": "Nürtingen"
		},
		"tel": "07021 575-0",
		"fax": "07021 575-258",
		"url": "https://Kontakt.fv-bwl.de"
	},
	{
		"buFaNr": "2870",
		"name": "Leonberg",
		"hausanschrift": {
			"strasse": "Schlosshof",
			"hausNr": "3",
			"plz": "71229",
			"ort": "Leonberg"
		},
		"tel": "07152 15-1",
		"fax": "07152 15-333",
		"url": "https://Kontakt.fv-bwl.de"
	},
	{
		"buFaNr": "2871",
		"name": "Ludwigsburg",
		"hausanschrift": {
			"strasse": "Alt-Württemberg-Allee",
			"hausNr": "40",
			"plz": "71638",
			"ort": "Ludwigsburg"
		},
		"tel": "07141/180",
		"fax": "07141/182105",
		"url": "https://Kontakt.fv-bwl.de"
	},
	{
		"buFaNr": "2874",
		"name": "Nürtingen",
		"hausanschrift": {
			"strasse": "Sigmaringer Str.",
			"hausNr": "15",
			"plz": "72622",
			"ort": "Nürtingen"
		},
		"tel": "07022/7090",
		"fax": "07022/709-120",
		"url": "https://Kontakt.fv-bwl.de"
	},
	{
		"buFaNr": "2876",
		"name": "Öhringen",
		"hausanschrift": {
			"strasse": "Haagweg",
			"hausNr": "39",
			"plz": "74613",
			"ort": "Öhringen"
		},
		"tel": "07941 604-0",
		"fax": "07941 604-400",
		"url": "https://Kontakt.fv-bwl.de"
	},
	{
		"buFaNr": "2877",
		"name": "Ravensburg",
		"hausanschrift": {
			"strasse": "Broner Platz",
			"hausNr": "12",
			"plz": "88250",
			"ort": "Weingarten"
		},
		"tel": "0751 403-0",
		"fax": "0751 403-303",
		"url": "https://Kontakt.fv-bwl.de"
	},
	{
		"buFaNr": "2878",
		"name": "Reutlingen",
		"hausanschrift": {
			"strasse": "Leonhardsplatz",
			"hausNr": "1",
			"plz": "72764",
			"ort": "Reutlingen"
		},
		"tel": "07121 940-0",
		"fax": "07121 940-1002",
		"url": "https://Kontakt.fv-bwl.de"
	},
	{
		"buFaNr": "2879",
		"name": "Biberach Außenstelle Riedlingen",
		"hausanschrift": {
			"strasse": "Bahnhofstr. ",
			"hausNr": "11",
			"plz": "88400",
			"ort": "Biberach"
		},
		"tel": "07351 59-0",
		"fax": "07351 591005",
		"url": "https://Kontakt.fv-bwl.de"
	},
	{
		"buFaNr": "2880",
		"name": "Tauberbischofsheim",
		"hausanschrift": {
			"strasse": "Dr.-Burger-Str.",
			"hausNr": "1",
			"plz": "97941",
			"ort": "Tauberbischofsheim"
		},
		"tel": "09341 804-0",
		"fax": "09341 804-244",
		"url": "https://Kontakt.fv-bwl.de"
	},
	{
		"buFaNr": "2881",
		"name": "Sigmaringen Außenstelle Bad Saulgau",
		"hausanschrift": {
			"strasse": "Karlstr.",
			"hausNr": "31",
			"plz": "72488",
			"ort": "Sigmaringen"
		},
		"tel": "07581 504-0",
		"fax": "07581 504-499",
		"url": "https://Kontakt.fv-bwl.de"
	},
	{
		"buFaNr": "2882",
		"name": "Schorndorf",
		"hausanschrift": {
			"strasse": "Johann-Philipp-Palm-Str.",
			"hausNr": "28",
			"plz": "73614",
			"ort": "Schorndorf"
		},
		"tel": "07181/6010",
		"fax": "07181/601499",
		"url": "https://Kontakt.fv-bwl.de"
	},
	{
		"buFaNr": "2883",
		"name": "Schwäbisch Gmünd",
		"hausanschrift": {
			"strasse": "Augustinerstr.",
			"hausNr": "6",
			"plz": "73525",
			"ort": "Schwäbisch Gmünd"
		},
		"tel": "07171 602-0",
		"fax": "07171 602-266",
		"url": "https://Kontakt.fv-bwl.de"
	},
	{
		"buFaNr": "2884",
		"name": "Schwäbisch Hall",
		"hausanschrift": {
			"strasse": "Bahnhofstr.",
			"hausNr": "25",
			"plz": "74523",
			"ort": "Schwäbisch Hall"
		},
		"tel": "0791 752-0",
		"fax": "0791 752-3900",
		"url": "https://Kontakt.fv-bwl.de"
	},
	{
		"buFaNr": "2885",
		"name": "Sigmaringen",
		"hausanschrift": {
			"strasse": "Karlstr.",
			"hausNr": "31",
			"plz": "72488",
			"ort": "Sigmaringen"
		},
		"tel": "07571 101-0",
		"fax": "07571 101-300",
		"url": "https://Kontakt.fv-bwl.de"
	},
	{
		"buFaNr": "2886",
		"name": "Tübingen",
		"hausanschrift": {
			"strasse": "Steinlachallee",
			"hausNr": "6",
			"hausNrZusatz": "- 8",
			"plz": "72072",
			"ort": "Tübingen"
		},
		"tel": "07071/7570",
		"fax": "07071/7574500",
		"url": "https://Kontakt.fv-bwl.de"
	},
	{
		"buFaNr": "2887",
		"name": "Überlingen (Bodensee)",
		"hausanschrift": {
			"strasse": "Mühlenstr.",
			"hausNr": "28",
			"plz": "88662",
			"ort": "Überlingen"
		},
		"tel": "07551 836-0",
		"fax": "07551 836-299",
		"url": "https://Kontakt.fv-bwl.de"
	},
	{
		"buFaNr": "2888",
		"name": "Ulm",
		"hausanschrift": {
			"strasse": "Wagnerstr.",
			"hausNr": "2",
			"plz": "89077",
			"ort": "Ulm"
		},
		"tel": "0731/1030",
		"fax": "0731/103800",
		"url": "https://Kontakt.fv-bwl.de"
	},
	{
		"buFaNr": "2889",
		"name": "Bad Urach",
		"hausanschrift": {
			"strasse": "Graf-Eberhard-Platz",
			"hausNr": "7",
			"plz": "72574",
			"ort": "Bad Urach"
		},
		"tel": "07125 158-0",
		"fax": "07125 158-300",
		"url": "https://Kontakt.fv-bwl.de"
	},
	{
		"buFaNr": "2890",
		"name": "Waiblingen",
		"hausanschrift": {
			"strasse": "Fronackerstr.",
			"hausNr": "77",
			"plz": "71332",
			"ort": "Waiblingen"
		},
		"tel": "07151/9550",
		"fax": "07151/955200",
		"url": "https://Kontakt.fv-bwl.de"
	},
	{
		"buFaNr": "2891",
		"name": "Wangen",
		"hausanschrift": {
			"strasse": "Lindauer Str.",
			"hausNr": "37",
			"plz": "88239",
			"ort": "Wangen"
		},
		"tel": "07522 71-0",
		"fax": "07522 71-4000",
		"url": "https://Kontakt.fv-bwl.de"
	},
	{
		"buFaNr": "2892",
		"name": "Stuttgart IV",
		"hausanschrift": {
			"strasse": "Seidenstr.",
			"hausNr": "23",
			"plz": "70174",
			"ort": "Stuttgart"
		},
		"tel": "0711/66730",
		"fax": "0711/66736060",
		"url": "https://Kontakt.fv-bwl.de"
	},
	{
		"buFaNr": "2893",
		"name": "Stuttgart I",
		"hausanschrift": {
			"strasse": "Rotebühlplatz",
			"hausNr": "30",
			"plz": "70173",
			"ort": "Stuttgart"
		},
		"tel": "0711 6673-0",
		"fax": "0711 6673-5010",
		"url": "https://Kontakt.fv-bwl.de"
	},
	{
		"buFaNr": "2895",
		"name": "Stuttgart II",
		"hausanschrift": {
			"strasse": "Rotebühlstr.",
			"hausNr": "40",
			"plz": "70178",
			"ort": "Stuttgart"
		},
		"tel": "0711/66730",
		"fax": "0711/66735610",
		"url": "https://Kontakt.fv-bwl.de"
	},
	{
		"buFaNr": "2896",
		"name": "Stuttgart Zentrales Konzernprüfungsamt",
		"hausanschrift": {
			"strasse": "Rotebühlplatz",
			"hausNr": "30",
			"plz": "70173",
			"ort": "Stuttgart"
		},
		"tel": "0711 6673-0",
		"fax": "0711 6673-4040",
		"url": "https://Kontakt.fv-bwl.de"
	},
	{
		"buFaNr": "2897",
		"name": "Stuttgart III",
		"hausanschrift": {
			"strasse": "Rotebühlplatz",
			"hausNr": "30",
			"plz": "70173",
			"ort": "Stuttgart"
		},
		"tel": "0711/66730",
		"fax": "0711/66735710",
		"url": "https://Kontakt.fv-bwl.de"
	},
	{
		"buFaNr": "2899",
		"name": "Stuttgart-Körpersch.",
		"hausanschrift": {
			"strasse": "Paulinenstr.",
			"hausNr": "44",
			"plz": "70178",
			"ort": "Stuttgart"
		},
		"tel": "0711/66730",
		"fax": "0711/66736525",
		"url": "https://Kontakt.fv-bwl.de"
	},
	{
		"buFaNr": "3046",
		"name": "Potsdam",
		"hausanschrift": {
			"strasse": "Steinstr.",
			"hausNr": "104",
			"hausNrZusatz": "- 106, Haus 9",
			"plz": "14480",
			"ort": "Potsdam"
		},
		"tel": "0331 287-0",
		"mail": "poststelle.fa-potsdam@fa.brandenburg.de",
		"url": "www.fa-potsdam.brandenburg.de"
	},
	{
		"buFaNr": "3048",
		"name": "Brandenburg",
		"hausanschrift": {
			"strasse": "Magdeburger Straße",
			"hausNr": "46",
			"plz": "14770",
			"ort": "Brandenburg an der Havel"
		},
		"tel": "03381 397-199",
		"mail": "poststelle.fa-brandenburg@fa.brandenburg.de",
		"url": "www.fa-brandenburg.brandenburg.de"
	},
	{
		"buFaNr": "3049",
		"name": "Königs Wusterhausen",
		"hausanschrift": {
			"strasse": "Max-Werner-Straße",
			"hausNr": "9",
			"plz": "15711",
			"ort": "Königs Wusterhausen"
		},
		"tel": "03375 275-0",
		"mail": "poststelle.fa-koenigs-wusterhausen@fa.brandenburg.de",
		"url": "www.fa-koenigs-wusterhausen.brandenburg.de"
	},
	{
		"buFaNr": "3050",
		"name": "Luckenwalde",
		"hausanschrift": {
			"strasse": "Erich-Mendelsohn-Straße",
			"hausNr": "2",
			"plz": "14943",
			"ort": "Luckenwalde"
		},
		"tel": "03371 606-0",
		"mail": "poststelle.fa-luckenwalde@fa.brandenburg.de",
		"url": "www.fa-luckenwalde.brandenburg.de"
	},
	{
		"buFaNr": "3051",
		"name": "Nauen",
		"hausanschrift": {
			"strasse": "Ketziner Straße",
			"hausNr": "3",
			"plz": "14641",
			"ort": "Nauen"
		},
		"tel": "03321 412-0",
		"mail": "poststelle.fa-nauen@fa.brandenburg.de",
		"url": "www.fa-nauen.brandenburg.de"
	},
	{
		"buFaNr": "3052",
		"name": "Kyritz",
		"hausanschrift": {
			"strasse": "Perleberger Straße",
			"hausNr": "1",
			"plz": "16866",
			"ort": "Kyritz"
		},
		"tel": "033971 65-0",
		"mail": "poststelle.fa-kyritz@fa.brandenburg.de",
		"url": "www.fa-kyritz.brandenburg.de"
	},
	{
		"buFaNr": "3053",
		"name": "Oranienburg",
		"hausanschrift": {
			"strasse": "Heinrich-Grüber-Platz",
			"hausNr": "3",
			"plz": "16515",
			"ort": "Oranienburg"
		},
		"tel": "03301 857-0",
		"mail": "poststelle.fa-oranienburg@fa.brandenburg.de",
		"url": "www.fa-oranienburg.brandenburg.de"
	},
	{
		"buFaNr": "3056",
		"name": "Cottbus",
		"hausanschrift": {
			"strasse": "Vom-Stein-Straße",
			"hausNr": "29",
			"plz": "03050",
			"ort": "Cottbus"
		},
		"tel": "0355 4991-4100",
		"mail": "poststelle.fa-cottbus@fa.brandenburg.de",
		"url": "www.fa-cottbus.brandenburg.de"
	},
	{
		"buFaNr": "3057",
		"name": "Calau",
		"hausanschrift": {
			"strasse": "Springteichallee",
			"hausNr": "25",
			"plz": "03205",
			"ort": "Calau"
		},
		"tel": "03541 83-0",
		"mail": "poststelle.fa-calau@fa.brandenburg.de",
		"url": "www.fa-calau.brandenburg.de"
	},
	{
		"buFaNr": "3061",
		"name": "Frankfurt (Oder)",
		"hausanschrift": {
			"strasse": "Müllroser Chaussee",
			"hausNr": "53",
			"plz": "15236",
			"ort": "Frankfurt (Oder)"
		},
		"tel": "0335 60676-1399",
		"mail": "poststelle.fa-frankfurt-oder@fa.brandenburg.de",
		"url": "www.fa-frankfurt-oder.brandenburg.de"
	},
	{
		"buFaNr": "3062",
		"name": "Angermünde",
		"hausanschrift": {
			"strasse": "Jahnstraße",
			"hausNr": "49",
			"plz": "16278",
			"ort": "Angermünde"
		},
		"tel": "03331 267-0",
		"mail": "poststelle.fa-angermuende@fa.brandenburg.de",
		"url": "www.fa-angermuende.brandenburg.de"
	},
	{
		"buFaNr": "3064",
		"name": "Strausberg",
		"hausanschrift": {
			"strasse": "Prötzeler Chaussee",
			"hausNr": "12",
			"hausNrZusatz": "A",
			"plz": "15344",
			"ort": "Strausberg"
		},
		"tel": "03341 342-0",
		"mail": "poststelle.fa-strausberg@fa.brandenburg.de",
		"url": "www.fa-strausberg.brandenburg.de"
	},
	{
		"buFaNr": "3065",
		"name": "Eberswalde",
		"hausanschrift": {
			"strasse": "Tramper Chaussee",
			"hausNr": "5",
			"plz": "16225",
			"ort": "Eberswalde"
		},
		"tel": "03334 275-4000",
		"mail": "poststelle.fa-eberswalde@fa.brandenburg.de",
		"url": "www.fa-eberswalde.brandenburg.de"
	},
	{
		"buFaNr": "3102",
		"name": "Magdeburg",
		"hausanschrift": {
			"strasse": "Tessenowstraße",
			"hausNr": "10",
			"plz": "39114",
			"ort": "Magdeburg"
		},
		"tel": "0391 885-12",
		"fax": "0391 885-1000",
		"url": "https://finanzamt.sachsen-anhalt.de/finanzaemter-lsa/"
	},
	{
		"buFaNr": "3103",
		"name": "Genthin",
		"hausanschrift": {
			"strasse": "Berliner Chaussee",
			"hausNr": "29",
			"hausNrZusatz": "b",
			"plz": "39307",
			"ort": "Genthin"
		},
		"tel": "03933 908-0",
		"fax": "03933 908-499",
		"url": "https://finanzamt.sachsen-anhalt.de/finanzaemter-lsa/"
	},
	{
		"buFaNr": "3105",
		"name": "Haldensleben",
		"hausanschrift": {
			"strasse": "Jungfernstieg",
			"hausNr": "37",
			"plz": "39340",
			"ort": "Haldensleben"
		},
		"tel": "03904 482-0",
		"fax": "03904 482-4600",
		"url": "https://finanzamt.sachsen-anhalt.de/finanzaemter-lsa/"
	},
	{
		"buFaNr": "3106",
		"name": "Salzwedel",
		"hausanschrift": {
			"strasse": "Buchenallee",
			"hausNr": "2",
			"plz": "29410",
			"ort": "Salzwedel"
		},
		"tel": "03901 857-0",
		"fax": "03901 857-4600",
		"url": "https://finanzamt.sachsen-anhalt.de/finanzaemter-lsa/"
	},
	{
		"buFaNr": "3107",
		"name": "Staßfurt",
		"hausanschrift": {
			"strasse": "Atzendorfer Straße",
			"hausNr": "20",
			"plz": "39418",
			"ort": "Staßfurt"
		},
		"tel": "03925 980-0",
		"fax": "03925 980-4600",
		"url": "https://finanzamt.sachsen-anhalt.de/finanzaemter-lsa/"
	},
	{
		"buFaNr": "3108",
		"name": "Stendal",
		"hausanschrift": {
			"strasse": "Scharnhorststraße",
			"hausNr": "87",
			"plz": "39576",
			"ort": "Stendal"
		},
		"tel": "03931 4953-0",
		"fax": "03931 4953-4600",
		"url": "https://finanzamt.sachsen-anhalt.de/finanzaemter-lsa/"
	},
	{
		"buFaNr": "3110",
		"name": "Halle (Saale)",
		"hausanschrift": {
			"strasse": "Hallorenring",
			"hausNr": "10",
			"plz": "06108",
			"ort": "Halle (Saale)"
		},
		"tel": "0345 6924-0",
		"fax": "0345 6924-4600",
		"url": "https://finanzamt.sachsen-anhalt.de/finanzaemter-lsa/"
	},
	{
		"buFaNr": "3112",
		"name": "Merseburg",
		"hausanschrift": {
			"strasse": "Bahnhofstraße",
			"hausNr": "10",
			"plz": "06217",
			"ort": "Merseburg"
		},
		"tel": "03461 8224-0",
		"fax": "03461 8224-4600",
		"url": "https://finanzamt.sachsen-anhalt.de/finanzaemter-lsa/"
	},
	{
		"buFaNr": "3114",
		"name": "Dessau-Roßlau",
		"hausanschrift": {
			"strasse": "Kühnauer Straße",
			"hausNr": "166",
			"plz": "06846",
			"ort": "Dessau-Roßlau"
		},
		"tel": "0340 2548-0",
		"fax": "0340 2548-4600",
		"url": "https://finanzamt.sachsen-anhalt.de/finanzaemter-lsa/"
	},
	{
		"buFaNr": "3115",
		"name": "Wittenberg",
		"hausanschrift": {
			"strasse": "Dresdener Straße",
			"hausNr": "40",
			"plz": "06886",
			"ort": "Wittenberg"
		},
		"tel": "03491 430-0",
		"fax": "03491 430-4600",
		"url": "https://finanzamt.sachsen-anhalt.de/finanzaemter-lsa/"
	},
	{
		"buFaNr": "3116",
		"name": "Bitterfeld-Wolfen",
		"hausanschrift": {
			"strasse": "OT Bitterfeld Mittelstraße",
			"hausNr": "20",
			"plz": "06749",
			"ort": "Bitterfeld-Wolfen"
		},
		"tel": "03493 345-0",
		"fax": "03493 345-4600",
		"url": "https://finanzamt.sachsen-anhalt.de/finanzaemter-lsa/"
	},
	{
		"buFaNr": "3117",
		"name": "Quedlinburg",
		"hausanschrift": {
			"strasse": "Klopstockweg",
			"hausNr": "21",
			"plz": "06484",
			"ort": "Quedlinburg"
		},
		"tel": "03946 529-0",
		"fax": "03946 529-4600",
		"url": "https://finanzamt.sachsen-anhalt.de/finanzaemter-lsa/"
	},
	{
		"buFaNr": "3118",
		"name": "Eisleben",
		"hausanschrift": {
			"strasse": "Bahnhofsring",
			"hausNr": "10",
			"hausNrZusatz": "a",
			"plz": "06295",
			"ort": "Eisleben"
		},
		"tel": "03475 725-0",
		"fax": "03475 725-4600",
		"url": "https://finanzamt.sachsen-anhalt.de/finanzaemter-lsa/"
	},
	{
		"buFaNr": "3119",
		"name": "Naumburg",
		"hausanschrift": {
			"strasse": "Oststraße",
			"hausNr": "26",
			"hausNrZusatz": "/26 a",
			"plz": "06618",
			"ort": "Naumburg"
		},
		"tel": "03445 238-0",
		"fax": "03445 238-4600",
		"url": "https://finanzamt.sachsen-anhalt.de/finanzaemter-lsa/"
	},
	{
		"buFaNr": "3202",
		"name": "Dresden-Nord",
		"hausanschrift": {
			"strasse": "Rabenerstraße",
			"hausNr": "1",
			"plz": "01069",
			"ort": "Dresden"
		},
		"tel": "0351 4691-0",
		"fax": "0351 4691-9000",
		"mail": "poststelle@fa-dresden-nord.smf.sachsen.de",
		"url": "http://www.finanzamt.sachsen.de/dresden-nord.html"
	},
	{
		"buFaNr": "3203",
		"name": "Dresden-Süd",
		"hausanschrift": {
			"strasse": "Rabenerstraße",
			"hausNr": "1",
			"plz": "01069",
			"ort": "Dresden"
		},
		"tel": "0351 4691-0",
		"fax": "0351 4691-9999",
		"mail": "poststelle@fa-dresden-sued.smf.sachsen.de",
		"url": "http://www.finanzamt.sachsen.de/dresden-sued.html"
	},
	{
		"buFaNr": "3204",
		"name": "Bautzen",
		"hausanschrift": {
			"strasse": "Wendischer Graben",
			"hausNr": "3",
			"plz": "02625",
			"ort": "Bautzen"
		},
		"tel": "03591 488-0",
		"fax": "03591 488-8888",
		"mail": "poststelle@fa-bautzen.smf.sachsen.de",
		"url": "http://www.finanzamt.sachsen.de/bautzen.html"
	},
	{
		"buFaNr": "3207",
		"name": "Görlitz",
		"hausanschrift": {
			"strasse": "Sonnenstraße",
			"hausNr": "7",
			"plz": "02826",
			"ort": "Görlitz"
		},
		"tel": "03581 875-0",
		"fax": "03581 875-1100",
		"mail": "poststelle@fa-goerlitz.smf.sachsen.de",
		"url": "http://www.finanzamt.sachsen.de/goerlitz.html"
	},
	{
		"buFaNr": "3208",
		"name": "Löbau",
		"hausanschrift": {
			"strasse": "Georgewitzer Str.",
			"hausNr": "40",
			"plz": "02708",
			"ort": "Löbau"
		},
		"tel": "03585 455-0",
		"fax": "03585 455-100",
		"mail": "poststelle@fa-loebau.smf.sachsen.de",
		"url": "http://www.finanzamt.sachsen.de/loebau.html"
	},
	{
		"buFaNr": "3209",
		"name": "Meißen",
		"hausanschrift": {
			"strasse": "Heinrich-Heine-Straße",
			"hausNr": "23",
			"plz": "01662",
			"ort": "Meißen"
		},
		"tel": "03521 718-0",
		"fax": "03521 718-2000",
		"mail": "poststelle@fa-meissen.smf.sachsen.de",
		"url": "http://www.finanzamt.sachsen.de/meissen.html"
	},
	{
		"buFaNr": "3210",
		"name": "Pirna",
		"hausanschrift": {
			"strasse": "Clara-Zetkin-Straße",
			"hausNr": "1",
			"plz": "01796",
			"ort": "Pirna"
		},
		"tel": "03501 551-0",
		"fax": "03501 551-9000",
		"mail": "poststelle@fa-pirna.smf.sachsen.de",
		"url": "http://www.finanzamt.sachsen.de/pirna.html"
	},
	{
		"buFaNr": "3213",
		"name": "Hoyerswerda",
		"hausanschrift": {
			"strasse": "Pforzheimer Platz",
			"hausNr": "1",
			"plz": "02977",
			"ort": "Hoyerswerda"
		},
		"tel": "03571 460-0",
		"fax": "03571 460-1050",
		"mail": "poststelle@fa-hoyerswerda.smf.sachsen.de",
		"url": "http://www.finanzamt.sachsen.de/hoyerswerda.html"
	},
	{
		"buFaNr": "3214",
		"name": "Chemnitz-Süd",
		"hausanschrift": {
			"strasse": "Paul-Bertz-Str.",
			"hausNr": "1",
			"plz": "09120",
			"ort": "Chemnitz"
		},
		"tel": "0371 279-0",
		"fax": "0371 279-2049",
		"mail": "poststelle@fa-chemnitz-sued.smf.sachsen.de",
		"url": "http://www.finanzamt.sachsen.de/chemnitz-sued.html"
	},
	{
		"buFaNr": "3215",
		"name": "Chemnitz-Mitte",
		"hausanschrift": {
			"strasse": "Straße der Nationen",
			"hausNr": "2",
			"hausNrZusatz": "-4",
			"plz": "09111",
			"ort": "Chemnitz"
		},
		"tel": "0371 467-0",
		"fax": "0371 467-9000",
		"mail": "poststelle@fa-chemnitz-mitte.smf.sachsen.de",
		"url": "http://www.finanzamt.sachsen.de/chemnitz-mitte.html"
	},
	{
		"buFaNr": "3217",
		"name": "Annaberg",
		"hausanschrift": {
			"strasse": "Magazingasse",
			"hausNr": "16",
			"plz": "09456",
			"ort": "Annaberg-B."
		},
		"tel": "03733 4270",
		"fax": "03733 427-9000",
		"mail": "poststelle@fa-annaberg.smf.sachsen.de",
		"url": "http://www.finanzamt.sachsen.de/annaberg.html"
	},
	{
		"buFaNr": "3218",
		"name": "Schwarzenberg",
		"hausanschrift": {
			"strasse": "Karlsbader Str.",
			"hausNr": "23",
			"plz": "08340",
			"ort": "Schwarzenberg"
		},
		"tel": "03774 161-0",
		"fax": "03774 161-100",
		"mail": "poststelle@fa-schwarzenberg.smf.sachsen.de",
		"url": "http://www.finanzamt.sachsen.de/schwarzenberg.html"
	},
	{
		"buFaNr": "3220",
		"name": "Freiberg",
		"hausanschrift": {
			"strasse": "Brückenstr.",
			"hausNr": "1",
			"plz": "09599",
			"ort": "Freiberg"
		},
		"tel": "03731 379-0",
		"fax": "03731 379-999",
		"mail": "poststelle@fa-freiberg.smf.sachsen.de",
		"url": "http://www.finanzamt.sachsen.de/freiberg.html"
	},
	{
		"buFaNr": "3222",
		"name": "Mittweida",
		"hausanschrift": {
			"strasse": "Robert-Koch-Str.",
			"hausNr": "17",
			"plz": "09648",
			"ort": "Mittweida"
		},
		"tel": "03727 987-0",
		"fax": "03727 987-333",
		"mail": "poststelle@fa-mittweida.smf.sachsen.de",
		"url": "http://www.finanzamt.sachsen.de/mittweida.html"
	},
	{
		"buFaNr": "3223",
		"name": "Plauen",
		"hausanschrift": {
			"strasse": "Europaratstraße",
			"hausNr": "17",
			"plz": "08523",
			"ort": "Plauen"
		},
		"tel": "03741 7189-0",
		"fax": "03741 7189-9000",
		"mail": "poststelle@fa-plauen.smf.sachsen.de",
		"url": "http://www.finanzamt.sachsen.de/plauen.html"
	},
	{
		"buFaNr": "3224",
		"name": "Stollberg",
		"hausanschrift": {
			"strasse": "Hohensteiner Straße",
			"hausNr": "54",
			"plz": "09366",
			"ort": "Stollberg"
		},
		"tel": "037296 522-0",
		"fax": "037296 522-9000",
		"mail": "poststelle@fa-stollberg.smf.sachsen.de",
		"url": "http://www.finanzamt.sachsen.de/stollberg.html"
	},
	{
		"buFaNr": "3227",
		"name": "Zwickau",
		"hausanschrift": {
			"strasse": "Lessingstraße",
			"hausNr": "15",
			"plz": "08058",
			"ort": "Zwickau"
		},
		"tel": "0375 28368-0",
		"fax": "0375 28368-9999",
		"mail": "poststelle@fa-zwickau.smf.sachsen.de",
		"url": "http://www.finanzamt.sachsen.de/zwickau.html"
	},
	{
		"buFaNr": "3228",
		"name": "Zschopau",
		"hausanschrift": {
			"strasse": "August-Bebel-Str.",
			"hausNr": "17",
			"plz": "09405",
			"ort": "Zschopau"
		},
		"tel": "03725 293-0",
		"fax": "03725 293-1070",
		"mail": "poststelle@fa-zschopau.smf.sachsen.de",
		"url": "http://www.finanzamt.sachsen.de/zschopau.html"
	},
	{
		"buFaNr": "3231",
		"name": "Leipzig II",
		"hausanschrift": {
			"strasse": "Nordplatz",
			"hausNr": "11",
			"plz": "04105",
			"ort": "Leipzig"
		},
		"tel": "0341 559-0",
		"fax": "0341 559-2505",
		"mail": "poststelle@fa-leipzig2.smf.sachsen.de",
		"url": "http://www.finanzamt.sachsen.de/leipzig2.html"
	},
	{
		"buFaNr": "3232",
		"name": "Leipzig I",
		"hausanschrift": {
			"strasse": "Wilhelm-Liebknecht-Platz",
			"hausNr": "3",
			"hausNrZusatz": "/4",
			"plz": "04105",
			"ort": "Leipzig"
		},
		"tel": "0341 559-0",
		"fax": "0341 559-3640",
		"mail": "poststelle@fa-leipzig1.smf.sachsen.de",
		"url": "http://www.finanzamt.sachsen.de/leipzig1.html"
	},
	{
		"buFaNr": "3236",
		"name": "Döbeln",
		"hausanschrift": {
			"strasse": "Burgstr.",
			"hausNr": "31",
			"plz": "04720",
			"ort": "Döbeln"
		},
		"tel": "03431 653-30",
		"fax": "03431 653-444",
		"mail": "poststelle@fa-doebeln.smf.sachsen.de",
		"url": "http://www.finanzamt.sachsen.de/doebeln.html"
	},
	{
		"buFaNr": "3237",
		"name": "Eilenburg",
		"hausanschrift": {
			"strasse": "Walther-Rathenau-Straße",
			"hausNr": "8",
			"plz": "04838",
			"ort": "Eilenburg"
		},
		"tel": "03423 660-0",
		"fax": "03423 660-460",
		"mail": "poststelle@fa-eilenburg.smf.sachsen.de",
		"url": "http://www.finanzamt.sachsen.de/eilenburg.html"
	},
	{
		"buFaNr": "3238",
		"name": "Grimma",
		"hausanschrift": {
			"strasse": "Lausicker Straße",
			"hausNr": "2",
			"hausNrZusatz": "-4",
			"plz": "04668",
			"ort": "Grimma"
		},
		"tel": "03437 940-0",
		"fax": "03437 940-5000",
		"mail": "poststelle@fa-grimma.smf.sachsen.de",
		"url": "http://www.finanzamt.sachsen.de/grimma.html"
	},
	{
		"buFaNr": "3239",
		"name": "Oschatz",
		"hausanschrift": {
			"strasse": "Dresdener Str.",
			"hausNr": "77",
			"plz": "04758",
			"ort": "Oschatz"
		},
		"tel": "03435 978-0",
		"fax": "03435 978-366",
		"mail": "poststelle@fa-oschatz.smf.sachsen.de",
		"url": "http://www.finanzamt.sachsen.de/oschatz.html"
	},
	{
		"buFaNr": "4069",
		"name": "Neubrandenburg - RAB",
		"hausanschrift": {
			"strasse": "Neustrelitzer Str.",
			"hausNr": "120",
			"plz": "17033",
			"ort": "Neubrandenburg"
		},
		"tel": "0395/44222 47000",
		"fax": "0395/44222 47100",
		"url": "www.finanzamt-neubrandenburg.de"
	},
	{
		"buFaNr": "4070",
		"name": "Neubrandenburg - RIA (Rentenempfänger im Ausland)",
		"hausanschrift": {
			"strasse": "Neustrelitzer Str.",
			"hausNr": "120",
			"plz": "17033",
			"ort": "Neubrandenburg"
		},
		"tel": "0395/44222 47000",
		"fax": "0395/44222 47100",
		"mail": "ria@finanzamt-neubrandenburg.de",
		"url": "www.finanzamt-neubrandenburg.de"
	},
	{
		"buFaNr": "4072",
		"name": "Neubrandenburg",
		"hausanschrift": {
			"strasse": "Neustrelitzer Str.",
			"hausNr": "120",
			"plz": "17033",
			"ort": "Neubrandenburg"
		},
		"tel": "0395 44222-0",
		"fax": "0395 44222-46300",
		"mail": "poststelle@finanzamt-neubrandenburg.de",
		"url": "www.finanzamt-neubrandenburg.de"
	},
	{
		"buFaNr": "4075",
		"name": "Waren",
		"hausanschrift": {
			"strasse": "Einsteinstr.",
			"hausNr": "15",
			"plz": "17192",
			"ort": "Waren (Müritz)"
		},
		"tel": "0385 588-40000",
		"fax": "0385 588-40400",
		"mail": "poststelle@finanzamt-waren.de",
		"url": "www.finanzamt-waren.de"
	},
	{
		"buFaNr": "4079",
		"name": "Rostock",
		"hausanschrift": {
			"strasse": "Möllner Str.",
			"hausNr": "13",
			"plz": "18109",
			"ort": "Rostock"
		},
		"tel": "0381 12845-0",
		"fax": "0381 12845-4300",
		"mail": "poststelle@finanzamt-rostock.de",
		"url": "www.finanzamt-rostock.de"
	},
	{
		"buFaNr": "4080",
		"name": "Wismar",
		"hausanschrift": {
			"strasse": "Philosophenweg",
			"hausNr": "1",
			"plz": "23970",
			"ort": "Wismar"
		},
		"tel": "0385 588-50000",
		"fax": "0385 588-50300",
		"mail": "poststelle@finanzamt-wismar.de",
		"url": "www.finanzamt-wismar.de"
	},
	{
		"buFaNr": "4081",
		"name": "Ribnitz-Damgarten",
		"hausanschrift": {
			"strasse": "Sandhufe",
			"hausNr": "3",
			"plz": "18311",
			"ort": "Ribnitz-Damgarten"
		},
		"tel": "0385 588-45000",
		"fax": "0385 588-45300",
		"mail": "poststelle@finanzamt-ribnitz-damgarten.de",
		"url": "www.finanzamt-ribnitz-damgarten.de"
	},
	{
		"buFaNr": "4082",
		"name": "Stralsund",
		"hausanschrift": {
			"strasse": "Zur Schwedenschanze",
			"hausNr": "1",
			"plz": "18435",
			"ort": "Stralsund"
		},
		"tel": "03831 366-0",
		"fax": "03831 366-48300",
		"mail": "poststelle@finanzamt-stralsund.de",
		"url": "www.finanzamt-stralsund.de"
	},
	{
		"buFaNr": "4084",
		"name": "Greifswald",
		"hausanschrift": {
			"strasse": "Am Gorzberg Haus",
			"hausNr": "11",
			"plz": "17489",
			"ort": "Greifswald"
		},
		"tel": "03834 5352-0",
		"fax": "03834 5352-3300",
		"mail": "poststelle@finanzamt-greifswald.de",
		"url": "www.finanzamt-greifswald.de"
	},
	{
		"buFaNr": "4086",
		"name": "Güstrow",
		"hausanschrift": {
			"strasse": "Klosterhof",
			"hausNr": "1",
			"plz": "18273",
			"ort": "Güstrow"
		},
		"tel": "0385 588-53000",
		"fax": "0385 588-53500",
		"mail": "poststelle@finanzamt-guestrow.de",
		"url": "www.finanzamt-guestrow.de"
	},
	{
		"buFaNr": "4087",
		"name": "Hagenow",
		"hausanschrift": {
			"strasse": "Steegener Chaussee",
			"hausNr": "8",
			"plz": "19230",
			"ort": "Hagenow"
		},
		"tel": "0385 588-51000",
		"fax": "0385 588-51500",
		"mail": "poststelle@finanzamt-hagenow.de",
		"url": "www.finanzamt-hagenow.de"
	},
	{
		"buFaNr": "4090",
		"name": "Schwerin",
		"hausanschrift": {
			"strasse": "Johannes-Stelling-Str.",
			"hausNr": "9",
			"hausNrZusatz": "-11",
			"plz": "19053",
			"ort": "Schwerin"
		},
		"mail": "poststelle@finanzamt-schwerin.de",
		"url": "www.finanzamt-schwerin.de"
	},
	{
		"buFaNr": "4151",
		"name": "Erfurt",
		"hausanschrift": {
			"strasse": "August-Röbling-Straße",
			"hausNr": "10",
			"plz": "99091",
			"ort": "Erfurt"
		},
		"tel": "0361 573615-000",
		"fax": "0361 573615-800",
		"mail": "poststelle@finanzamt-erfurt.thueringen.de",
		"url": "https://finanzamt.thueringen.de/standort/finanzamt-erfurt/"
	},
	{
		"buFaNr": "4154",
		"name": "Ilmenau",
		"hausanschrift": {
			"strasse": "Wallgraben",
			"hausNr": "1",
			"plz": "98693",
			"ort": "Ilmenau"
		},
		"tel": "0361 573638-000",
		"fax": "0361 573638-111",
		"mail": "poststelle@finanzamt-ilmenau.thueringen.de",
		"url": "https://finanzamt.thueringen.de/standort/finanzamt-ilmenau/"
	},
	{
		"buFaNr": "4155",
		"name": "Eisenach",
		"hausanschrift": {
			"strasse": "Ernst-Thälmann-Straße",
			"hausNr": "70",
			"plz": "99817",
			"ort": "Eisenach"
		},
		"tel": "0361 573617-000",
		"fax": "0361 573617-010",
		"mail": "poststelle@finanzamt-eisenach.thueringen.de",
		"url": "https://finanzamt.thueringen.de/standort/finanzamt-eisenach/"
	},
	{
		"buFaNr": "4156",
		"name": "Gotha",
		"hausanschrift": {
			"strasse": "Reuterstr.",
			"hausNr": "2",
			"hausNrZusatz": "a",
			"plz": "99867",
			"ort": "Gotha"
		},
		"tel": "0361 573637-000",
		"fax": "0361 573637-100",
		"mail": "poststelle@finanzamt-gotha.thueringen.de",
		"url": "https://finanzamt.thueringen.de/standort/finanzamt-gotha"
	},
	{
		"buFaNr": "4157",
		"name": "Mühlhausen",
		"hausanschrift": {
			"strasse": "Martinistr.",
			"hausNr": "22",
			"plz": "99974",
			"ort": "Mühlhausen"
		},
		"tel": "0361 573613-000",
		"fax": "0361 573613-100",
		"mail": "poststelle@finanzamt-muehlhausen.thueringen.de",
		"url": "https://finanzamt.thueringen.de/standort/finanzamt-muehlhausen/"
	},
	{
		"buFaNr": "4159",
		"name": "Sondershausen",
		"hausanschrift": {
			"strasse": "Schillerstraße",
			"hausNr": "6",
			"plz": "99706",
			"ort": "Sondershausen"
		},
		"tel": "0361 573639-000",
		"fax": "0361 573639-555",
		"mail": "poststelle@finanzamt-sondershausen.thueringen.de",
		"url": "https://finanzamt.thueringen.de/standort/finanzamt-sondershausen/"
	},
	{
		"buFaNr": "4161",
		"name": "Gera",
		"hausanschrift": {
			"strasse": "Hermann-Drechsler-Str.",
			"hausNr": "1",
			"plz": "07548",
			"ort": "Gera"
		},
		"tel": "0361 573625-000",
		"fax": "0361 573625-491",
		"mail": "poststelle@finanzamt-gera.thueringen.de",
		"url": "https://finanzamt.thueringen.de/standort/finanzamt-gera/"
	},
	{
		"buFaNr": "4162",
		"name": "Jena",
		"hausanschrift": {
			"strasse": "Leutragraben",
			"hausNr": "8",
			"plz": "07743",
			"ort": "Jena"
		},
		"tel": "0361 573626-000",
		"fax": "0361 573626-653",
		"mail": "poststelle@finanzamt-jena.thueringen.de",
		"url": "https://finanzamt.thueringen.de/standort/finanzamt-jena/"
	},
	{
		"buFaNr": "4165",
		"name": "Pößneck",
		"hausanschrift": {
			"strasse": "Gerberstr.",
			"hausNr": "65",
			"plz": "07381",
			"ort": "Pößneck"
		},
		"tel": "0361 573624-000",
		"fax": "0361 573624-430",
		"mail": "poststelle@finanzamt-poessneck.thueringen.de",
		"url": "https://finanzamt.thueringen.de/standort/finanzamt-poessneck/"
	},
	{
		"buFaNr": "4166",
		"name": "Altenburg",
		"hausanschrift": {
			"strasse": "Wenzelstr.",
			"hausNr": "45",
			"plz": "04600",
			"ort": "Altenburg"
		},
		"tel": "0361 573623-000",
		"fax": "0361 573623-200",
		"mail": "poststelle@finanzamt-altenburg.thueringen.de",
		"url": "https://finanzamt.thueringen.de/standort/finanzamt-altenburg/"
	},
	{
		"buFaNr": "4170",
		"name": "Sonneberg",
		"hausanschrift": {
			"strasse": "Köppelsdorfer Straße",
			"hausNr": "86",
			"plz": "96515",
			"ort": "Sonneberg"
		},
		"tel": "0361 573651-000",
		"fax": "0361 573651-254",
		"mail": "poststelle@finanzamt-sonneberg.thueringen.de",
		"url": "https://finanzamt.thueringen.de/standort/finanzamt-sonneberg/"
	},
	{
		"buFaNr": "4171",
		"name": "Suhl",
		"hausanschrift": {
			"strasse": "Karl-Liebknecht-Str.",
			"hausNr": "4",
			"plz": "98527",
			"ort": "Suhl"
		},
		"tel": "0361 573619-000",
		"fax": "0361 573619-512",
		"mail": "poststelle@finanzamt-suhl.thueringen.de",
		"url": "https://finanzamt.thueringen.de/standort/finanzamt-suhl/"
	},
	{
		"buFaNr": "5101",
		"name": "Dinslaken",
		"hausanschrift": {
			"strasse": "Schillerstr.",
			"hausNr": "71",
			"plz": "46535",
			"ort": "Dinslaken"
		},
		"tel": "02064 445-0",
		"fax": "0800 10092675101",
		"url": "www.finanzamt.nrw.de"
	},
	{
		"buFaNr": "5102",
		"name": "Viersen",
		"hausanschrift": {
			"strasse": "Eindhovener Str.",
			"hausNr": "71",
			"plz": "41751",
			"ort": "Viersen"
		},
		"tel": "02162 955-0",
		"fax": "0800 10092675102",
		"url": "www.finanzamt.nrw.de"
	},
	{
		"buFaNr": "5103",
		"name": "Düsseldorf-Altstadt",
		"hausanschrift": {
			"strasse": "Oberrather Str.",
			"hausNr": "2",
			"hausNrZusatz": "-4",
			"plz": "40472",
			"ort": "Düsseldorf"
		},
		"tel": "0211 4974-0",
		"fax": "0800 10092675103",
		"url": "www.finanzamt.nrw.de"
	},
	{
		"buFaNr": "5105",
		"name": "Düsseldorf-Nord",
		"hausanschrift": {
			"strasse": "Hans-Böckler-Str.",
			"hausNr": "36",
			"plz": "40476",
			"ort": "Düsseldorf"
		},
		"tel": "0211 4496-0",
		"fax": "0800 10092675105",
		"url": "www.finanzamt.nrw.de"
	},
	{
		"buFaNr": "5106",
		"name": "Düsseldorf-Süd",
		"hausanschrift": {
			"strasse": "Kruppstr.",
			"hausNr": "110",
			"hausNrZusatz": "-  112",
			"plz": "40227",
			"ort": "Düsseldorf"
		},
		"tel": "0211 7798-0",
		"fax": "0800 10092675106",
		"url": "www.finanzamt.nrw.de"
	},
	{
		"buFaNr": "5107",
		"name": "Duisburg-Hamborn",
		"hausanschrift": {
			"strasse": "Hufstr.",
			"hausNr": "25",
			"plz": "47166",
			"ort": "Duisburg"
		},
		"tel": "0203 5445-0",
		"fax": "0800 10092675107",
		"url": "www.finanzamt.nrw.de"
	},
	{
		"buFaNr": "5109",
		"name": "Duisburg-Süd",
		"hausanschrift": {
			"strasse": "Landfermannstr.",
			"hausNr": "25",
			"plz": "47051",
			"ort": "Duisburg"
		},
		"tel": "0203 3001-0",
		"fax": "0800 10092675109",
		"url": "www.finanzamt.nrw.de"
	},
	{
		"buFaNr": "5111",
		"name": "Essen-NordOst",
		"hausanschrift": {
			"strasse": "Altendorfer Str.",
			"hausNr": "129",
			"plz": "45143",
			"ort": "Essen"
		},
		"tel": "0201 1894-0",
		"fax": "0800 10092675111",
		"url": "www.finanzamt.nrw.de"
	},
	{
		"buFaNr": "5112",
		"name": "Essen-Süd",
		"hausanschrift": {
			"strasse": "Altendorfer Str.",
			"hausNr": "129",
			"plz": "45143",
			"ort": "Essen"
		},
		"tel": "0201 1894-0",
		"fax": "0800 10092675112",
		"url": "www.finanzamt.nrw.de"
	},
	{
		"buFaNr": "5113",
		"name": "Geldern",
		"hausanschrift": {
			"strasse": "Am Nierspark",
			"hausNr": "25",
			"plz": "47608",
			"ort": "Geldern"
		},
		"tel": "02831 127-0",
		"fax": "0800 10092675113",
		"url": "www.finanzamt.nrw.de"
	},
	{
		"buFaNr": "5114",
		"name": "Grevenbroich",
		"hausanschrift": {
			"strasse": "Merkatorstr.",
			"hausNr": "12",
			"plz": "41515",
			"ort": "Grevenbroich"
		},
		"tel": "02181 607-0",
		"fax": "0800 10092675114",
		"url": "www.finanzamt.nrw.de"
	},
	{
		"buFaNr": "5115",
		"name": "Kempen",
		"hausanschrift": {
			"strasse": "Arnoldstr.",
			"hausNr": "13",
			"plz": "47906",
			"ort": "Kempen"
		},
		"tel": "02152 919-0",
		"fax": "0800 10092675115",
		"url": "www.finanzamt.nrw.de"
	},
	{
		"buFaNr": "5116",
		"name": "Kleve",
		"hausanschrift": {
			"strasse": "Emmericher Str.",
			"hausNr": "182",
			"plz": "47533",
			"ort": "Kleve"
		},
		"tel": "02821 803-1020",
		"fax": "0800 10092675116",
		"url": "www.finanzamt.nrw.de"
	},
	{
		"buFaNr": "5117",
		"name": "Krefeld",
		"hausanschrift": {
			"strasse": "Grenzstr.",
			"hausNr": "100",
			"plz": "47799",
			"ort": "Krefeld"
		},
		"tel": "02151 854-0",
		"fax": "0800 10092675117",
		"url": "www.finanzamt.nrw.de"
	},
	{
		"buFaNr": "5119",
		"name": "Kamp-Lintfort",
		"hausanschrift": {
			"strasse": "Südstr.",
			"hausNr": "11",
			"plz": "47475",
			"ort": "Kamp-Lintfort"
		},
		"tel": "02842 121-0",
		"fax": "0800 10092675119",
		"url": "www.finanzamt.nrw.de"
	},
	{
		"buFaNr": "5120",
		"name": "Mülheim an der Ruhr",
		"hausanschrift": {
			"strasse": "Wilhelmstr.",
			"hausNr": "7",
			"plz": "45468",
			"ort": "Mülheim"
		},
		"tel": "0208 3001-0",
		"fax": "0800 10092675120",
		"url": "www.finanzamt.nrw.de"
	},
	{
		"buFaNr": "5121",
		"name": "Mönchengladbach",
		"hausanschrift": {
			"strasse": "Am Hockeypark",
			"hausNr": "2",
			"plz": "41179",
			"ort": "Mönchengladbach"
		},
		"tel": "02161 189-0",
		"fax": "0800 10092675121",
		"url": "www.finanzamt.nrw.de"
	},
	{
		"buFaNr": "5122",
		"name": "Neuss",
		"hausanschrift": {
			"strasse": "Hammfelddamm",
			"hausNr": "9",
			"plz": "41460",
			"ort": "Neuss"
		},
		"tel": "02131 6656-0",
		"fax": "0800 10092675122",
		"url": "www.finanzamt.nrw.de"
	},
	{
		"buFaNr": "5123",
		"name": "Oberhausen-Nord",
		"hausanschrift": {
			"strasse": "Gymnasialstr.",
			"hausNr": "16",
			"plz": "46145",
			"ort": "Oberhausen"
		},
		"tel": "0208 6499-0",
		"fax": "0800 10092675123",
		"url": "www.finanzamt.nrw.de"
	},
	{
		"buFaNr": "5124",
		"name": "Oberhausen-Süd",
		"hausanschrift": {
			"strasse": "Schwartzstr.",
			"hausNr": "7",
			"hausNrZusatz": "-9",
			"plz": "46045",
			"ort": "Oberhausen"
		},
		"tel": "0208 8504-0",
		"fax": "0800 10092675124",
		"url": "www.finanzamt.nrw.de"
	},
	{
		"buFaNr": "5126",
		"name": "Remscheid",
		"hausanschrift": {
			"strasse": "Wupperstr.",
			"hausNr": "10",
			"plz": "42897",
			"ort": "Remscheid"
		},
		"tel": "02191 961-0",
		"fax": "0800 10092675126",
		"url": "www.finanzamt.nrw.de"
	},
	{
		"buFaNr": "5128",
		"name": "Solingen",
		"hausanschrift": {
			"strasse": "Goerdelerstr.",
			"hausNr": "50",
			"plz": "42651",
			"ort": "Solingen"
		},
		"tel": "0212 282-0",
		"fax": "0800 10092675128",
		"url": "www.finanzamt.nrw.de"
	},
	{
		"buFaNr": "5130",
		"name": "Wesel",
		"hausanschrift": {
			"strasse": "Heuberg",
			"hausNr": "8",
			"plz": "46483",
			"ort": "Wesel"
		},
		"tel": "0281 105-0",
		"fax": "0800 10092675130",
		"url": "www.finanzamt.nrw.de"
	},
	{
		"buFaNr": "5131",
		"name": "Wuppertal-Barmen",
		"hausanschrift": {
			"strasse": "Unterdörnen",
			"hausNr": "96",
			"plz": "42283",
			"ort": "Wuppertal"
		},
		"tel": "0202 9543-0",
		"fax": "0800 10092675131",
		"url": "www.finanzamt.nrw.de"
	},
	{
		"buFaNr": "5132",
		"name": "Wuppertal-Elberfeld",
		"hausanschrift": {
			"strasse": "Kasinostr.",
			"hausNr": "12",
			"plz": "42103",
			"ort": "Wuppertal"
		},
		"tel": "0202 489-0",
		"fax": "0800 10092675132",
		"url": "www.finanzamt.nrw.de"
	},
	{
		"buFaNr": "5133",
		"name": "Düsseldorf-Mitte",
		"hausanschrift": {
			"strasse": "Kruppstr.",
			"hausNr": "110",
			"plz": "40227",
			"ort": "Düsseldorf"
		},
		"tel": "0211 7798-0",
		"fax": "0800 10092675133",
		"url": "www.finanzamt.nrw.de"
	},
	{
		"buFaNr": "5134",
		"name": "Duisburg-West",
		"hausanschrift": {
			"strasse": "Friedrich-Ebert-Str.",
			"hausNr": "133",
			"plz": "47226",
			"ort": "Duisburg"
		},
		"tel": "02065 307-0",
		"fax": "0800 10092675134",
		"url": "www.finanzamt.nrw.de"
	},
	{
		"buFaNr": "5135",
		"name": "Hilden",
		"hausanschrift": {
			"strasse": "Neustr.",
			"hausNr": "60",
			"plz": "40721",
			"ort": "Hilden"
		},
		"tel": "02103 917-0",
		"fax": "0800 10092675135",
		"url": "www.finanzamt.nrw.de"
	},
	{
		"buFaNr": "5139",
		"name": "Velbert",
		"hausanschrift": {
			"strasse": "Nedderstr.",
			"hausNr": "38",
			"plz": "42549",
			"ort": "Velbert"
		},
		"tel": "02051 47-0",
		"fax": "0800 10092675139",
		"url": "www.finanzamt.nrw.de"
	},
	{
		"buFaNr": "5147",
		"name": "Düsseldorf-Mettmann",
		"hausanschrift": {
			"strasse": "Harkortstr.",
			"hausNr": "2",
			"hausNrZusatz": "-4",
			"plz": "40210",
			"ort": "Düsseldorf"
		},
		"tel": "0211 3804-0",
		"fax": "0800 10092675147",
		"url": "www.finanzamt.nrw.de"
	},
	{
		"buFaNr": "5170",
		"name": "Düsseldorf I für Groß- und Konzernbetriebsprüfung",
		"hausanschrift": {
			"strasse": "Kanzlerstr.",
			"hausNr": "6",
			"plz": "40472",
			"ort": "Düsseldorf"
		},
		"tel": "0211 56354-0",
		"fax": "0800 10092675170",
		"url": "www.finanzamt.nrw.de"
	},
	{
		"buFaNr": "5171",
		"name": "Düsseldorf II für Groß- und Konzernbetriebsprüfung",
		"hausanschrift": {
			"strasse": "Kanzlerstr.",
			"hausNr": "6",
			"plz": "40472",
			"ort": "Düsseldorf"
		},
		"tel": "0211 56354-0",
		"fax": "0800 10092675171",
		"url": "www.finanzamt.nrw.de"
	},
	{
		"buFaNr": "5172",
		"name": "Essen für Groß- und Konzernbetriebsprüfung",
		"hausanschrift": {
			"strasse": "In der Hagenbeck",
			"hausNr": "64",
			"plz": "45143",
			"ort": "Essen"
		},
		"tel": "0201 6300-4",
		"fax": "0800 10092675172",
		"url": "www.finanzamt.nrw.de"
	},
	{
		"buFaNr": "5173",
		"name": "Krefeld für Groß- und Konzernbetriebsprüfung",
		"hausanschrift": {
			"strasse": "De-Greiff-Straße",
			"hausNr": "199",
			"plz": "47803",
			"ort": "Krefeld"
		},
		"tel": "02151 3650-0",
		"fax": "0800 10092675173",
		"url": "www.finanzamt.nrw.de"
	},
	{
		"buFaNr": "5174",
		"name": "Bergisches Land für Groß- und Konzernbetriebsprüfung",
		"hausanschrift": {
			"strasse": "Gleisdreieck",
			"hausNr": "5",
			"plz": "42651",
			"ort": "Solingen"
		},
		"tel": "0212 3801-0",
		"fax": "0800 10092675174",
		"url": "www.finanzamt.nrw.de"
	},
	{
		"buFaNr": "5176",
		"name": "Mönchengladbach für Groß- und Konzernbetriebsprüfung",
		"hausanschrift": {
			"strasse": "Am Hockeypark",
			"hausNr": "2",
			"plz": "41179",
			"ort": "Mönchengladbach"
		},
		"tel": "02161 189-0",
		"fax": "0800 10092675176",
		"url": "www.finanzamt.nrw.de"
	},
	{
		"buFaNr": "5181",
		"name": "Düsseldorf f. Steuerfahndung und Steuerstrafsachen",
		"hausanschrift": {
			"strasse": "Kruppstr.",
			"hausNr": "110",
			"hausNrZusatz": "-  112",
			"plz": "40227",
			"ort": "Düsseldorf"
		},
		"tel": "0211 7798-1777",
		"fax": "0800 10092675181",
		"url": "www.finanzamt.nrw.de"
	},
	{
		"buFaNr": "5182",
		"name": "Essen f. Steuerfahndung und Steuerstrafsachen",
		"hausanschrift": {
			"strasse": "In der Hagenbeck",
			"hausNr": "64",
			"plz": "45143",
			"ort": "Essen"
		},
		"tel": "0201 6300-0",
		"fax": "0800 10092675182",
		"url": "www.finanzamt.nrw.de"
	},
	{
		"buFaNr": "5183",
		"name": "Wuppertal f. Steuerfahndung und Steuerstrafsachen",
		"hausanschrift": {
			"strasse": "Unterdörnen",
			"hausNr": "96",
			"plz": "42283",
			"ort": "Wuppertal"
		},
		"tel": "0202 9543-3606",
		"fax": "0800 10092675183",
		"url": "www.finanzamt.nrw.de"
	},
	{
		"buFaNr": "5201",
		"name": "Aachen-Stadt",
		"hausanschrift": {
			"strasse": "Krefelder Str.",
			"hausNr": "210",
			"plz": "52070",
			"ort": "Aachen"
		},
		"tel": "0241 469-0",
		"fax": "0800 10092675201",
		"url": "www.finanzamt.nrw.de"
	},
	{
		"buFaNr": "5202",
		"name": "Aachen-Kreis",
		"hausanschrift": {
			"strasse": "Krefelder Straße",
			"hausNr": "210",
			"plz": "52070",
			"ort": "Aachen"
		},
		"tel": "0241 469-0",
		"fax": "0800 10092675202",
		"url": "www.finanzamt.nrw.de"
	},
	{
		"buFaNr": "5203",
		"name": "Bergheim",
		"hausanschrift": {
			"strasse": "Rathausstr.",
			"hausNr": "3",
			"plz": "50126",
			"ort": "Bergheim"
		},
		"tel": "02271 82-0",
		"fax": "0800 10092675203",
		"url": "www.finanzamt.nrw.de"
	},
	{
		"buFaNr": "5204",
		"name": "Bergisch Gladbach",
		"hausanschrift": {
			"strasse": "Refrather Weg",
			"hausNr": "35",
			"plz": "51469",
			"ort": "Bergisch Gladbach"
		},
		"tel": "02202 9342-0",
		"fax": "0800 10092675204",
		"url": "www.finanzamt.nrw.de"
	},
	{
		"buFaNr": "5205",
		"name": "Bonn-Innenstadt",
		"hausanschrift": {
			"strasse": "Welschnonnenstr.",
			"hausNr": "15",
			"plz": "53111",
			"ort": "Bonn"
		},
		"tel": "0228 718-0",
		"fax": "0800 10092675205",
		"url": "www.finanzamt.nrw.de"
	},
	{
		"buFaNr": "5206",
		"name": "Bonn-Außenstadt",
		"hausanschrift": {
			"strasse": "Bachstr.",
			"hausNr": "36",
			"plz": "53115",
			"ort": "Bonn"
		},
		"tel": "0228 7268-0",
		"fax": "0800 10092675206",
		"url": "www.finanzamt.nrw.de"
	},
	{
		"buFaNr": "5207",
		"name": "Düren",
		"hausanschrift": {
			"strasse": "Goethestr.",
			"hausNr": "7",
			"plz": "52349",
			"ort": "Düren"
		},
		"tel": "02421 947-0",
		"fax": "0800 10092675207",
		"url": "www.finanzamt.nrw.de"
	},
	{
		"buFaNr": "5208",
		"name": "Erkelenz",
		"hausanschrift": {
			"strasse": "Südpromenade",
			"hausNr": "37",
			"plz": "41812",
			"ort": "Erkelenz"
		},
		"tel": "02431 801-0",
		"fax": "0800 10092675208",
		"url": "www.finanzamt.nrw.de"
	},
	{
		"buFaNr": "5209",
		"name": "Euskirchen",
		"hausanschrift": {
			"strasse": "Thomas-Mann-Str.",
			"hausNr": "2",
			"plz": "53879",
			"ort": "Euskirchen"
		},
		"tel": "02251 982-0",
		"fax": "0800 10092675209",
		"url": "www.finanzamt.nrw.de"
	},
	{
		"buFaNr": "5210",
		"name": "Geilenkirchen",
		"hausanschrift": {
			"strasse": "Herz.-Wilh.-Str.",
			"hausNr": "41",
			"hausNrZusatz": "- 47",
			"plz": "52511",
			"ort": "Geilenkirchen"
		},
		"tel": "02451 623-0",
		"fax": "0800 10092675210",
		"url": "www.finanzamt.nrw.de"
	},
	{
		"buFaNr": "5211",
		"name": "Schleiden",
		"hausanschrift": {
			"strasse": "Kurhausstr.",
			"hausNr": "7",
			"plz": "53937",
			"ort": "Schleiden"
		},
		"tel": "02444 85-0",
		"fax": "0800 10092675211",
		"url": "www.finanzamt.nrw.de"
	},
	{
		"buFaNr": "5212",
		"name": "Gummersbach",
		"hausanschrift": {
			"strasse": "Mühlenbergweg",
			"hausNr": "5",
			"plz": "51645",
			"ort": "Gummersbach"
		},
		"tel": "02261 86-0",
		"fax": "0800 10092675212",
		"url": "www.finanzamt.nrw.de"
	},
	{
		"buFaNr": "5213",
		"name": "Jülich",
		"hausanschrift": {
			"strasse": "Wilhelmstraße",
			"hausNr": "5",
			"plz": "52428",
			"ort": "Jülich"
		},
		"tel": "02461 685-0",
		"fax": "0800 10092675213",
		"url": "www.finanzamt.nrw.de"
	},
	{
		"buFaNr": "5214",
		"name": "Köln-Altstadt",
		"hausanschrift": {
			"strasse": "Am Weidenbach",
			"hausNr": "2",
			"hausNrZusatz": "-4",
			"plz": "50676",
			"ort": "Köln"
		},
		"tel": "0221 2026-0",
		"fax": "0800 10092675214",
		"url": "www.finanzamt.nrw.de"
	},
	{
		"buFaNr": "5215",
		"name": "Köln-Mitte",
		"hausanschrift": {
			"strasse": "Blaubach",
			"hausNr": "7",
			"plz": "50676",
			"ort": "Köln"
		},
		"tel": "0221 92400-0",
		"fax": "0800 10092675215",
		"url": "www.finanzamt.nrw.de"
	},
	{
		"buFaNr": "5216",
		"name": "Köln-Porz",
		"hausanschrift": {
			"strasse": "Klingerstr.",
			"hausNr": "2",
			"hausNrZusatz": "-6",
			"plz": "51143",
			"ort": "Köln"
		},
		"tel": "02203 598-0",
		"fax": "0800 10092675216",
		"url": "www.finanzamt.nrw.de"
	},
	{
		"buFaNr": "5217",
		"name": "Köln-Nord",
		"hausanschrift": {
			"strasse": "Innere Kanalstr.",
			"hausNr": "214",
			"plz": "50670",
			"ort": "Köln"
		},
		"tel": "0221 97344-0",
		"fax": "0800 10092675217",
		"url": "www.finanzamt.nrw.de"
	},
	{
		"buFaNr": "5218",
		"name": "Köln-Ost",
		"hausanschrift": {
			"strasse": "Siegesstr.",
			"hausNr": "1",
			"plz": "50679",
			"ort": "Köln"
		},
		"tel": "0221 9805-0",
		"fax": "0800 10092675218",
		"url": "www.finanzamt.nrw.de"
	},
	{
		"buFaNr": "5219",
		"name": "Köln-Süd",
		"hausanschrift": {
			"strasse": "Am Weidenbach",
			"hausNr": "6",
			"plz": "50676",
			"ort": "Köln"
		},
		"tel": "0221 2026-0",
		"fax": "0800 10092675219",
		"url": "www.finanzamt.nrw.de"
	},
	{
		"buFaNr": "5220",
		"name": "Siegburg",
		"hausanschrift": {
			"strasse": "Mühlenstr.",
			"hausNr": "19",
			"plz": "53721",
			"ort": "Siegburg"
		},
		"tel": "02241 105-0",
		"fax": "0800 10092675220",
		"url": "www.finanzamt.nrw.de"
	},
	{
		"buFaNr": "5221",
		"name": "Wipperfürth",
		"hausanschrift": {
			"strasse": "Am Stauweiher",
			"hausNr": "3",
			"plz": "51688",
			"ort": "Wipperfürth"
		},
		"tel": "02267 870-0",
		"fax": "0800 10092675221",
		"url": "www.finanzamt.nrw.de"
	},
	{
		"buFaNr": "5222",
		"name": "Sankt Augustin",
		"hausanschrift": {
			"strasse": "Hubert-Minz-Str",
			"hausNr": "10",
			"plz": "53757",
			"ort": "Sankt Augustin"
		},
		"tel": "02241 242-0",
		"fax": "0800 10092675222",
		"url": "www.finanzamt.nrw.de"
	},
	{
		"buFaNr": "5223",
		"name": "Köln-West",
		"hausanschrift": {
			"strasse": "Haselbergstr.",
			"hausNr": "20",
			"plz": "50931",
			"ort": "Köln"
		},
		"tel": "0221 5734-0",
		"fax": "0800 10092675223",
		"url": "www.finanzamt.nrw.de"
	},
	{
		"buFaNr": "5224",
		"name": "Brühl",
		"hausanschrift": {
			"strasse": "Kölnstr.",
			"hausNr": "104",
			"plz": "50321",
			"ort": "Brühl"
		},
		"tel": "02232 703-0",
		"fax": "0800 10092675224",
		"url": "www.finanzamt.nrw.de"
	},
	{
		"buFaNr": "5230",
		"name": "Leverkusen",
		"hausanschrift": {
			"strasse": "Marie-Curie-Str.",
			"hausNr": "2",
			"plz": "51377",
			"ort": "Leverkusen"
		},
		"tel": "0214 89280-0",
		"fax": "0800 10092675230",
		"url": "www.finanzamt.nrw.de"
	},
	{
		"buFaNr": "5270",
		"name": "Köln für Groß- und Konzernbetriebsprüfung",
		"hausanschrift": {
			"strasse": "Am Gleisdreieck",
			"hausNr": "7",
			"hausNrZusatz": "-9",
			"plz": "50823",
			"ort": "Köln"
		},
		"tel": "0221 5772-1777",
		"fax": "0800 10092675270",
		"url": "www.finanzamt.nrw.de"
	},
	{
		"buFaNr": "5271",
		"name": "Aachen für Groß- und Konzernbetriebsprüfung",
		"hausanschrift": {
			"strasse": "Krefelder Str.",
			"hausNr": "210",
			"plz": "52070",
			"ort": "Aachen"
		},
		"tel": "0241 469-1780",
		"fax": "0800 10092675271",
		"url": "www.finanzamt.nrw.de"
	},
	{
		"buFaNr": "5272",
		"name": "Bonn für Groß- und Konzernbetriebsprüfung",
		"hausanschrift": {
			"strasse": "Kölnstr.",
			"hausNr": "32",
			"hausNrZusatz": "- 34",
			"plz": "53111",
			"ort": "Bonn"
		},
		"tel": "0228 718-3000",
		"fax": "0800 10092675272",
		"url": "www.finanzamt.nrw.de"
	},
	{
		"buFaNr": "5281",
		"name": "Aachen f. Steuerfahndung und Steuerstrafsachen",
		"hausanschrift": {
			"strasse": "Krefelder Str.",
			"hausNr": "210",
			"plz": "52070",
			"ort": "Aachen"
		},
		"tel": "0241 469-0",
		"fax": "0800 10092675281",
		"url": "www.finanzamt.nrw.de"
	},
	{
		"buFaNr": "5282",
		"name": "Bonn f. Steuerfahndung und Steuerstrafsachen",
		"hausanschrift": {
			"strasse": "Am Propsthof",
			"hausNr": "17",
			"plz": "53121",
			"ort": "Bonn"
		},
		"tel": "0228 18410-0",
		"fax": "0800 10092675282",
		"url": "www.finanzamt.nrw.de"
	},
	{
		"buFaNr": "5283",
		"name": "Köln f. Steuerfahndung und Steuerstrafsachen",
		"hausanschrift": {
			"strasse": "Am Gleisdreieck",
			"hausNr": "7",
			"hausNrZusatz": "- 9",
			"plz": "50823",
			"ort": "Köln"
		},
		"tel": "0221 5772-0",
		"fax": "0800 10092675283",
		"url": "www.finanzamt.nrw.de"
	},
	{
		"buFaNr": "5301",
		"name": "Ahaus",
		"hausanschrift": {
			"strasse": "Vredener Dyk",
			"hausNr": "2",
			"plz": "48683",
			"ort": "Ahaus"
		},
		"tel": "02561 929-0",
		"fax": "0800 10092675301",
		"url": "www.finanzamt.nrw.de"
	},
	{
		"buFaNr": "5302",
		"name": "Altena",
		"hausanschrift": {
			"strasse": "Winkelsen",
			"hausNr": "11",
			"plz": "58762",
			"ort": "Altena"
		},
		"tel": "02352 917-0",
		"fax": "0800 10092675302",
		"url": "www.finanzamt.nrw.de"
	},
	{
		"buFaNr": "5303",
		"name": "Arnsberg",
		"hausanschrift": {
			"strasse": "Rumbecker Str.",
			"hausNr": "36",
			"plz": "59821",
			"ort": "Arnsberg"
		},
		"tel": "02931 875-0",
		"fax": "0800 10092675303",
		"url": "www.finanzamt.nrw.de"
	},
	{
		"buFaNr": "5304",
		"name": "Beckum",
		"hausanschrift": {
			"strasse": "Paterweg",
			"hausNr": "25",
			"plz": "59269",
			"ort": "Beckum"
		},
		"tel": "02521 25-0",
		"fax": "0800 10092675304",
		"url": "www.finanzamt.nrw.de"
	},
	{
		"buFaNr": "5305",
		"name": "Bielefeld-Innenstadt",
		"hausanschrift": {
			"strasse": "Ravensberger Straße",
			"hausNr": "90",
			"plz": "33607",
			"ort": "Bielefeld"
		},
		"tel": "0521 548-0",
		"fax": "0800 10092675305",
		"url": "www.finanzamt.nrw.de"
	},
	{
		"buFaNr": "5306",
		"name": "Bochum-Mitte",
		"hausanschrift": {
			"strasse": "Castroper Str.",
			"hausNr": "40",
			"hausNrZusatz": "- 42",
			"plz": "44791",
			"ort": "Bochum"
		},
		"tel": "0234 514-0",
		"fax": "0800 10092675306",
		"url": "www.finanzamt.nrw.de"
	},
	{
		"buFaNr": "5307",
		"name": "Borken",
		"hausanschrift": {
			"strasse": "Nordring",
			"hausNr": "184",
			"plz": "46325",
			"ort": "Borken"
		},
		"tel": "02861 938-0",
		"fax": "0800 10092675307",
		"url": "www.finanzamt.nrw.de"
	},
	{
		"buFaNr": "5308",
		"name": "Bottrop",
		"hausanschrift": {
			"strasse": "Scharnhölzstr.",
			"hausNr": "32",
			"plz": "46236",
			"ort": "Bottrop"
		},
		"tel": "02041 691-0",
		"fax": "0800 10092675308",
		"url": "www.finanzamt.nrw.de"
	},
	{
		"buFaNr": "5309",
		"name": "Brilon",
		"hausanschrift": {
			"strasse": "Almerfeldweg",
			"hausNr": "30",
			"plz": "59929",
			"ort": "Brilon"
		},
		"tel": "02961 788-0",
		"fax": "0800 10092675309",
		"url": "www.finanzamt.nrw.de"
	},
	{
		"buFaNr": "5310",
		"name": "Bünde",
		"hausanschrift": {
			"strasse": "Lettow-Vorbeck-Str.",
			"hausNr": "2",
			"plz": "32257",
			"ort": "Bünde"
		},
		"tel": "05223 169-0",
		"fax": "0800 10092675310",
		"url": "www.finanzamt.nrw.de"
	},
	{
		"buFaNr": "5311",
		"name": "Steinfurt",
		"hausanschrift": {
			"strasse": "Ochtruper Str.",
			"hausNr": "2",
			"plz": "48565",
			"ort": "Steinfurt"
		},
		"tel": "02551 17-0",
		"fax": "0800 10092675311",
		"url": "www.finanzamt.nrw.de"
	},
	{
		"buFaNr": "5312",
		"name": "Coesfeld",
		"hausanschrift": {
			"strasse": "Friedrich-Ebert-Str.",
			"hausNr": "8",
			"plz": "48653",
			"ort": "Coesfeld"
		},
		"tel": "02541 732-0",
		"fax": "0800 10092675312",
		"url": "www.finanzamt.nrw.de"
	},
	{
		"buFaNr": "5313",
		"name": "Detmold",
		"hausanschrift": {
			"strasse": "Wotanstr.",
			"hausNr": "8",
			"hausNrZusatz": "-13",
			"plz": "32756",
			"ort": "Detmold"
		},
		"tel": "05231 972-0",
		"fax": "0800 10092675313",
		"url": "www.finanzamt.nrw.de"
	},
	{
		"buFaNr": "5314",
		"name": "Dortmund-West",
		"hausanschrift": {
			"strasse": "Märkische Straße",
			"hausNr": "124",
			"plz": "44141",
			"ort": "Dortmund"
		},
		"tel": "0231 9581-0",
		"fax": "0800 10092675314",
		"url": "www.finanzamt.nrw.de"
	},
	{
		"buFaNr": "5315",
		"name": "Dortmund-Hörde",
		"hausanschrift": {
			"strasse": "Niederhofener Str.",
			"hausNr": "3",
			"plz": "44263",
			"ort": "Dortmund"
		},
		"tel": "0231 4103-0",
		"fax": "0800 10092675315",
		"url": "www.finanzamt.nrw.de"
	},
	{
		"buFaNr": "5316",
		"name": "Dortmund-Unna",
		"hausanschrift": {
			"strasse": "Trakehnerweg",
			"hausNr": "4",
			"plz": "44143",
			"ort": "Dortmund"
		},
		"tel": "0231 5188-0",
		"fax": "0800 10092675316",
		"url": "www.finanzamt.nrw.de"
	},
	{
		"buFaNr": "5317",
		"name": "Dortmund-Ost",
		"hausanschrift": {
			"strasse": "Auf dem Hohwart",
			"hausNr": "2",
			"plz": "44143",
			"ort": "Dortmund"
		},
		"tel": "0231 5188-0",
		"fax": "0800 10092675317",
		"url": "www.finanzamt.nrw.de"
	},
	{
		"buFaNr": "5319",
		"name": "Gelsenkirchen",
		"hausanschrift": {
			"strasse": "Ludwig-Erhard-Str.",
			"hausNr": "7",
			"plz": "45891",
			"ort": "Gelsenkirchen"
		},
		"tel": "0209 173-0",
		"fax": "0800 10092675319",
		"url": "www.finanzamt.nrw.de"
	},
	{
		"buFaNr": "5321",
		"name": "Hagen",
		"hausanschrift": {
			"strasse": "Schürmannstr.",
			"hausNr": "7",
			"plz": "58097",
			"ort": "Hagen"
		},
		"tel": "02331 180-0",
		"fax": "0800 10092675321",
		"url": "www.finanzamt.nrw.de"
	},
	{
		"buFaNr": "5322",
		"name": "Hamm",
		"hausanschrift": {
			"strasse": "Grünstr.",
			"hausNr": "2",
			"plz": "59065",
			"ort": "Hamm"
		},
		"tel": "02381 918-0",
		"fax": "0800 10092675322",
		"url": "www.finanzamt.nrw.de"
	},
	{
		"buFaNr": "5323",
		"name": "Hattingen",
		"hausanschrift": {
			"strasse": "Rathausplatz",
			"hausNr": "19",
			"plz": "45525",
			"ort": "Hattingen"
		},
		"tel": "02324 208-0",
		"fax": "0800 10092675323",
		"url": "www.finanzamt.nrw.de"
	},
	{
		"buFaNr": "5324",
		"name": "Herford",
		"hausanschrift": {
			"strasse": "Wittekindstr.",
			"hausNr": "5",
			"plz": "32051",
			"ort": "Herford"
		},
		"tel": "05221 188-0",
		"fax": "0800 10092675324",
		"url": "www.finanzamt.nrw.de"
	},
	{
		"buFaNr": "5325",
		"name": "Herne",
		"hausanschrift": {
			"strasse": "Markgrafenstr.",
			"hausNr": "12",
			"plz": "44623",
			"ort": "Herne"
		},
		"tel": "02323 598-0",
		"fax": "0800 10092675325",
		"url": "www.finanzamt.nrw.de"
	},
	{
		"buFaNr": "5326",
		"name": "Höxter",
		"hausanschrift": {
			"strasse": "Bismarckstr.",
			"hausNr": "11",
			"plz": "37671",
			"ort": "Höxter"
		},
		"tel": "05271 969-0",
		"fax": "0800 10092675326",
		"url": "www.finanzamt.nrw.de"
	},
	{
		"buFaNr": "5327",
		"name": "Ibbenbüren",
		"hausanschrift": {
			"strasse": "Uphof",
			"hausNr": "10",
			"plz": "49477",
			"ort": "Ibbenbüren"
		},
		"tel": "05451 920-0",
		"fax": "0800 10092675327",
		"url": "www.finanzamt.nrw.de"
	},
	{
		"buFaNr": "5328",
		"name": "Iserlohn",
		"hausanschrift": {
			"strasse": "Zollernstr.",
			"hausNr": "16",
			"plz": "58636",
			"ort": "Iserlohn"
		},
		"tel": "02371 969-0",
		"fax": "0800 10092675328",
		"url": "www.finanzamt.nrw.de"
	},
	{
		"buFaNr": "5329",
		"name": "Lemgo",
		"hausanschrift": {
			"strasse": "Engelb.-Kämpfer-Str.",
			"hausNr": "18",
			"plz": "32657",
			"ort": "Lemgo"
		},
		"tel": "05261 253-0",
		"fax": "0800 10092675329",
		"url": "www.finanzamt.nrw.de"
	},
	{
		"buFaNr": "5330",
		"name": "Lippstadt",
		"hausanschrift": {
			"strasse": "Im Grünen Winkel",
			"hausNr": "5",
			"plz": "59555",
			"ort": "Lippstadt"
		},
		"tel": "02941 982-0",
		"fax": "0800 10092675330",
		"url": "www.finanzamt.nrw.de"
	},
	{
		"buFaNr": "5331",
		"name": "Lübbecke",
		"hausanschrift": {
			"strasse": "Bohlenstr.",
			"hausNr": "102",
			"plz": "32312",
			"ort": "Lübbecke"
		},
		"tel": "05741 334-0",
		"fax": "0800 10092675331",
		"url": "www.finanzamt.nrw.de"
	},
	{
		"buFaNr": "5332",
		"name": "Lüdenscheid",
		"hausanschrift": {
			"strasse": "Bahnhofsallee",
			"hausNr": "16",
			"plz": "58507",
			"ort": "Lüdenscheid"
		},
		"tel": "02351 155-0",
		"fax": "0800 10092675332",
		"url": "www.finanzamt.nrw.de"
	},
	{
		"buFaNr": "5333",
		"name": "Lüdinghausen",
		"hausanschrift": {
			"strasse": "Bahnhofstr.",
			"hausNr": "32",
			"plz": "59348",
			"ort": "Lüdinghausen"
		},
		"tel": "02591 930-0",
		"fax": "0800 10092675333",
		"url": "www.finanzamt.nrw.de"
	},
	{
		"buFaNr": "5334",
		"name": "Meschede",
		"hausanschrift": {
			"strasse": "Fritz-Honsel-Str.",
			"hausNr": "4",
			"plz": "59872",
			"ort": "Meschede"
		},
		"tel": "0291 950-0",
		"fax": "0800 10092675334",
		"url": "www.finanzamt.nrw.de"
	},
	{
		"buFaNr": "5335",
		"name": "Minden",
		"hausanschrift": {
			"strasse": "Heidestr.",
			"hausNr": "10",
			"plz": "32427",
			"ort": "Minden"
		},
		"tel": "0571 804-0",
		"fax": "0800 10092675335",
		"url": "www.finanzamt.nrw.de"
	},
	{
		"buFaNr": "5336",
		"name": "Münster-Außenstadt",
		"hausanschrift": {
			"strasse": "Friedrich-Ebert-Str.",
			"hausNr": "46",
			"plz": "48153",
			"ort": "Münster"
		},
		"tel": "0251 9729-0",
		"fax": "0800 10092675336",
		"url": "www.finanzamt.nrw.de"
	},
	{
		"buFaNr": "5337",
		"name": "Münster-Innenstadt",
		"hausanschrift": {
			"strasse": "Anton-Bruchausen-Str",
			"hausNr": "1",
			"plz": "48147",
			"ort": "Münster"
		},
		"tel": "0251 416-0",
		"fax": "0800 10092675337",
		"url": "www.finanzamt.nrw.de"
	},
	{
		"buFaNr": "5338",
		"name": "Olpe",
		"hausanschrift": {
			"strasse": "Am Gallenberg",
			"hausNr": "20",
			"plz": "57462",
			"ort": "Olpe"
		},
		"tel": "02761 963-0",
		"fax": "0800 10092675338",
		"url": "www.finanzamt.nrw.de"
	},
	{
		"buFaNr": "5339",
		"name": "Paderborn",
		"hausanschrift": {
			"strasse": "Stedener Feld",
			"hausNr": "10",
			"plz": "33104",
			"ort": "Paderborn"
		},
		"tel": "05251 100-0",
		"fax": "0800 10092675339",
		"url": "www.finanzamt.nrw.de"
	},
	{
		"buFaNr": "5340",
		"name": "Recklinghausen",
		"hausanschrift": {
			"strasse": "Westerholter Weg",
			"hausNr": "2",
			"plz": "45657",
			"ort": "Recklinghausen"
		},
		"tel": "02361 583-0",
		"fax": "0800 10092675340",
		"url": "www.finanzamt.nrw.de"
	},
	{
		"buFaNr": "5341",
		"name": "Schwelm",
		"hausanschrift": {
			"strasse": "Bahnhofplatz",
			"hausNr": "6",
			"plz": "58332",
			"ort": "Schwelm"
		},
		"tel": "02336 803-0",
		"fax": "0800 10092675341",
		"url": "www.finanzamt.nrw.de"
	},
	{
		"buFaNr": "5342",
		"name": "Siegen",
		"hausanschrift": {
			"strasse": "Weidenauer Str.",
			"hausNr": "207",
			"plz": "57076",
			"ort": "Siegen"
		},
		"tel": "0271 4890-0",
		"fax": "0800 10092675342",
		"url": "www.finanzamt.nrw.de"
	},
	{
		"buFaNr": "5343",
		"name": "Soest",
		"hausanschrift": {
			"strasse": "Heinsbergplatz",
			"hausNr": "13",
			"plz": "59494",
			"ort": "Soest"
		},
		"tel": "02921 351-0",
		"fax": "0800 10092675343",
		"url": "www.finanzamt.nrw.de"
	},
	{
		"buFaNr": "5345",
		"name": "Warburg",
		"hausanschrift": {
			"strasse": "Sternstr.",
			"hausNr": "33",
			"plz": "34414",
			"ort": "Warburg"
		},
		"tel": "05641 771-0",
		"fax": "0800 10092675345",
		"url": "www.finanzamt.nrw.de"
	},
	{
		"buFaNr": "5346",
		"name": "Warendorf",
		"hausanschrift": {
			"strasse": "Düsternstr.",
			"hausNr": "43",
			"plz": "48231",
			"ort": "Warendorf"
		},
		"tel": "02581 924-0",
		"fax": "0800 10092675346",
		"url": "www.finanzamt.nrw.de"
	},
	{
		"buFaNr": "5347",
		"name": "Wiedenbrück",
		"hausanschrift": {
			"strasse": "Am Sandberg",
			"hausNr": "56",
			"plz": "33378",
			"ort": "Rheda-Wiedenbrück"
		},
		"tel": "05242 934-0",
		"fax": "0800 10092675347",
		"url": "www.finanzamt.nrw.de"
	},
	{
		"buFaNr": "5348",
		"name": "Witten",
		"hausanschrift": {
			"strasse": "Ruhrstr.",
			"hausNr": "43",
			"plz": "58452",
			"ort": "Witten"
		},
		"tel": "02302 921-0",
		"fax": "0800 10092675348",
		"url": "www.finanzamt.nrw.de"
	},
	{
		"buFaNr": "5349",
		"name": "Bielefeld-Außenstadt",
		"hausanschrift": {
			"strasse": "Ravensberger Str.",
			"hausNr": "125",
			"plz": "33607",
			"ort": "Bielefeld"
		},
		"tel": "0521 548-0",
		"fax": "0800 10092675349",
		"url": "www.finanzamt.nrw.de"
	},
	{
		"buFaNr": "5350",
		"name": "Bochum-Süd",
		"hausanschrift": {
			"strasse": "Königsallee",
			"hausNr": "21",
			"plz": "44789",
			"ort": "Bochum"
		},
		"tel": "0234 3337-0",
		"fax": "0800 10092675350",
		"url": "www.finanzamt.nrw.de"
	},
	{
		"buFaNr": "5351",
		"name": "Gütersloh",
		"hausanschrift": {
			"strasse": "Neuenkirchener Str.",
			"hausNr": "86",
			"plz": "33332",
			"ort": "Gütersloh"
		},
		"tel": "05241 3071-0",
		"fax": "0800 10092675351",
		"url": "www.finanzamt.nrw.de"
	},
	{
		"buFaNr": "5359",
		"name": "Marl",
		"hausanschrift": {
			"strasse": "Brassertstr.",
			"hausNr": "1",
			"plz": "45768",
			"ort": "Marl"
		},
		"tel": "02365 516-0",
		"fax": "0800 10092675359",
		"url": "www.finanzamt.nrw.de"
	},
	{
		"buFaNr": "5371",
		"name": "Bielefeld für Groß- und Konzernbetriebsprüfung",
		"hausanschrift": {
			"strasse": "Ravensberger Str.",
			"hausNr": "90",
			"plz": "33607",
			"ort": "Bielefeld"
		},
		"tel": "0521 548-0",
		"fax": "0800 10092675371",
		"url": "www.finanzamt.nrw.de"
	},
	{
		"buFaNr": "5372",
		"name": "Herne für Groß- und Konzernbetriebsprüfung",
		"hausanschrift": {
			"strasse": "Hauptstr.",
			"hausNr": "123",
			"plz": "44651",
			"ort": "Herne"
		},
		"tel": "02325 693-0",
		"fax": "0800 10092675372",
		"url": "www.finanzamt.nrw.de"
	},
	{
		"buFaNr": "5373",
		"name": "Detmold für Groß- und Konzernbetriebsprüfung",
		"hausanschrift": {
			"strasse": "Richthofenstr.",
			"hausNr": "94",
			"plz": "32756",
			"ort": "Detmold"
		},
		"tel": "05231 9744-0",
		"fax": "0800 10092675373",
		"url": "www.finanzamt.nrw.de"
	},
	{
		"buFaNr": "5374",
		"name": "Dortmund für Groß- und Konzernbetriebsprüfung",
		"hausanschrift": {
			"strasse": "Auf dem Hohwart",
			"hausNr": "2",
			"plz": "44143",
			"ort": "Dortmund"
		},
		"tel": "0231 5188-1750",
		"fax": "0800 10092675374",
		"url": "www.finanzamt.nrw.de"
	},
	{
		"buFaNr": "5375",
		"name": "Hagen für Groß- und Konzernbetriebsprüfung",
		"hausanschrift": {
			"strasse": "Hochstr.",
			"hausNr": "43",
			"hausNrZusatz": "- 45",
			"plz": "58095",
			"ort": "Hagen"
		},
		"tel": "02331 3760-0",
		"fax": "0800 10092675375",
		"url": "www.finanzamt.nrw.de"
	},
	{
		"buFaNr": "5376",
		"name": "Münster für Groß- und Konzernbetriebsprüfung",
		"hausanschrift": {
			"strasse": "Albersloher Weg",
			"hausNr": "250",
			"plz": "48155",
			"ort": "Münster"
		},
		"tel": "0251 934-4000",
		"fax": "0800 10092675376",
		"url": "www.finanzamt.nrw.de"
	},
	{
		"buFaNr": "5381",
		"name": "Bielefeld f. Steuerfahndung und Steuerstrafsachen",
		"hausanschrift": {
			"strasse": "Ravensberger Str.",
			"hausNr": "90",
			"plz": "33607",
			"ort": "Bielefeld"
		},
		"tel": "0521 548-1381",
		"fax": "0800 10092675381",
		"url": "www.finanzamt.nrw.de"
	},
	{
		"buFaNr": "5382",
		"name": "Bochum f. Steuerfahndung und Steuerstrafsachen",
		"hausanschrift": {
			"strasse": "Philippstr,",
			"hausNr": "3",
			"plz": "44803",
			"ort": "Bochum"
		},
		"tel": "0234 5878-0",
		"fax": "0800 10092675382",
		"url": "www.finanzamt.nrw.de"
	},
	{
		"buFaNr": "5383",
		"name": "Hagen f. Steuerfahndung und Steuerstrafsachen",
		"hausanschrift": {
			"strasse": "Becheltestr.",
			"hausNr": "32",
			"plz": "58089",
			"ort": "Hagen"
		},
		"tel": "02331 3089-0",
		"fax": "0800 10092675383",
		"url": "www.finanzamt.nrw.de"
	},
	{
		"buFaNr": "5384",
		"name": "Münster f. Steuerfahndung und Steuerstrafsachen",
		"hausanschrift": {
			"strasse": "Albersloher Weg",
			"hausNr": "250",
			"plz": "48155",
			"ort": "Münster"
		},
		"tel": "0251 934-4500",
		"fax": "0800 10092675384",
		"url": "www.finanzamt.nrw.de"
	},
	{
		"buFaNr": "9101",
		"name": "Augsburg-Stadt Arbeitnehmerbereich",
		"hausanschrift": {
			"strasse": "Prinzregentenpl.",
			"hausNr": "2",
			"plz": "86150",
			"ort": "Augsburg"
		},
		"tel": "0821 506-01",
		"fax": "0821 506-2222",
		"mail": "poststelle.fa-a-s@finanzamt.bayern.de",
		"url": "www.finanzamt-augsburg-stadt.de"
	},
	{
		"buFaNr": "9102",
		"name": "Augsburg-Land",
		"hausanschrift": {
			"strasse": "Sieglindenstr.",
			"hausNr": "19",
			"hausNrZusatz": "-23",
			"plz": "86152",
			"ort": "Augsburg"
		},
		"tel": "0821 506-02",
		"fax": "0821 506-3270",
		"mail": "poststelle.fa-a-l@finanzamt.bayern.de",
		"url": "www.finanzamt-augsburg-land.de"
	},
	{
		"buFaNr": "9103",
		"name": "Augsburg-Stadt",
		"hausanschrift": {
			"strasse": "Prinzregentenpl.",
			"hausNr": "2",
			"plz": "86150",
			"ort": "Augsburg"
		},
		"tel": "0821 506-01",
		"fax": "0821 506-2222",
		"mail": "poststelle.fa-a-s@finanzamt.bayern.de",
		"url": "www.finanzamt-augsburg-stadt.de"
	},
	{
		"buFaNr": "9104",
		"name": "Wolfratshausen - Bad Tölz",
		"hausanschrift": {
			"strasse": "Prof.-Max-Lange-Platz",
			"hausNr": "2",
			"plz": "83646",
			"ort": "Bad Tölz"
		},
		"tel": "08041 8005-0",
		"fax": "08041 8005-185",
		"mail": "poststelle.fa-toel@finanzamt.bayern.de",
		"url": "www.finanzamt-bad-toelz.de"
	},
	{
		"buFaNr": "9105",
		"name": "Berchtesgaden-Laufen",
		"hausanschrift": {
			"strasse": "Salzburger Str.",
			"hausNr": "6",
			"plz": "83471",
			"ort": "Berchtesgaden"
		},
		"tel": "08652 960-0",
		"fax": "08652 960-212",
		"mail": "poststelle.fa-bgd@finanzamt.bayern.de",
		"url": "www.finanzamt-berchtesgaden.de"
	},
	{
		"buFaNr": "9106",
		"name": "Burghausen",
		"hausanschrift": {
			"strasse": "Tittmoninger Str.",
			"hausNr": "1",
			"plz": "84489",
			"ort": "Burghausen"
		},
		"tel": "08677 8706-0",
		"fax": "08677 8706-100",
		"mail": "poststelle.fa-burgh@finanzamt.bayern.de",
		"url": "www.finanzamt-burghausen.de"
	},
	{
		"buFaNr": "9107",
		"name": "Dachau",
		"hausanschrift": {
			"strasse": "Bürgermeister-Zauner-Ring",
			"hausNr": "2",
			"plz": "85221",
			"ort": "Dachau"
		},
		"tel": "08131 701-0",
		"fax": "08131 701-111",
		"mail": "poststelle.fa-dah@finanzamt.bayern.de",
		"url": "www.finanzamt-dachau.de"
	},
	{
		"buFaNr": "9108",
		"name": "Deggendorf",
		"hausanschrift": {
			"strasse": "Pfleggasse",
			"hausNr": "18",
			"plz": "94469",
			"ort": "Deggendorf"
		},
		"tel": "0991 384-0",
		"fax": "0991 384-150",
		"mail": "poststelle.fa-deg@finanzamt.bayern.de",
		"url": "www.finanzamt-deggendorf.de"
	},
	{
		"buFaNr": "9109",
		"name": "Dillingen",
		"hausanschrift": {
			"strasse": "Schloßstr.",
			"hausNr": "3",
			"plz": "89407",
			"ort": "Dillingen"
		},
		"tel": "09071 507-0",
		"fax": "09071 507-300",
		"mail": "poststelle.fa-dlg@finanzamt.bayern.de",
		"url": "www.finanzamt-dillingen.de"
	},
	{
		"buFaNr": "9110",
		"name": "Dingolfing",
		"hausanschrift": {
			"strasse": "Obere Stadt",
			"hausNr": "44",
			"plz": "84130",
			"ort": "Dingolfing"
		},
		"tel": "08731 504-0",
		"fax": "08731 504-190",
		"mail": "poststelle.fa-dgf@finanzamt.bayern.de",
		"url": "www.finanzamt-dingolfing.de"
	},
	{
		"buFaNr": "9111",
		"name": "Nördlingen mit ASt Donauwörth",
		"hausanschrift": {
			"strasse": "Sallingerstr.",
			"hausNr": "2",
			"plz": "86609",
			"ort": "Donauwörth"
		},
		"tel": "09081 215 - 0",
		"fax": "09081 215 -2510",
		"mail": "poststelle.fa-noe@finanzamt.bayern.de",
		"url": "www.finanzamt-donauwoerth.de"
	},
	{
		"buFaNr": "9112",
		"name": "Ebersberg",
		"hausanschrift": {
			"strasse": "Schloßplatz",
			"hausNr": "1",
			"hausNrZusatz": "-3",
			"plz": "85560",
			"ort": "Ebersberg"
		},
		"tel": "08092 267-0",
		"fax": "08092 267-102",
		"mail": "poststelle.fa-ebe@finanzamt.bayern.de",
		"url": "www.finanzamt-ebersberg.de"
	},
	{
		"buFaNr": "9113",
		"name": "Eggenfelden",
		"hausanschrift": {
			"strasse": "Pfarrkirchner Str.",
			"hausNr": "71",
			"plz": "84307",
			"ort": "Eggenfelden"
		},
		"tel": "08721 981-0",
		"fax": "08721 981-200",
		"mail": "poststelle.fa-eg@finanzamt.bayern.de",
		"url": "www.finanzamt-eggenfelden.de"
	},
	{
		"buFaNr": "9114",
		"name": "Erding",
		"hausanschrift": {
			"strasse": "Münchener Str.",
			"hausNr": "31",
			"plz": "85435",
			"ort": "Erding"
		},
		"tel": "08122 188-0",
		"fax": "08122 188-150",
		"mail": "poststelle.fa-ed@finanzamt.bayern.de",
		"url": "www.finanzamt-erding.de"
	},
	{
		"buFaNr": "9115",
		"name": "Freising",
		"hausanschrift": {
			"strasse": "Prinz-Ludwig-Str.",
			"hausNr": "26",
			"plz": "85354",
			"ort": "Freising"
		},
		"tel": "08161 493-0",
		"fax": "08161 493-4470",
		"mail": "poststelle.fa-fs@finanzamt.bayern.de",
		"url": "www.finanzamt-freising.de"
	},
	{
		"buFaNr": "9116",
		"name": "Bundeszentralamt für Steuern",
		"hausanschrift": {
			"strasse": "An der Küppe",
			"hausNr": "1",
			"plz": "53225",
			"ort": "Bonn"
		},
		"tel": "0228 406-0",
		"fax": "0228 406-2661",
		"mail": "Poststelle@bzst.bund.de"
	},
	{
		"buFaNr": "9117",
		"name": "Fürstenfeldbruck",
		"hausanschrift": {
			"strasse": "Münchner Str.",
			"hausNr": "36",
			"plz": "82256",
			"ort": "Fürstenfeldbruck"
		},
		"tel": "08141 60-0",
		"fax": "08141 60-150",
		"mail": "poststelle.fa-ffb@finanzamt.bayern.de",
		"url": "www.finanzamt-fuerstenfeldbruck.de"
	},
	{
		"buFaNr": "9119",
		"name": "Garmisch-Partenkirchen",
		"hausanschrift": {
			"strasse": "Dompfaffstr.",
			"hausNr": "5",
			"plz": "82467",
			"ort": "Garmisch-Partenkirchen"
		},
		"tel": "08821 700-0",
		"fax": "08821 700-520",
		"mail": "poststelle.fa-gap@finanzamt.bayern.de",
		"url": "www.finanzamt-garmisch-partenkirchen.de"
	},
	{
		"buFaNr": "9121",
		"name": "Günzburg",
		"hausanschrift": {
			"strasse": "Schloßpl.",
			"hausNr": "3",
			"plz": "89312",
			"ort": "Günzburg"
		},
		"tel": "08221 902-0",
		"fax": "08221 902-209",
		"mail": "poststelle.fa-gz@finanzamt.bayern.de",
		"url": "www.finanzamt-guenzburg.de"
	},
	{
		"buFaNr": "9123",
		"name": "Kempten-Immenstadt",
		"hausanschrift": {
			"strasse": "Rothenfelsstr.",
			"hausNr": "18",
			"plz": "87509",
			"ort": "Immenstadt"
		},
		"tel": "08323 801-0",
		"fax": "08323 801-2235",
		"mail": "poststelle.fa-immen@finanzamt.bayern.de",
		"url": "www.finanzamt-immenstadt.de"
	},
	{
		"buFaNr": "9124",
		"name": "Ingolstadt",
		"hausanschrift": {
			"strasse": "Esplanade",
			"hausNr": "38",
			"plz": "85049",
			"ort": "Ingolstadt"
		},
		"tel": "0841 311-0",
		"fax": "0841 311-133",
		"mail": "poststelle.fa-in@finanzamt.bayern.de",
		"url": "www.finanzamt-ingolstadt.de"
	},
	{
		"buFaNr": "9125",
		"name": "Kaufbeuren m. ASt Füssen",
		"hausanschrift": {
			"strasse": "Remboldstr.",
			"hausNr": "21",
			"plz": "87600",
			"ort": "Kaufbeuren"
		},
		"tel": "08341 802-0",
		"fax": "08341 802-221",
		"mail": "poststelle.fa-kf@finanzamt.bayern.de",
		"url": "www.finanzamt-kaufbeuren.de"
	},
	{
		"buFaNr": "9126",
		"name": "Kelheim",
		"hausanschrift": {
			"strasse": "Klosterstr.",
			"hausNr": "1",
			"plz": "93309",
			"ort": "Kelheim"
		},
		"tel": "09441 201-0",
		"fax": "09441 201-201",
		"mail": "poststelle.fa-keh@finanzamt.bayern.de",
		"url": "www.finanzamt-kelheim.de"
	},
	{
		"buFaNr": "9127",
		"name": "Kempten-Immenstadt",
		"hausanschrift": {
			"strasse": "Am Stadtpark",
			"hausNr": "3",
			"plz": "87435",
			"ort": "Kempten"
		},
		"tel": "0831 256 - 0",
		"fax": "0831 256 - 1260",
		"mail": "poststelle.fa-ke@finanzamt.bayern.de",
		"url": "www.finanzamt-kempten.de"
	},
	{
		"buFaNr": "9131",
		"name": "Landsberg am Lech",
		"hausanschrift": {
			"strasse": "Israel-Beker-Str.",
			"hausNr": "20",
			"plz": "86899",
			"ort": "Landsberg am Lech"
		},
		"tel": "08191 332-0",
		"fax": "08191 332-108",
		"mail": "poststelle.fa-ll@finanzamt.bayern.de",
		"url": "www.finanzamt-landsberg.de"
	},
	{
		"buFaNr": "9132",
		"name": "Landshut",
		"hausanschrift": {
			"strasse": "Maximilianstr.",
			"hausNr": "21",
			"plz": "84028",
			"ort": "Landshut"
		},
		"tel": "0871 8529-000",
		"fax": "0871 8529-360",
		"mail": "poststelle.fa-la@finanzamt.bayern.de",
		"url": "www.finanzamt-landshut.de"
	},
	{
		"buFaNr": "9134",
		"name": "Lindau",
		"hausanschrift": {
			"strasse": "Brettermarkt",
			"hausNr": "4",
			"plz": "88131",
			"ort": "Lindau"
		},
		"tel": "08382 916-0",
		"fax": "08382 916-100",
		"mail": "poststelle.fa-li@finanzamt.bayern.de",
		"url": "www.finanzamt-lindau.de"
	},
	{
		"buFaNr": "9138",
		"name": "Memmingen-Mindelheim",
		"hausanschrift": {
			"strasse": "Bodenseestr.",
			"hausNr": "6",
			"plz": "87700",
			"ort": "Memmingen"
		},
		"tel": "08331 608-0",
		"fax": "08331 608-165",
		"mail": "poststelle.fa-mm@finanzamt.bayern.de",
		"url": "www.finanzamt-memmingen.de"
	},
	{
		"buFaNr": "9139",
		"name": "Miesbach",
		"hausanschrift": {
			"strasse": "Schlierseer Str.",
			"hausNr": "5",
			"plz": "83714",
			"ort": "Miesbach"
		},
		"tel": "08025 709-0",
		"fax": "08025 709-500",
		"mail": "poststelle.fa-mb@finanzamt.bayern.de",
		"url": "www.finanzamt-miesbach.de"
	},
	{
		"buFaNr": "9140",
		"name": "Memmingen-Mindelheim",
		"hausanschrift": {
			"strasse": "Bahnhofstr.",
			"hausNr": "16",
			"plz": "87719",
			"ort": "Mindelheim"
		},
		"tel": "08331 608-0",
		"fax": "08331 608-800",
		"mail": "poststelle.fa-mn@finanzamt.bayern.de",
		"url": "www.finanzamt-mindelheim.de"
	},
	{
		"buFaNr": "9141",
		"name": "Mühldorf",
		"hausanschrift": {
			"strasse": "Katharinenplatz",
			"hausNr": "16",
			"plz": "84453",
			"ort": "Mühldorf"
		},
		"tel": "08631 616-0",
		"fax": "08631 616-100",
		"mail": "poststelle.fa-mue@finanzamt.bayern.de",
		"url": "www.finanzamt-muehldorf.de"
	},
	{
		"buFaNr": "9142",
		"name": "München Bewertung des Grundbesitzes",
		"hausanschrift": {
			"strasse": "Katharina-von-Bora-Straße",
			"hausNr": "4",
			"plz": "80333",
			"ort": "München"
		},
		"tel": "089 1252-0",
		"fax": "089 1252-7777",
		"mail": "poststelle-hoe@famuc.bayern.de",
		"url": "www.finanzamt-muenchen.de"
	},
	{
		"buFaNr": "9143",
		"name": "München Körperschaften/PersonenGesellschaften",
		"hausanschrift": {
			"strasse": "Katharina-von-Bora-Straße",
			"hausNr": "4",
			"plz": "80333",
			"ort": "München"
		},
		"tel": "089 1252-0",
		"fax": "089 1252-7777",
		"mail": "poststelle-abteilung3@famuc.bayern.de",
		"url": "www.finanzamt-muenchen.de"
	},
	{
		"buFaNr": "9144",
		"name": "München Gewinneinkünfte",
		"hausanschrift": {
			"strasse": "Deroystr.",
			"hausNr": "10",
			"plz": "80335",
			"ort": "München"
		},
		"tel": "089 1252-0",
		"fax": "089 1252-1111",
		"mail": "poststelle-abteilung1@famuc.bayern.de",
		"url": "www.finanzamt-muenchen.de"
	},
	{
		"buFaNr": "9145",
		"name": "München Gewinneinkünfte",
		"hausanschrift": {
			"strasse": "Deroystr.",
			"hausNr": "10",
			"plz": "80335",
			"ort": "München"
		},
		"tel": "089 1252-0",
		"fax": "089 1252-3333",
		"mail": "poststelle-abteilung1@famuc.bayern.de",
		"url": "www.finanzamt-muenchen.de"
	},
	{
		"buFaNr": "9146",
		"name": "München Gewinneinkünfte",
		"hausanschrift": {
			"strasse": "Deroystr.",
			"hausNr": "10",
			"plz": "80335",
			"ort": "München"
		},
		"tel": "089 1252-0",
		"fax": "089 1252-4000",
		"mail": "poststelle-abteilung1@famuc.bayern.de",
		"url": "www.finanzamt-muenchen.de"
	},
	{
		"buFaNr": "9147",
		"name": "München Gewinneinkünfte",
		"hausanschrift": {
			"strasse": "Deroystr.",
			"hausNr": "10",
			"plz": "80335",
			"ort": "München"
		},
		"tel": "089 1252-0",
		"fax": "089 1252-2222",
		"mail": "poststelle-abteilung1@famuc.bayern.de",
		"url": "www.finanzamt-muenchen.de"
	},
	{
		"buFaNr": "9148",
		"name": "München Gewinneinkünfte",
		"hausanschrift": {
			"strasse": "Deroystr.",
			"hausNr": "10",
			"plz": "80335",
			"ort": "München"
		},
		"tel": "089 1252-0",
		"fax": "089 1252-5281",
		"mail": "poststelle-abteilung1@famuc.bayern.de",
		"url": "www.finanzamt-muenchen.de"
	},
	{
		"buFaNr": "9149",
		"name": "München Erhebung",
		"hausanschrift": {
			"strasse": "Winzererstr.",
			"hausNr": "47",
			"hausNrZusatz": "a",
			"plz": "80797",
			"ort": "München"
		},
		"tel": "089 1252-0",
		"fax": "089 1252-8888",
		"mail": "poststelle-abteilung6@famuc.bayern.de",
		"url": "www.finanzamt-muenchen.de"
	},
	{
		"buFaNr": "9151",
		"name": "Neu-Ulm",
		"hausanschrift": {
			"strasse": "Nelsonallee",
			"hausNr": "5",
			"plz": "89231",
			"ort": "Neu-Ulm"
		},
		"tel": "0731 7045-0",
		"fax": "0731 7045-500",
		"mail": "poststelle.fa-nu@finanzamt.bayern.de",
		"url": "www.finanzamt-neu-ulm.de"
	},
	{
		"buFaNr": "9152",
		"name": "Nördlingen mit ASt Donauwörth",
		"hausanschrift": {
			"strasse": "Tändelmarkt",
			"hausNr": "1",
			"plz": "86720",
			"ort": "Nördlingen"
		},
		"tel": "09081 215-0",
		"fax": "09081 215-1010",
		"mail": "poststelle.fa-noe@finanzamt.bayern.de",
		"url": "www.finanzamt-noerdlingen.de"
	},
	{
		"buFaNr": "9153",
		"name": "Passau mit Außenstellen",
		"hausanschrift": {
			"strasse": "Innstr.",
			"hausNr": "36",
			"plz": "94032",
			"ort": "Passau"
		},
		"tel": "0851 504-0",
		"fax": "0851 504-1410",
		"mail": "poststelle.fa-pa@finanzamt.bayern.de",
		"url": "www.finanzamt-passau.de"
	},
	{
		"buFaNr": "9154",
		"name": "Pfaffenhofen",
		"hausanschrift": {
			"strasse": "Schirmbeckstr.",
			"hausNr": "5",
			"plz": "85276",
			"ort": "Pfaffenhofen a. d. Ilm"
		},
		"tel": "08441 77-0",
		"fax": "08441 77-199",
		"mail": "poststelle.fa-paf@finanzamt.bayern.de",
		"url": "www.finanzamt-pfaffenhofen.de"
	},
	{
		"buFaNr": "9156",
		"name": "Rosenheim m. ASt Wasserburg",
		"hausanschrift": {
			"strasse": "Wittelsbacherstr.",
			"hausNr": "25",
			"plz": "83022",
			"ort": "Rosenheim"
		},
		"tel": "08031 201-0",
		"fax": "08031 201-222",
		"mail": "poststelle.fa-ro@finanzamt.bayern.de",
		"url": "www.finanzamt-rosenheim.de"
	},
	{
		"buFaNr": "9157",
		"name": "Grafenau",
		"hausanschrift": {
			"strasse": "Friedhofstr.",
			"hausNr": "1",
			"plz": "94481",
			"ort": "Grafenau"
		},
		"tel": "08552 423-0",
		"fax": "08552 423-170",
		"mail": "poststelle.fa-gra@finanzamt.bayern.de",
		"url": "www.finanzamt-grafenau.de"
	},
	{
		"buFaNr": "9159",
		"name": "Schrobenhausen m. ASt Neuburg",
		"hausanschrift": {
			"strasse": "Rot-Kreuz-Str.",
			"hausNr": "2",
			"plz": "86529",
			"ort": "Schrobenhausen"
		},
		"tel": "08252 918-0",
		"fax": "08252 918-430",
		"mail": "poststelle.fa-sob@finanzamt.bayern.de",
		"url": "www.finanzamt-schrobenhausen.de"
	},
	{
		"buFaNr": "9161",
		"name": "Starnberg",
		"hausanschrift": {
			"strasse": "Schloßbergstr.",
			"hausNr": "12",
			"plz": "82319",
			"ort": "Starnberg"
		},
		"tel": "08151 778-0",
		"fax": "08151 778-250",
		"mail": "poststelle.fa-sta@finanzamt.bayern.de",
		"url": "www.finanzamt-starnberg.de"
	},
	{
		"buFaNr": "9162",
		"name": "Straubing",
		"hausanschrift": {
			"strasse": "Fürstenstr.",
			"hausNr": "21",
			"plz": "94315",
			"ort": "Straubing"
		},
		"tel": "09421 941-0",
		"fax": "09421 941-272",
		"mail": "poststelle.fa-sr@finanzamt.bayern.de",
		"url": "www.finanzamt-straubing.de"
	},
	{
		"buFaNr": "9163",
		"name": "Traunstein",
		"hausanschrift": {
			"strasse": "Herzog-Otto-Str.",
			"hausNr": "6",
			"plz": "83278",
			"ort": "Traunstein"
		},
		"tel": "0861 701-0",
		"fax": "0861 701-104",
		"mail": "poststelle.fa-ts@finanzamt.bayern.de",
		"url": "www.finanzamt-traunstein.de"
	},
	{
		"buFaNr": "9168",
		"name": "Weilheim-Schongau",
		"hausanschrift": {
			"strasse": "Hofstr.",
			"hausNr": "23",
			"plz": "82362",
			"ort": "Weilheim"
		},
		"tel": "0881 184-0",
		"fax": "0881 184-500",
		"mail": "poststelle.fa-wm@finanzamt.bayern.de",
		"url": "www.finanzamt-weilheim.de"
	},
	{
		"buFaNr": "9169",
		"name": "Wolfratshausen - Bad Tölz",
		"hausanschrift": {
			"strasse": "Heimgartenstr.",
			"hausNr": "5",
			"plz": "82515",
			"ort": "Wolfratshausen"
		},
		"tel": "08171 25-0",
		"fax": "08171 25-150",
		"mail": "poststelle.fa-wor@finanzamt.bayern.de",
		"url": "www.finanzamt-wolfratshausen.de"
	},
	{
		"buFaNr": "9170",
		"name": "Zwiesel m. ASt Viechtach",
		"hausanschrift": {
			"strasse": "Stadtplatz",
			"hausNr": "16",
			"plz": "94227",
			"ort": "Zwiesel"
		},
		"tel": "09922 507-0",
		"fax": "09922 507-200",
		"mail": "poststelle.fa-zwi@finanzamt.bayern.de",
		"url": "www.finanzamt-zwiesel.de"
	},
	{
		"buFaNr": "9171",
		"name": "Eichstätt",
		"hausanschrift": {
			"strasse": "Residenzplatz",
			"hausNr": "8",
			"plz": "85072",
			"ort": "Eichstätt"
		},
		"tel": "08421 6007-0",
		"fax": "08421 6007-400",
		"mail": "poststelle.fa-ei@finanzamt.bayern.de",
		"url": "www.finanzamt-eichstaett.de"
	},
	{
		"buFaNr": "9181",
		"name": "München Überschusseinkünfte",
		"hausanschrift": {
			"strasse": "Deroystr.",
			"hausNr": "18",
			"plz": "80335",
			"ort": "München"
		},
		"tel": "089 1252-0",
		"fax": "089 1252-1991",
		"mail": "poststelle-deg@famuc.bayern.de",
		"url": "www.finanzamt-muenchen.de"
	},
	{
		"buFaNr": "9182",
		"name": "München Überschusseinkünfte u. Beschränkt Steuerpfl.",
		"hausanschrift": {
			"strasse": "Deroystr.",
			"hausNr": "18",
			"plz": "80335",
			"ort": "München"
		},
		"tel": "089 1252-0",
		"fax": "089 1252-2888",
		"mail": "poststelle-sr@famuc.bayern.de",
		"url": "www.finanzamt-muenchen.de"
	},
	{
		"buFaNr": "9183",
		"name": "München Überschusseinkünfte",
		"hausanschrift": {
			"strasse": "Deroystr.",
			"hausNr": "18",
			"plz": "80335",
			"ort": "München"
		},
		"tel": "089 1252-0",
		"fax": "089 1252-3788",
		"mail": "poststelle-in@famuc.bayern.de",
		"url": "www.finanzamt-muenchen.de"
	},
	{
		"buFaNr": "9184",
		"name": "München Überschusseinkünfte",
		"hausanschrift": {
			"strasse": "Deroystr.",
			"hausNr": "18",
			"plz": "80335",
			"ort": "München"
		},
		"tel": "089 1252-0",
		"fax": "089 1252-4820",
		"mail": "poststelle-pa@famuc.bayern.de",
		"url": "www.finanzamt-muenchen.de"
	},
	{
		"buFaNr": "9185",
		"name": "München Überschusseinkünfte",
		"hausanschrift": {
			"strasse": "Deroystr.",
			"hausNr": "18",
			"plz": "80335",
			"ort": "München"
		},
		"tel": "089 1252-0",
		"fax": "089 1252-7899",
		"mail": "poststelle-ei@famuc.bayern.de",
		"url": "www.finanzamt-muenchen.de"
	},
	{
		"buFaNr": "9187",
		"name": "München Körperschaften",
		"hausanschrift": {
			"strasse": "Katharina-von-Bora-Straße",
			"hausNr": "4",
			"plz": "80333",
			"ort": "München"
		},
		"tel": "089 1252-0",
		"fax": "089 1252-7777",
		"mail": "poststelle-abteilung3@famuc.bayern.de",
		"url": "www.finanzamt-muenchen.de"
	},
	{
		"buFaNr": "9188",
		"name": "München Betriebsprüfung",
		"hausanschrift": {
			"strasse": "Deroystr.",
			"hausNr": "22",
			"plz": "80335",
			"ort": "München"
		},
		"tel": "089 1252-0",
		"fax": "089 1252-9119 (2222)",
		"mail": "poststelle-abteilung5@famuc.bayern.de",
		"url": "www.finanzamt-muenchen.de"
	},
	{
		"buFaNr": "9189",
		"name": "München Erhebung",
		"hausanschrift": {
			"strasse": "Winzererstr.",
			"hausNr": "47",
			"hausNrZusatz": "a",
			"plz": "80797",
			"ort": "München"
		},
		"tel": "089 1252-0",
		"fax": "089 1252-8888 (1900)",
		"mail": "poststelle-abteilung6@famuc.bayern.de",
		"url": "www.finanzamt-muenchen.de"
	},
	{
		"buFaNr": "9201",
		"name": "Amberg",
		"hausanschrift": {
			"strasse": "Kirchensteig",
			"hausNr": "2",
			"plz": "92224",
			"ort": "Amberg"
		},
		"tel": "09621 36-0",
		"fax": "09621 36-413",
		"mail": "poststelle.fa-am@finanzamt.bayern.de",
		"url": "www.finanzamt-amberg.de"
	},
	{
		"buFaNr": "9202",
		"name": "Obernburg am Main mit Außenstelle Amorbach",
		"hausanschrift": {
			"strasse": "Römerstr.",
			"hausNr": "91",
			"plz": "63785",
			"ort": "Obernburg am Main"
		},
		"tel": "09373 202-0",
		"fax": "09373 202-100",
		"mail": "poststelle-obernburg.fa-amorb@finanzamt.bayern.de",
		"url": "www.finanzamt-amorbach.de"
	},
	{
		"buFaNr": "9203",
		"name": "Ansbach mit Außenstellen",
		"hausanschrift": {
			"strasse": "Mozartstr.",
			"hausNr": "25",
			"plz": "91522",
			"ort": "Ansbach"
		},
		"tel": "0981 16-0",
		"fax": "0981 16-333",
		"mail": "poststelle.fa-an@finanzamt.bayern.de",
		"url": "www.finanzamt-ansbach.de"
	},
	{
		"buFaNr": "9204",
		"name": "Aschaffenburg",
		"hausanschrift": {
			"strasse": "Auhofstr.",
			"hausNr": "13",
			"plz": "63741",
			"ort": "Aschaffenburg"
		},
		"tel": "06021 492-0",
		"fax": "06021 492-1000",
		"mail": "poststelle.fa-ab@finanzamt.bayern.de",
		"url": "www.finanzamt-aschaffenburg.de"
	},
	{
		"buFaNr": "9205",
		"name": "Bad Kissingen",
		"hausanschrift": {
			"strasse": "Bibrastr.",
			"hausNr": "10",
			"plz": "97688",
			"ort": "Bad Kissingen"
		},
		"tel": "0971 8021-0",
		"fax": "0971 8021-200",
		"mail": "poststelle.fa-kg@finanzamt.bayern.de",
		"url": "www.finanzamt-bad-kissingen.de"
	},
	{
		"buFaNr": "9206",
		"name": "Bad Neustadt a.d.S.",
		"hausanschrift": {
			"strasse": "Meininger Str.",
			"hausNr": "39",
			"plz": "97616",
			"ort": "Bad Neustadt"
		},
		"tel": "09771 9104-0",
		"fax": "09771 9104-444",
		"mail": "poststelle.fa-nes@finanzamt.bayern.de",
		"url": "www.finanzamt-bad-neustadt.de"
	},
	{
		"buFaNr": "9207",
		"name": "Bamberg",
		"hausanschrift": {
			"strasse": "Martin-Luther-Str.",
			"hausNr": "1",
			"plz": "96050",
			"ort": "Bamberg"
		},
		"tel": "0951 84-0",
		"fax": "0951 84-230",
		"mail": "poststelle.fa-ba@finanzamt.bayern.de",
		"url": "www.finanzamt-bamberg.de"
	},
	{
		"buFaNr": "9208",
		"name": "Bayreuth",
		"hausanschrift": {
			"strasse": "Maximilianstr.",
			"hausNr": "12",
			"hausNrZusatz": "/14",
			"plz": "95444",
			"ort": "Bayreuth"
		},
		"tel": "0921 609-0",
		"fax": "0921 609-1011",
		"mail": "poststelle.fa-bt@finanzamt.bayern.de",
		"url": "www.finanzamt-bayreuth.de"
	},
	{
		"buFaNr": "9211",
		"name": "Cham mit Außenstelle Bad Kötzting",
		"hausanschrift": {
			"strasse": "Reberstr.",
			"hausNr": "2",
			"plz": "93413",
			"ort": "Cham"
		},
		"tel": "09971 488-0",
		"fax": "09971 488-199",
		"mail": "poststelle.fa-cha@finanzamt.bayern.de",
		"url": "www.finanzamt-cham.de"
	},
	{
		"buFaNr": "9212",
		"name": "Coburg",
		"hausanschrift": {
			"strasse": "Rodacher Straße",
			"hausNr": "4",
			"plz": "96450",
			"ort": "Coburg"
		},
		"tel": "09561 646-0",
		"fax": "09561 646-130",
		"mail": "poststelle.fa-co@finanzamt.bayern.de",
		"url": "www.finanzamt-coburg.de"
	},
	{
		"buFaNr": "9216",
		"name": "Erlangen",
		"hausanschrift": {
			"strasse": "Schubertstr",
			"hausNr": "10",
			"plz": "91052",
			"ort": "Erlangen"
		},
		"tel": "09131 121-0",
		"fax": "09131 121-369",
		"mail": "poststelle.fa-er@finanzamt.bayern.de",
		"url": "www.finanzamt-erlangen.de"
	},
	{
		"buFaNr": "9217",
		"name": "Forchheim",
		"hausanschrift": {
			"strasse": "Dechant-Reuder-Str.",
			"hausNr": "6",
			"plz": "91301",
			"ort": "Forchheim"
		},
		"tel": "09191 626-0",
		"fax": "09191 626-200",
		"mail": "poststelle.fa-fo@finanzamt.bayern.de",
		"url": "www.finanzamt-forchheim.de"
	},
	{
		"buFaNr": "9218",
		"name": "Fürth",
		"hausanschrift": {
			"strasse": "Stresemannplatz",
			"hausNr": "15",
			"plz": "90763",
			"ort": "Fürth"
		},
		"tel": "0911 7435-0",
		"fax": "0911 7435-350",
		"mail": "poststelle.fa-fue@finanzamt.bayern.de",
		"url": "www.finanzamt-fuerth.de"
	},
	{
		"buFaNr": "9220",
		"name": "Gunzenhausen",
		"hausanschrift": {
			"strasse": "Hindenburgplatz",
			"hausNr": "1",
			"plz": "91710",
			"ort": "Gunzenhausen"
		},
		"tel": "09831 8009-0",
		"fax": "09831 8009-277",
		"mail": "poststelle.fa-gun@finanzamt.bayern.de",
		"url": "www.finanzamt-gunzenhausen.de"
	},
	{
		"buFaNr": "9221",
		"name": "Hersbruck",
		"hausanschrift": {
			"strasse": "Amberger Str.",
			"hausNr": "76",
			"plz": "91217",
			"ort": "Hersbruck"
		},
		"tel": "09151 731-0",
		"fax": "09151 731-1500",
		"mail": "poststelle.fa-heb@finanzamt.bayern.de",
		"url": "www.finanzamt-hersbruck.de"
	},
	{
		"buFaNr": "9222",
		"name": "Hilpoltstein",
		"hausanschrift": {
			"strasse": "Spitalwinkel",
			"hausNr": "3",
			"plz": "91161",
			"ort": "Hilpoltstein"
		},
		"tel": "09174 469-0",
		"fax": "09174 469-100",
		"mail": "poststelle.fa-hip@finanzamt.bayern.de",
		"url": "www.finanzamt-hilpoltstein.de"
	},
	{
		"buFaNr": "9223",
		"name": "Hof mit Außenstellen",
		"hausanschrift": {
			"strasse": "Ernst-Reuter-Str.",
			"hausNr": "60",
			"plz": "95030",
			"ort": "Hof"
		},
		"tel": "09281 929-0",
		"fax": "09281 929-1500",
		"mail": "poststelle.fa-ho@finanzamt.bayern.de",
		"url": "www.finanzamt-hof.de"
	},
	{
		"buFaNr": "9227",
		"name": "Kitzingen",
		"hausanschrift": {
			"strasse": "Moltkestr.",
			"hausNr": "24",
			"plz": "97318",
			"ort": "Kitzingen"
		},
		"tel": "09321 703-0",
		"fax": "09321 703-444",
		"mail": "poststelle.fa-kt@finanzamt.bayern.de",
		"url": "www.finanzamt-kitzingen.de"
	},
	{
		"buFaNr": "9228",
		"name": "Kronach",
		"hausanschrift": {
			"strasse": "Amtsgerichtsstr.",
			"hausNr": "13",
			"plz": "96317",
			"ort": "Kronach"
		},
		"tel": "09261 510-0",
		"fax": "09261 510-199",
		"mail": "poststelle.fa-kc@finanzamt.bayern.de",
		"url": "www.finanzamt-kronach.de"
	},
	{
		"buFaNr": "9229",
		"name": "Kulmbach",
		"hausanschrift": {
			"strasse": "Georg-Hagen-Str.",
			"hausNr": "17",
			"plz": "95326",
			"ort": "Kulmbach"
		},
		"tel": "09221 650-0",
		"fax": "09221 650-283",
		"mail": "poststelle.fa-ku@finanzamt.bayern.de",
		"url": "www.finanzamt-kulmbach.de"
	},
	{
		"buFaNr": "9230",
		"name": "Lichtenfels",
		"hausanschrift": {
			"strasse": "Kronacher Str.",
			"hausNr": "39",
			"plz": "96215",
			"ort": "Lichtenfels"
		},
		"tel": "09571 764-0",
		"fax": "09571 764-420",
		"mail": "poststelle.fa-lif@finanzamt.bayern.de",
		"url": "www.finanzamt-lichtenfels.de"
	},
	{
		"buFaNr": "9231",
		"name": "Lohr a. Main mit Außenstellen",
		"hausanschrift": {
			"strasse": "Rexrothstr.",
			"hausNr": "14",
			"plz": "97816",
			"ort": "Lohr"
		},
		"tel": "09352 850-0",
		"fax": "09352 850-1300",
		"mail": "poststelle.fa-loh@finanzamt.bayern.de",
		"url": "www.finanzamt-lohr.de"
	},
	{
		"buFaNr": "9232",
		"name": "Lohr a. Main mit Außenstellen - Grunderwerbsteuer",
		"hausanschrift": {
			"strasse": "Rexrothstr.",
			"hausNr": "14",
			"plz": "97816",
			"ort": "Lohr"
		},
		"tel": "09352 850-0",
		"fax": "09352 850-1300",
		"mail": "poststelle.fa-loh@finanzamt.bayern.de",
		"url": "www.finanzamt-lohr.de"
	},
	{
		"buFaNr": "9235",
		"name": "Neumarkt i.d.Opf.",
		"hausanschrift": {
			"strasse": "Ingolstädter Str.",
			"hausNr": "3",
			"plz": "92318",
			"ort": "Neumarkt"
		},
		"tel": "09181 692-0",
		"fax": "09181 692-1200",
		"mail": "poststelle.fa-nm@finanzamt.bayern.de",
		"url": "/www.finanzamt-neumarkt.de"
	},
	{
		"buFaNr": "9238",
		"name": "Nürnberg-Nord",
		"hausanschrift": {
			"strasse": "Kirchenweg",
			"hausNr": "10",
			"plz": "90419",
			"ort": "Nürnberg"
		},
		"tel": "0911 3998-0",
		"fax": "0911 3998-296",
		"mail": "poststelle.fa-n-n@finanzamt.bayern.de",
		"url": "www.finanzamt-nuernberg-nord.de"
	},
	{
		"buFaNr": "9240",
		"name": "Nürnberg-Süd",
		"hausanschrift": {
			"strasse": "Sandstr.",
			"hausNr": "20",
			"plz": "90443",
			"ort": "Nürnberg"
		},
		"tel": "0911 248-0",
		"fax": "0911 248-2599",
		"mail": "poststelle.fa-n-s@finanzamt.bayern.de",
		"url": "www.finanzamt-nuernberg-sued.de"
	},
	{
		"buFaNr": "9241",
		"name": "Nürnberg-Zentral",
		"hausanschrift": {
			"strasse": "Thomas-Mann-Str.",
			"hausNr": "50",
			"plz": "90471",
			"ort": "Nürnberg"
		},
		"tel": "0911 5393-0",
		"fax": "0911 5393-2000",
		"mail": "poststelle.fa-n-zfa@finanzamt.bayern.de",
		"url": "www.zentralfinanzamt-nuernberg.de"
	},
	{
		"buFaNr": "9244",
		"name": "Regensburg",
		"hausanschrift": {
			"strasse": "Galgenbergstr.",
			"hausNr": "31",
			"plz": "93053",
			"ort": "Regensburg"
		},
		"tel": "0941 5024-0",
		"fax": "0941 5024-1199",
		"mail": "poststelle.fa-r@finanzamt.bayern.de",
		"url": "www.finanzamt-regensburg.de"
	},
	{
		"buFaNr": "9247",
		"name": "Schwabach",
		"hausanschrift": {
			"strasse": "Theodor-Heuss-Str.",
			"hausNr": "63",
			"plz": "91126",
			"ort": "Schwabach"
		},
		"tel": "09122 928-0",
		"fax": "09122 928-100",
		"mail": "poststelle.fa-sc@finanzamt.bayern.de",
		"url": "www.finanzamt-schwabach.de"
	},
	{
		"buFaNr": "9248",
		"name": "Schwandorf mit Außenstelle Neunburg v. W.",
		"hausanschrift": {
			"strasse": "Friedrich-Ebert-Str.",
			"hausNr": "59",
			"plz": "92421",
			"ort": "Schwandorf"
		},
		"tel": "09431 382-0",
		"fax": "09431 382-111",
		"mail": "poststelle.fa-sad@finanzamt.bayern.de",
		"url": "www.finanzamt-schwandorf.de"
	},
	{
		"buFaNr": "9249",
		"name": "Schweinfurt",
		"hausanschrift": {
			"strasse": "Schrammstr.",
			"hausNr": "3",
			"plz": "97421",
			"ort": "Schweinfurt"
		},
		"tel": "09721 2911-0",
		"fax": "09721 2911-5070",
		"mail": "poststelle.fa-sw@finanzamt.bayern.de",
		"url": "www.finanzamt-schweinfurt.de"
	},
	{
		"buFaNr": "9252",
		"name": "Uffenheim",
		"hausanschrift": {
			"strasse": "Schloßplatz",
			"hausNr": "7",
			"plz": "97215",
			"ort": "Uffenheim"
		},
		"tel": "09842 200-0",
		"fax": "09842 200-345",
		"mail": "poststelle.fa-uff@finanzamt.bayern.de",
		"url": "www.finanzamt-uffenheim.de"
	},
	{
		"buFaNr": "9254",
		"name": "Waldsassen",
		"hausanschrift": {
			"strasse": "Johannisplatz",
			"hausNr": "13",
			"plz": "95652",
			"ort": "Waldsassen"
		},
		"tel": "09632 847-0",
		"fax": "09632 847-199",
		"mail": "poststelle.fa-wasa@finanzamt.bayern.de",
		"url": "www.finanzamt-waldsassen.de"
	},
	{
		"buFaNr": "9255",
		"name": "Weiden i.d.Opf.",
		"hausanschrift": {
			"strasse": "Schlörpl.",
			"hausNr": "2",
			"hausNrZusatz": "u. 4",
			"plz": "92637",
			"ort": "Weiden"
		},
		"tel": "0961 301-0",
		"fax": "0961 32600",
		"mail": "poststelle.fa-wen@finanzamt.bayern.de",
		"url": "www.finanzamt-weiden.de"
	},
	{
		"buFaNr": "9257",
		"name": "Würzburg mit Außenstelle Ochsenfurt",
		"hausanschrift": {
			"strasse": "Ludwigstr.",
			"hausNr": "25",
			"plz": "97070",
			"ort": "Würzburg"
		},
		"tel": "0931 387-0",
		"fax": "0931 387-4444",
		"mail": "poststelle.fa-wue@finanzamt.bayern.de",
		"url": "www.finanzamt-wuerzburg.de"
	},
	{
		"buFaNr": "9258",
		"name": "Wunsiedel mit Außenstelle Selb",
		"hausanschrift": {
			"strasse": "Sonnenstr.",
			"hausNr": "11",
			"plz": "95632",
			"ort": "Wunsiedel"
		},
		"tel": "09232 607-0",
		"fax": "09232 607-200",
		"mail": "poststelle.fa-wun@finanzamt.bayern.de",
		"url": "www.finanzamt-wunsiedel.de"
	},
	{
		"buFaNr": "9259",
		"name": "Zeil am Main mit Außenstelle Ebern",
		"hausanschrift": {
			"strasse": "Obere Torstr.",
			"hausNr": "9",
			"plz": "97475",
			"ort": "Zeil"
		},
		"tel": "09524 824-0",
		"fax": "09524 824-100",
		"mail": "poststelle.fa-zei@finanzamt.bayern.de",
		"url": "www.finanzamt-zeil.de"
	},
	{
		"buFaNr": "2171",
		"name": "Bad Segeberg Bewertung für Grundsteuer 71",
		"hausanschrift": {
			"strasse": "Theodor-Storm-Str.",
			"hausNr": "4",
			"hausNrZusatz": "-10",
			"plz": "23795",
			"ort": "Bad Segeberg"
		},
		"tel": "04551 54-0",
		"fax": "04551 54-303",
		"mail": "poststelle@fa-bad-segeberg.landsh.de"
	},
	{
		"buFaNr": "2173",
		"name": "Elmshorn Bewertung für Grundsteuer 73",
		"hausanschrift": {
			"strasse": "Friedensallee ",
			"hausNr": "7",
			"hausNrZusatz": "-9",
			"plz": "25335",
			"ort": "Elshorn"
		},
		"tel": "04121 481-0",
		"fax": "04121 481-460",
		"mail": "poststelle@fa-elmshorn.landsh.de"
	},
	{
		"buFaNr": "2175",
		"name": "Flensburg Bewertung für Grundsteuer 75",
		"hausanschrift": {
			"strasse": "Duburger Str.",
			"hausNr": "58 -6",
			"plz": "24939",
			"ort": "Flensburg"
		},
		"tel": "0461 813-0",
		"fax": "0461 813-254",
		"mail": "poststelle@fa-flensburg.landsh.de"
	},
	{
		"buFaNr": "2190",
		"name": "Stormarn Bewertung für Grundsteuer 90",
		"hausanschrift": {
			"strasse": "Berliner Ring",
			"hausNr": "25",
			"plz": "23843",
			"ort": "Bad Oldesloe"
		},
		"tel": "04531 507-0",
		"fax": "04531 507-399",
		"mail": "poststelle@fa-stormarn.landsh.de"
	},
	{
		"buFaNr": "2184",
		"name": "Neumünster Bewertung für Grundsteuer 84",
		"hausanschrift": {
			"strasse": "Bahnhofstr.",
			"hausNr": "9",
			"plz": "24534",
			"ort": "Neumünster"
		},
		"tel": "04321 496-0",
		"fax": "04321 496-189",
		"mail": "poststelle@fa-neumuenster.landsh.de"
	},
	{
		"buFaNr": "2186",
		"name": "Plön Bewertung für Grundsteuer 86",
		"hausanschrift": {
			"strasse": "Fünf-Seen-Allee",
			"hausNr": "1",
			"plz": "24306",
			"ort": "Plön"
		},
		"tel": "04522 506-0",
		"fax": "04522 506-2149",
		"mail": "poststelle@fa-ploen.landsh.de"
	},
	{
		"buFaNr": "2189",
		"name": "Eckernförde-Schleswig Bewertung für Grundsteuer 89",
		"hausanschrift": {
			"strasse": "Suadicanistraße",
			"hausNr": "26-28",
			"plz": "24837",
			"ort": "Schleswig"
		},
		"tel": "04621 805-0",
		"fax": "04621 805-290",
		"mail": "poststelle@fa-eck-sl.landsh.de"
	},
	{
		"buFaNr": "2191",
		"name": "Pinneberg Bewertung für Grundsteuer 91",
		"hausanschrift": {
			"strasse": "Friedrich-Ebert-Str.",
			"hausNr": "29",
			"plz": "25421",
			"ort": "Pinneberg"
		},
		"tel": "04101 5472-0",
		"fax": "04101 5472-680",
		"mail": "poststelle@fa-pinneberg.landsh.de"
	},
	{
		"buFaNr": "2187",
		"name": "Ratzeburg Bewertung für Grundsteuer 87",
		"hausanschrift": {
			"strasse": "Bahnhofsallee",
			"hausNr": "20",
			"plz": "23909",
			"ort": "Ratzeburg"
		},
		"tel": "04541 882-0",
		"fax": "04541 882-200",
		"mail": "poststelle@fa-ratzeburg.landsh.de"
	},
	{
		"buFaNr": "2172",
		"name": "Eckernförde-Schleswig Bewertung für Grundsteuer 72",
		"hausanschrift": {
			"strasse": "Suadicanistraße",
			"hausNr": "26-28",
			"plz": "24837",
			"ort": "Schleswig"
		},
		"tel": "04621 805-0",
		"fax": "04621 805-290",
		"mail": "poststelle@fa-eck-sl.landsh.de"
	},
	{
		"buFaNr": "2183",
		"name": "Dithmarschen Bewertung für Grundsteuer 83",
		"hausanschrift": {
			"strasse": "Berliner Str.",
			"hausNr": "19",
			"plz": "25746",
			"ort": "Heide"
		},
		"tel": "0481 42155-0",
		"fax": "0481 42155-690",
		"mail": "poststelle@fa-dithmarschen.landsh.de"
	},
	{
		"buFaNr": "2180",
		"name": "Kiel Bewertung für Grundsteuer 80",
		"hausanschrift": {
			"strasse": "Feldstr.",
			"hausNr": "23",
			"plz": "24105",
			"ort": "Kiel"
		},
		"tel": "0431 602-0",
		"fax": "0431 602-1009",
		"mail": "poststelle@fa-kiel.landsh.de"
	},
	{
		"buFaNr": "2188",
		"name": "Rendsburg Bewertung für Grundsteuer 88",
		"hausanschrift": {
			"strasse": "Kieler Str.",
			"hausNr": "19",
			"plz": "24768",
			"ort": "Rendsburg"
		},
		"tel": "04331 598-0",
		"fax": "04331 598-2770",
		"mail": "poststelle@fa-rendsburg.landsh.de"
	},
	{
		"buFaNr": "2179",
		"name": "Kiel Bewertung für Grundsteuer 79",
		"hausanschrift": {
			"strasse": "Feldstr.",
			"hausNr": "23",
			"plz": "24105",
			"ort": "Kiel"
		},
		"tel": "0431 602-0",
		"fax": "0431 602-1009",
		"mail": "poststelle@fa-kiel.landsh.de"
	},
	{
		"buFaNr": "2182",
		"name": "Lübeck Bewertung für Grundsteuer 82",
		"hausanschrift": {
			"strasse": "Possehlstr.",
			"hausNr": "4",
			"plz": "23560",
			"ort": "Lübeck"
		},
		"tel": "0451 132-0",
		"fax": "0451 132-501",
		"mail": "poststelle@fa-luebeck.landsh.de"
	},
	{
		"buFaNr": "2185",
		"name": "Ostholstein Bewertung für Grundsteuer 85",
		"hausanschrift": {
			"strasse": "Lankenstr.",
			"hausNr": "1",
			"plz": "23758",
			"ort": "Oldenburg"
		},
		"tel": "04361 497-0",
		"fax": "04361 497-111",
		"mail": "poststelle@fa-ostholstein.landsh.de"
	},
	{
		"buFaNr": "2176",
		"name": "Dithmarschen Bewertung für Grundsteuer 76",
		"hausanschrift": {
			"strasse": "Berliner Str.",
			"hausNr": "19",
			"plz": "25746",
			"ort": "Heide"
		},
		"tel": "0481 42155-0",
		"fax": "0481 42155-690",
		"mail": "poststelle@fa-dithmarschen.landsh.de"
	},
	{
		"buFaNr": "2177",
		"name": "Nordfriesland Bewertung für Grundsteuer 77",
		"hausanschrift": {
			"strasse": "Herzog-Adolf-Straße",
			"hausNr": "18",
			"hausNrZusatz": "a",
			"plz": "25813",
			"ort": "Husum"
		},
		"tel": "04841 8949-0",
		"fax": "04841 8949-1265",
		"mail": "poststelle@fa-nordfriesland.landsh.de"
	},
	{
		"buFaNr": "2178",
		"name": "Itzehoe Bewertung für Grundsteuer 78",
		"hausanschrift": {
			"strasse": "Fehrsstr.",
			"hausNr": "5",
			"plz": "25524",
			"ort": "Itzehoe"
		},
		"tel": "04821 66-0",
		"fax": "04821 66-1499",
		"mail": "poststelle@fa-itzehoe.landsh.de"
	},
	{
		"buFaNr": "2181",
		"name": "Nordfriesland Bewertung für Grundsteuer 81",
		"hausanschrift": {
			"strasse": "Herzog-Adolf-Straße",
			"hausNr": "18",
			"hausNrZusatz": "a",
			"plz": "25813",
			"ort": "Husum"
		},
		"tel": "04841 8949-0",
		"fax": "04841 8949-1265",
		"mail": "poststelle@fa-nordfriesland.landsh.de"
	},
	{
		"buFaNr": "1115",
		"name": "Berlin International",
		"hausanschrift": {
			"strasse": "Thiemannstraße",
			"hausNr": "1",
			"plz": "12059",
			"ort": "Berlin"
		},
		"tel": "030 9024-150",
		"mail": "poststelle@fa15.berlin.de",
		"url": "http://www.berlin.de/sen/finanzen"
	},
	{
		"buFaNr": "5380",
		"name": "Landesamt zur Bekämpfung der Finanzkriminalität",
		"hausanschrift": {
			"strasse": "Erkrather Str.",
			"hausNr": "339",
			"plz": "40231",
			"ort": "Düsseldorf"
		},
		"tel": "0211 957633-0",
		"fax": "0211 957633-1200"
	}
]
